{
  "type": "FeatureCollection",
  "name": "Estações Meteorológicas Plugfield - Passo Fundo",
  "crs": {
    "type": "name",
    "properties": {
      "name": "urn:ogc:def:crs:OGC:1.3:CRS84"
    }
  },
  "features": [
    {
      "type": "Feature",
      "properties": {
        "deviceId": 4283,
        "nome_estacao": "Transbrasiliana",
        "tipo": "Urbana / Perimetral",
        "provedor": "Rede Plugfield",
        "municipio": "Passo Fundo / RS"
      },
      "geometry": { "type": "Point", "coordinates": [-52.3952, -28.2721] }
    },
    {
      "type": "Feature",
      "properties": {
        "deviceId": 4253,
        "nome_estacao": "Capinzal",
        "tipo": "Rural / Bacia Hidrográfica",
        "provedor": "Rede Plugfield",
        "municipio": "Passo Fundo / RS"
      },
      "geometry": { "type": "Point", "coordinates": [-52.4820, -28.2250] }
    },
    {
      "type": "Feature",
      "properties": {
        "deviceId": 4798,
        "nome_estacao": "Sede Independência",
        "tipo": "Urbana / Administrativa",
        "provedor": "Rede Plugfield",
        "municipio": "Passo Fundo / RS"
      },
      "geometry": { "type": "Point", "coordinates": [-52.4110, -28.2580] }
    },
    {
      "type": "Feature",
      "properties": {
        "deviceId": 4416,
        "nome_estacao": "São Roque",
        "tipo": "Rural / Setor Leste",
        "provedor": "Rede Plugfield",
        "municipio": "Passo Fundo / RS"
      },
      "geometry": { "type": "Point", "coordinates": [-52.3210, -28.2890] }
    },
    {
      "type": "Feature",
      "properties": {
        "deviceId": 3009,
        "nome_estacao": "Avena",
        "tipo": "Rural / Agrícola",
        "provedor": "Rede Plugfield",
        "municipio": "Passo Fundo / RS"
      },
      "geometry": { "type": "Point", "coordinates": [-52.639036, -28.082155] }
    },
    {
      "type": "Feature",
      "properties": {
        "deviceId": 4931,
        "nome_estacao": "Pulador",
        "tipo": "Rural / Bacia Hidrográfica",
        "provedor": "Rede Plugfield",
        "municipio": "Passo Fundo / RS"
      },
      "geometry": { "type": "Point", "coordinates": [-52.4190, -28.3610] }
    },
    {
      "type": "Feature",
      "properties": {
        "deviceId": 4965,
        "nome_estacao": "Quinto Giongo (Victor Issler)",
        "tipo": "Urbana / Bairro Victor Issler",
        "provedor": "Rede Plugfield",
        "municipio": "Passo Fundo / RS"
      },
      "geometry": { "type": "Point", "coordinates": [-52.3820, -28.2430] }
    },
    {
      "type": "Feature",
      "properties": {
        "deviceId": 4678,
        "nome_estacao": "Fredolino Chimango (Centro)",
        "tipo": "Urbana / Centro",
        "provedor": "Rede Plugfield",
        "municipio": "Passo Fundo / RS"
      },
      "geometry": { "type": "Point", "coordinates": [-52.4080, -28.2620] }
    },
    {
      "type": "Feature",
      "properties": {
        "deviceId": 2856,
        "nome_estacao": "Fazenda Bugre",
        "tipo": "Rural / Bacia Hidrográfica",
        "provedor": "Rede Plugfield",
        "municipio": "Passo Fundo / RS"
      },
      "geometry": { "type": "Point", "coordinates": [-52.4980, -28.1820] }
    },
    {
      "type": "Feature",
      "properties": {
        "deviceId": 4712,
        "nome_estacao": "Bela Vista",
        "tipo": "Urbana / Bairro Bela Vista",
        "provedor": "Rede Plugfield",
        "municipio": "Passo Fundo / RS"
      },
      "geometry": { "type": "Point", "coordinates": [-52.4250, -28.2490] }
    },
    {
      "type": "Feature",
      "properties": {
        "deviceId": 4713,
        "nome_estacao": "Bom Recreio",
        "tipo": "Rural / Setor Norte",
        "provedor": "Rede Plugfield",
        "municipio": "Passo Fundo / RS"
      },
      "geometry": { "type": "Point", "coordinates": [-52.3890, -28.1690] }
    },
    {
      "type": "Feature",
      "properties": {
        "deviceId": 4714,
        "nome_estacao": "Lobo da Costa (Entre Rios)",
        "tipo": "Rural / Bacia Hidrográfica",
        "provedor": "Rede Plugfield",
        "municipio": "Passo Fundo / RS"
      },
      "geometry": { "type": "Point", "coordinates": [-52.3480, -28.2120] }
    },
    {
      "type": "Feature",
      "properties": {
        "deviceId": 4717,
        "nome_estacao": "Camponesa",
        "tipo": "Urbana / Bairro Camponesa",
        "provedor": "Rede Plugfield",
        "municipio": "Passo Fundo / RS"
      },
      "geometry": { "type": "Point", "coordinates": [-52.277339, -28.225341] }
    },
    {
      "type": "Feature",
      "properties": {
        "deviceId": 4431,
        "nome_estacao": "Avenida Brasil (Largo da Literatura)",
        "tipo": "Urbana / Eixo Central",
        "provedor": "Rede Plugfield",
        "municipio": "Passo Fundo / RS"
      },
      "geometry": { "type": "Point", "coordinates": [-52.396017, -28.253607] }
    },
    {
      "type": "Feature",
      "properties": {
        "deviceId": 10994,
        "nome_estacao": "2000 - ATITUS",
        "tipo": "Universitária / Campus Atitus",
        "provedor": "Rede Plugfield",
        "municipio": "Passo Fundo / RS"
      },
      "geometry": { "type": "Point", "coordinates": [-52.351368, -28.291063] }
    },
    {
      "type": "Feature",
      "properties": {
        "deviceId": 2041,
        "nome_estacao": "Veneza",
        "tipo": "Urbana / Bairro Vila Veneza",
        "provedor": "Rede Plugfield",
        "municipio": "Passo Fundo / RS"
      },
      "geometry": { "type": "Point", "coordinates": [-52.601557, -28.249373] }
    }
  ]
}
