{
"type": "FeatureCollection",
"name": "Ferrovia",
"crs": { "type": "name", "properties": { "name": "urn:ogc:def:crs:EPSG::31982" } },
"features": [
{ "type": "Feature", "properties": { "nome": "América Latina Logística", "codTrechoF": null, "concession": null, "nomeAbrev": null, "d_geometri": null, "d_posicaoR": null, "d_tipoTrec": null, "d_bitola": "Métrica", "d_eletrifi": null, "d_nrLinhas": "Simples", "d_emArruam": null, "d_jurisdic": null, "d_administ": null }, "geometry": { "type": "MultiLineString", "coordinates": [ [ [ 381049.340634236694314, 6863116.812149900943041 ], [ 380907.185847193468362, 6863123.422056370414793 ], [ 380718.802068593271542, 6863144.588775699958205 ], [ 380583.335142461466603, 6863205.972195882350206 ], [ 380552.368351821438409, 6863225.185489875264466 ] ], [ [ 379659.448014951136429, 6863772.489605150185525 ], [ 378964.059752092813142, 6864172.335635934025049 ], [ 378739.163443742378149, 6864362.83597550727427 ], [ 378612.163190046790987, 6864521.58634883724153 ], [ 378572.433435238781385, 6864596.532100984826684 ] ], [ [ 378237.016578929964453, 6865222.308417025953531 ], [ 378165.36344249965623, 6865348.24338502343744 ] ], [ [ 378101.846433406462893, 6865452.485127210617065 ], [ 378065.106049469090067, 6865509.085105137899518 ] ], [ [ 377891.659171842678916, 6865658.832794716581702 ], [ 377664.953025525028352, 6865751.901352539658546 ], [ 377426.821652392158285, 6865758.974792066961527 ] ], [ [ 377333.027328270603903, 6865745.562070494517684 ], [ 377300.422390130872373, 6865738.366854377090931 ], [ 377014.076669127447531, 6865675.172004413791001 ], [ 376949.950804562249687, 6865677.569832557812333 ] ], [ [ 376556.173317998938728, 6865714.888813186436892 ], [ 376508.721546169253998, 6865722.797059867531061 ], [ 376199.158411367214285, 6865788.943058105185628 ], [ 376123.829002516926266, 6865811.41061595082283 ], [ 375972.093101837672293, 6865856.6651256904006 ] ], [ [ 373603.603474827774335, 6867180.18214906938374 ], [ 373599.545171959325671, 6867184.059685179963708 ] ], [ [ 373517.257377249072306, 6867262.681350808590651 ], [ 372594.962196905165911, 6868143.777882938273251 ], [ 372443.225774342950899, 6868286.691286662593484 ], [ 372228.189923290337902, 6868489.214499374851584 ], [ 370974.750053804425988, 6869669.507483661174774 ], [ 370954.015902599552646, 6869689.028716318309307 ], [ 370665.836072753823828, 6869920.023298881016672 ], [ 369936.718754855566658, 6870273.756245726719499 ], [ 369496.912290080043022, 6870487.097894262522459 ], [ 369430.523909121984616, 6870519.299577509053051 ], [ 369363.627497986424714, 6870549.021146580576897 ], [ 369156.193741801485885, 6870643.213044052943587 ], [ 369051.418528201116715, 6870690.838137811981142 ], [ 368817.52648057899205, 6870804.080081841908395 ], [ 368646.605277874914464, 6870882.132291241548955 ], [ 368594.79152127035195, 6870905.544696608558297 ], [ 368503.730003412114456, 6870946.690795206464827 ], [ 368228.562766512506641, 6871085.332688206806779 ], [ 368035.945677903364412, 6871173.174552857875824 ], [ 367848.620376380276866, 6871258.899733966216445 ], [ 367762.895152383949608, 6871293.824771299958229 ], [ 367620.019835218961816, 6871362.616571232676506 ], [ 367488.786313230637461, 6871417.650034070014954 ], [ 367281.352529258059803, 6871520.308603689074516 ], [ 367219.486683031136636, 6871548.962455915287137 ], [ 367180.81069650745485, 6871566.875320686027408 ], [ 367001.951996859454084, 6871646.250510761514306 ], [ 366889.768426937807817, 6871701.283896641805768 ], [ 366789.226507654471789, 6871754.20066467858851 ], [ 366662.22629219328519, 6871815.584142865613103 ], [ 366533.109352180210408, 6871865.325866373255849 ], [ 366470.667596932384185, 6871896.017621477134526 ], [ 366332.025623702153098, 6871966.926163812167943 ], [ 366306.006114990799688, 6871978.736599104478955 ], [ 366182.800291001796722, 6872034.659606087952852 ], [ 366126.954236723249778, 6872057.396552187390625 ], [ 366064.266798297932837, 6872086.5180644672364 ], [ 365955.258241337491199, 6872137.318171938881278 ], [ 365890.699757202412002, 6872169.068157557398081 ], [ 365802.857869045459665, 6872224.101605711504817 ], [ 365654.690914623439312, 6872337.34354152996093 ], [ 365531.92406628455501, 6872435.768747184425592 ], [ 365435.615489699295722, 6872518.318860591389239 ], [ 365312.848575732670724, 6872636.852452780120075 ], [ 365160.448277261573821, 6872769.144378994591534 ], [ 365095.889877934474498, 6872822.061156512238085 ], [ 365051.683058775262907, 6872857.524008847773075 ], [ 365021.718046004942153, 6872881.561715411022305 ], [ 364999.581325741950423, 6872899.319636072963476 ], [ 364917.031143466767389, 6872968.111439450643957 ], [ 364858.822718307375908, 6873019.969914143905044 ], [ 364765.689155324595049, 6873083.469966603443027 ], [ 364637.630541784572415, 6873163.90351040288806 ], [ 364588.151677694986574, 6873187.986432816833258 ], [ 364518.038679292192683, 6873222.11195263825357 ], [ 364303.196618051617406, 6873302.545460060238838 ], [ 364117.549426803016104, 6873372.769088268280029 ], [ 364059.779458459583111, 6873394.620627135038376 ], [ 363958.179254780290648, 6873435.895665964111686 ], [ 363892.562433887738734, 6873472.93743958696723 ], [ 363879.862390795373358, 6873482.462461529299617 ], [ 363830.12059438182041, 6873520.56259739305824 ], [ 363799.428869955532718, 6873541.729238137602806 ], [ 363765.706758918240666, 6873577.096480987034738 ], [ 363756.037145607580896, 6873587.237703347578645 ], [ 363694.653725326759741, 6873666.61289519071579 ], [ 363572.945145451813005, 6873884.629981705918908 ], [ 363458.644881162268575, 6874105.822073390707374 ], [ 363396.086344240000471, 6874230.306936839595437 ], [ 363255.071936848456971, 6874510.900010470300913 ], [ 363222.307595414342359, 6874582.53606806974858 ], [ 363153.251209416310303, 6874698.423752896487713 ], [ 363146.652409361093305, 6874711.574233597144485 ], [ 363042.91969774547033, 6874918.292932141572237 ], [ 362949.257016553892754, 6875077.836994567885995 ], [ 362867.662669463490602, 6875258.112203562632203 ], [ 362854.027838035253808, 6875284.474549341015518 ], [ 362839.933135570841841, 6875311.24179751612246 ] ] ] } },
{ "type": "Feature", "properties": { "nome": "América Latina Logística", "codTrechoF": null, "concession": null, "nomeAbrev": null, "d_geometri": null, "d_posicaoR": null, "d_tipoTrec": null, "d_bitola": "Métrica", "d_eletrifi": null, "d_nrLinhas": "Simples", "d_emArruam": null, "d_jurisdic": null, "d_administ": null }, "geometry": { "type": "MultiLineString", "coordinates": [ [ [ 362839.933135570841841, 6875311.24179751612246 ], [ 362827.504379217047244, 6875374.766262816265225 ], [ 362812.270000070799142, 6875439.792616747319698 ], [ 362740.720810968952719, 6875745.183624451979995 ], [ 362697.612721837125719, 6875937.904452763497829 ], [ 362668.753980517329182, 6876066.917657060548663 ], [ 362660.287327396101318, 6876128.30111201107502 ], [ 362652.295241275453009, 6876167.914915218949318 ], [ 362611.603940452390816, 6876369.601623643189669 ], [ 362608.568623196042608, 6876419.84041831549257 ], [ 362601.020566775579937, 6876555.868597256019711 ], [ 362611.603925331670325, 6876636.302112851291895 ], [ 362670.870672534569167, 6876989.786192877218127 ], [ 362719.554157160688192, 6877341.153559831902385 ], [ 362721.670753040467389, 6877368.670212248340249 ], [ 362730.137434054398909, 6877398.303679089993238 ], [ 362738.604174862557556, 6877419.470334929414093 ], [ 362742.837548900337424, 6877438.520351009443402 ], [ 362759.770867627114058, 6877466.037085428833961 ], [ 362787.28756535879802, 6877508.370495670475066 ], [ 362804.220945081324317, 6877525.303850069642067 ], [ 362835.970986410044134, 6877540.120554245077074 ], [ 362870.045603262959048, 6877558.706764323636889 ], [ 362988.100638328993227, 6877563.552850728854537 ], [ 363051.071606507932302, 6877568.31535129994154 ], [ 363101.871705109020695, 6877597.419534590095282 ], [ 363136.230872154585086, 6877633.903089604340494 ], [ 363154.998259008803871, 6877653.830762871541083 ], [ 363242.101233431953005, 6877741.353149279952049 ], [ 363319.461726397625171, 6877813.665411662310362 ], [ 363337.622066676442046, 6877823.754473796114326 ], [ 363371.488761379325297, 6877834.337840138934553 ], [ 363424.405582274775952, 6877842.804507166147232 ], [ 363462.505566435167566, 6877842.804544316604733 ], [ 363496.372328295488842, 6877849.154550290666521 ], [ 363536.589128411433194, 6877851.271216940134764 ], [ 363561.989126969943754, 6877859.737855920568109 ], [ 363589.505881168297492, 6877870.321288887411356 ], [ 363606.439190564793535, 6877883.02129883505404 ], [ 363619.729499220149592, 6877894.650277016684413 ], [ 363636.072628469613846, 6877910.53805155493319 ], [ 363655.122696729144081, 6877931.704759918153286 ], [ 363667.822729378123768, 6877957.104747842997313 ], [ 363674.172727873083204, 6877984.621429374441504 ], [ 363674.172672233777121, 6878020.604859428480268 ], [ 363676.289364523487166, 6878086.221674995496869 ], [ 363676.289336703310255, 6878105.271691026166081 ], [ 363691.106105277140159, 6878143.371832016855478 ], [ 363710.156119327293709, 6878170.888572387397289 ], [ 363729.206154383253306, 6878194.171953843906522 ], [ 363768.364600138564128, 6878232.272015060298145 ], [ 363795.793095594854094, 6878244.883851774036884 ], [ 363836.80366153747309, 6878255.467187094502151 ], [ 363850.032770732184872, 6878254.14421945437789 ], [ 363863.969121249043383, 6878244.25398819334805 ], [ 363877.676851856987923, 6878234.525900637730956 ], [ 363891.043248019064777, 6878225.0400026794523 ], [ 363909.564119066344574, 6878211.810823612846434 ], [ 363951.897572625603061, 6878198.581622878089547 ], [ 363977.032985132595059, 6878187.998291521333158 ], [ 364006.137230474501848, 6878180.060709077864885 ], [ 364036.564379223971628, 6878170.800362191163003 ], [ 364064.345742797653656, 6878170.800317149609327 ], [ 364192.66889112489298, 6878164.185706693679094 ], [ 364335.544190493994392, 6878189.321222430095077 ], [ 364551.067499613738619, 6878254.110371564514935 ], [ 364699.214047999703325, 6878295.594092464074492 ], [ 364749.617945538950153, 6878309.706827726215124 ], [ 364795.920065502345096, 6878332.196537103503942 ], [ 364881.909861054853536, 6878411.571661967784166 ], [ 364904.399460390559398, 6878453.905107513070107 ], [ 364912.337018665275536, 6878480.363457500934601 ], [ 364921.597419290570542, 6878516.082313342019916 ], [ 364924.243277652421966, 6878542.540709134191275 ], [ 364924.243304586037993, 6878599.426131623797119 ], [ 364922.920371635933407, 6878623.238717446103692 ], [ 364916.305719035677612, 6878644.405428323894739 ], [ 364903.076498680573422, 6878680.124222136102617 ], [ 364895.139034842548426, 6878695.999314621090889 ], [ 364883.232716459431686, 6878718.488919708877802 ], [ 364868.680672267568298, 6878730.395178319886327 ], [ 364850.159755419474095, 6878755.530658841133118 ], [ 364825.024289023596793, 6878771.405726430937648 ], [ 364790.62836985650938, 6878785.957766411826015 ], [ 364758.878358895773999, 6878805.801645397208631 ], [ 364733.941194557468407, 6878818.858099773526192 ], [ 364676.857360969064757, 6878877.239243805408478 ], [ 364645.768823429592885, 6878931.479036122560501 ], [ 364633.201038435101509, 6878965.874818222597241 ], [ 364630.555147023056634, 6878984.39574902318418 ], [ 364630.555179647228215, 6879000.270715346559882 ], [ 364646.430163457174785, 6879047.895880164578557 ], [ 364659.659413716755807, 6879069.0625582607463 ], [ 364672.888548506889492, 6879088.906359320506454 ], [ 364683.471917067246977, 6879106.104246187023818 ], [ 364694.055285199428909, 6879124.625201121903956 ], [ 364704.638711986946873, 6879151.083513138815761 ], [ 364707.284531674988102, 6879172.25029884558171 ], [ 364707.284483983996324, 6879197.385701589286327 ], [ 364701.992804702953435, 6879223.844163646921515 ], [ 364695.378304652345832, 6879245.672312719747424 ], [ 364684.133454176480882, 6879266.838991223834455 ], [ 364674.21148603601614, 6879283.375417001545429 ], [ 364662.305198324727826, 6879297.92757767252624 ], [ 364642.461476960685104, 6879313.802576648071408 ], [ 364633.201036967686377, 6879332.323472958058119 ], [ 364622.617641575750895, 6879349.521408511325717 ], [ 364617.326002559508197, 6879402.10744561906904 ], [ 364612.034305767389014, 6879423.274222319945693 ], [ 364608.065569369937293, 6879444.44087340310216 ], [ 364608.065566694247536, 6879472.222214970737696 ], [ 364608.065507709630765, 6879498.680586397647858 ], [ 364612.051579563703854, 6879528.805282957851887 ], [ 364628.485664043342695, 6879553.891900447197258 ], [ 364687.440667472779751, 6879661.399672826752067 ], [ 364760.201288817217574, 6879764.587390013039112 ], [ 364791.951287964824587, 6879806.920742276124656 ], [ 364799.888844764092937, 6879820.149971442297101 ], [ 364817.086744305037428, 6879834.702113656327128 ], [ 364831.638864192005713, 6879846.608377409167588 ], [ 364851.482645804411732, 6879867.775105845183134 ], [ 364862.066068296262529, 6879879.681345825083554 ], [ 364875.295273731579073, 6879888.94177284091711 ], [ 364891.949209643993527, 6879898.428233833983541 ], [ 364903.678034472570289, 6879906.660443412140012 ], [ 364921.597456928982865, 6879927.306433230638504 ], [ 364933.503733432793524, 6879937.889806515537202 ], [ 364949.378733189660124, 6879951.119046806357801 ], [ 364967.899634660454467, 6879964.348152389749885 ], [ 364995.680855509534013, 6879982.869007135741413 ], [ 365049.920600430108607, 6880010.650374860502779 ], [ 365101.514397519873455, 6880025.202420065179467 ], [ 365165.880620855023153, 6880053.425041552633047 ], [ 365191.016073386417702, 6880056.070887329056859 ], [ 365241.286970136803575, 6880051.440687628462911 ], [ 365279.651722010807134, 6880047.471979660913348 ], [ 365316.693416284106206, 6880030.935478247702122 ], [ 365351.315427055000328, 6880019.593859139829874 ], [ 365384.162315728492104, 6880003.154180994257331 ], [ 365412.605141646577977, 6879998.854719622060657 ], [ 365434.433219673694111, 6879996.539567600935698 ], [ 365456.261355760041624, 6879995.216681828722358 ], [ 365472.797852809075266, 6880001.169782307930291 ], [ 365499.917784958612174, 6880013.076101979240775 ], [ 365523.730264741461724, 6880023.659356785938144 ], [ 365546.219905191741418, 6880040.857383606024086 ], [ 365561.433442127192393, 6880063.347002618014812 ], [ 365645.629321576445363, 6880260.529460411518812 ], [ 365743.26082281966228, 6880417.560017557814717 ], [ 365766.544181536301039, 6880491.643501732498407 ], [ 365807.819284723955207, 6880538.210258727893233 ], [ 365903.069442897918634, 6880597.476956659927964 ], [ 365941.169530864339322, 6880618.643712615594268 ], [ 365976.094606600410771, 6880636.635452252812684 ], [ 366006.786342715844512, 6880650.393802353180945 ], [ 366027.953047508955933, 6880675.793791988864541 ], [ 366066.550065933610313, 6880720.328863995149732 ] ] ] } },
{ "type": "Feature", "properties": { "nome": "Ferrovia Sul Atlântico - FSA", "codTrechoF": null, "concession": null, "nomeAbrev": null, "d_geometri": null, "d_posicaoR": null, "d_tipoTrec": null, "d_bitola": "Métrica", "d_eletrifi": null, "d_nrLinhas": "Simples", "d_emArruam": null, "d_jurisdic": null, "d_administ": null }, "geometry": { "type": "MultiLineString", "coordinates": [ [ [ 342816.435071491810959, 6868454.742545059882104 ], [ 342839.729023347666953, 6868455.05157907679677 ], [ 342878.848323137965053, 6868461.899257706478238 ], [ 342910.883250123471953, 6868474.981666710227728 ], [ 342947.034691613807809, 6868494.447351116687059 ], [ 342966.276881733792834, 6868503.819531196728349 ], [ 342980.427887495025061, 6868510.712020076811314 ], [ 343011.00001401535701, 6868528.521322896704078 ], [ 343038.834804827696644, 6868541.547709833830595 ], [ 343066.795476911240257, 6868545.082564350217581 ], [ 343081.441477951244451, 6868543.818122325465083 ], [ 343114.462600357714109, 6868540.967197516933084 ], [ 343186.120239519921597, 6868522.929517908021808 ], [ 343293.866906775743701, 6868529.101850572042167 ], [ 343366.484982765512541, 6868544.301824887283146 ], [ 343438.831559059093706, 6868580.066425386816263 ], [ 343514.935527919908054, 6868651.617538351565599 ], [ 343550.466371548827738, 6868716.027703208848834 ], [ 343558.470416043535806, 6868746.195147677324712 ], [ 343571.552980634965934, 6868815.984489817172289 ], [ 343570.738481416890863, 6868877.679349526762962 ], [ 343570.132838172547054, 6868923.554977341555059 ], [ 343582.170441618771292, 6868966.433065796270967 ], [ 343598.513240982952993, 6869001.457079768180847 ], [ 343631.720824436401017, 6869031.957074793055654 ], [ 343693.899385856115259, 6869065.222504891455173 ], [ 343737.779876485001296, 6869060.253438444808125 ], [ 343785.152509287116118, 6869045.451827639713883 ], [ 343817.696623318013735, 6869029.315671699121594 ], [ 343846.734754771052394, 6869009.511649164371192 ], [ 343863.111809616559185, 6868994.801276180893183 ], [ 343882.030315125768539, 6868981.783606925047934 ], [ 343908.219904308556579, 6868970.078418134711683 ], [ 343921.761961980606429, 6868968.352087834849954 ], [ 343942.443686486338265, 6868968.393642950803041 ], [ 343964.375912238494493, 6868974.636650681495667 ], [ 343996.434018905856647, 6868986.134054897353053 ], [ 344020.028724351897836, 6869002.266614941880107 ], [ 344047.761633483401965, 6869023.200126706622541 ], [ 344068.576893158431631, 6869037.713784174993634 ], [ 344089.267419340903871, 6869061.718836572952569 ], [ 344110.831830647250172, 6869084.970555854961276 ], [ 344142.016561976750381, 6869097.220947869122028 ], [ 344165.736499888880644, 6869103.861655772663653 ], [ 344189.498061018879525, 6869107.338542021811008 ], [ 344235.849741304642521, 6869096.872516896575689 ], [ 344269.59966649801936, 6869086.240821210667491 ], [ 344293.610647121618968, 6869070.734423507936299 ], [ 344313.483405130100437, 6869050.427078934386373 ], [ 344329.23872297705384, 6869023.736866609193385 ], [ 344346.414849235268775, 6868995.483196662738919 ], [ 344370.508652374322992, 6868973.648999845609069 ], [ 344401.457807292696089, 6868962.98016903270036 ], [ 344423.985093095805496, 6868953.782790922559798 ], [ 344451.988401308190078, 6868954.150429554283619 ], [ 344484.192276661749929, 6868954.57313306350261 ], [ 344512.195580268395133, 6868954.940629292279482 ], [ 344548.309376031509601, 6868977.565112052485347 ], [ 344580.222821947187185, 6869000.134273517876863 ], [ 344610.736188818933442, 6869022.685092320665717 ], [ 344637.069812403991818, 6869043.598812622949481 ], [ 344657.761440810165368, 6869067.602930701337755 ], [ 344669.948246394866146, 6869099.406364092603326 ], [ 344679.355634502659086, 6869129.591138307005167 ], [ 344688.742242804612033, 6869161.357950836420059 ], [ 344696.811716168595012, 6869186.778645217418671 ], [ 344704.818937603908125, 6869216.945148737169802 ], [ 344705.928937181131914, 6869239.110206437297165 ], [ 344709.777106488938443, 6869266.057777158915997 ], [ 344717.825983143644407, 6869293.060387713834643 ], [ 344743.820267214789055, 6869324.296350700780749 ], [ 344756.430735461646691, 6869339.44960643351078 ], [ 344787.048923277645372, 6869354.090212985873222 ], [ 344808.047609890461899, 6869359.289491822011769 ], [ 344827.53087996027898, 6869364.113483272492886 ], [ 344858.314779999898747, 6869366.098722264170647 ], [ 344883.518641654809471, 6869366.428636865690351 ], [ 344914.344049729523249, 6869365.249854588881135 ], [ 344940.968838031752966, 6869364.01603264734149 ], [ 344964.77245167887304, 6869364.3274539206177 ], [ 344999.777751524816267, 6869364.785339309833944 ], [ 345038.859548158012331, 6869374.789563115686178 ], [ 345077.734711245517246, 6869400.612698727287352 ], [ 345109.608829519478604, 6869426.344198697246611 ], [ 345170.433181221713312, 6869487.261848052963614 ], [ 345225.49196973326616, 6869560.761392472311854 ], [ 345245.641266140562948, 6869582.113493541255593 ], [ 345277.797036575851962, 6869617.977516180835664 ], [ 345305.611225898610428, 6869645.662852434441447 ], [ 345360.795454977196641, 6869709.67017993144691 ], [ 345413.551093744579703, 6869745.166300882585347 ], [ 345463.733350514434278, 6869763.224594000726938 ], [ 345512.742364942561835, 6869763.863466756418347 ], [ 345578.657482023176271, 6869756.8114999756217 ], [ 345609.566147314151749, 6869749.303351969458163 ], [ 345637.797828387934715, 6869732.267046428285539 ], [ 345670.415623354143463, 6869701.048298798501492 ], [ 345708.716592776123434, 6869663.574643972329795 ], [ 345742.771502918098122, 6869621.411382582038641 ], [ 345780.952363721793517, 6869601.227803336456418 ], [ 345842.850743536022492, 6869579.882571255788207 ], [ 345889.996689596504439, 6869578.295664105564356 ], [ 345942.041179646912497, 6869598.576182842254639 ], [ 346042.241621126362588, 6869647.343419798649848 ], [ 346079.616728979162872, 6869681.05459651350975 ], [ 346105.338116136030294, 6869749.4220508672297 ], [ 346117.509108606842346, 6869782.805694695562124 ], [ 346139.358754789223894, 6869825.807930001989007 ], [ 346163.61155750695616, 6869855.626948408782482 ], [ 346181.51768872939283, 6869865.907843948341906 ], [ 346200.460370589222293, 6869877.161541447043419 ], [ 346224.954302843194455, 6869887.301989156752825 ], [ 346245.346157051390037, 6869892.171701782383025 ], [ 346262.997208653832786, 6869903.356452878564596 ], [ 346295.059755078749731, 6869914.847413458861411 ], [ 346325.701652507879771, 6869927.902173673734069 ], [ 346352.245348769240081, 6869932.992746286094189 ], [ 346378.829968245700002, 6869934.91950623691082 ], [ 346406.835386377177201, 6869935.282419877126813 ], [ 346433.440605196752585, 6869935.627127453684807 ], [ 346458.747980451560579, 6869928.0440952796489 ], [ 346485.496490733406972, 6869917.315283535048366 ], [ 346498.262814049143344, 6869904.823268964886665 ], [ 346506.848824316752143, 6869890.694914987310767 ], [ 346518.255774638964795, 6869875.020997904241085 ], [ 346526.882706113974564, 6869857.728770151734352 ], [ 346551.3424983471632, 6869807.416076513007283 ], [ 346560.399284937418997, 6869756.903841532766819 ], [ 346576.457345088478178, 6869706.482340209186077 ], [ 346596.674922728328966, 6869659.27893846668303 ], [ 346611.209631724283099, 6869618.33063405379653 ], [ 346622.861859758384526, 6869583.673684373497963 ], [ 346635.69392297975719, 6869543.215537786483765 ], [ 346646.104723542695865, 6869519.105546759441495 ], [ 346663.316800940898247, 6869487.684784526005387 ], [ 346674.107638119487092, 6869472.701832352206111 ], [ 346690.412010716390796, 6869450.063293633982539 ], [ 346732.827576252399012, 6869418.968559361994267 ], [ 346780.680120169301517, 6869400.601203767582774 ], [ 346807.447686954052188, 6869388.289906513877213 ], [ 346832.794523205026053, 6869377.542384266853333 ], [ 346863.680695674614981, 6869371.61286099627614 ], [ 346884.765548546100035, 6869365.556630218401551 ], [ 346918.452105719014071, 6869359.663148222491145 ], [ 346939.455180547083728, 6869359.93442989513278 ], [ 346973.100833654752932, 6869357.204542575404048 ], [ 346999.599658736377023, 6869357.546680940315127 ], [ 347034.628033898770809, 6869364.327517534606159 ], [ 347076.389132566400804, 6869383.852445652708411 ], [ 347109.667455345974304, 6869409.596554957330227 ], [ 347131.916934915236197, 6869417.877423835918307 ], [ 347139.721879135700874, 6869432.202640329487622 ], [ 347170.705385035194922, 6869454.684424208477139 ], [ 347197.125788314559031, 6869469.264597395434976 ], [ 347222.186899933731183, 6869480.662803096696734 ], [ 347259.809233135776594, 6869495.387226767838001 ], [ 347293.251315760542639, 6869508.475473945960402 ], [ 347321.133454143069685, 6869518.32772851921618 ], [ 347361.556402417249046, 6869533.087893085554242 ], [ 347386.61779124615714, 6869544.485737221315503 ], [ 347419.897212649986614, 6869570.228920279070735 ], [ 347476.166345862904564, 6869659.554210698232055 ], [ 347516.809850627672859, 6869766.082123752683401 ], [ 347540.023964831023477, 6869812.263419684022665 ], [ 347568.981791701866314, 6869847.443430114537477 ], [ 347628.541981164366007, 6869898.838321452960372 ], [ 347675.703744867700152, 6869934.252028414979577 ], [ 347796.104954676353373, 6870046.549850976094604 ], [ 347841.786176051362418, 6870088.272447939962149 ], [ 347860.862307911622338, 6870129.65342968236655 ], [ 347864.57591031503398, 6870167.672857310622931 ], [ 347864.048081663786434, 6870208.802218716591597 ], [ 347838.213381033681799, 6870257.517596720717847 ], [ 347819.542392754927278, 6870293.667520156130195 ], [ 347795.168508662376553, 6870337.655127682723105 ], [ 347784.085349516768474, 6870354.836852860637009 ], [ 347770.875702211051248, 6870375.314994215033948 ], [ 347753.665531076781917, 6870406.737143410369754 ], [ 347749.312564052583184, 6870440.614163087680936 ], [ 347748.489500103867613, 6870482.614331781864166 ], [ 347746.662545328843407, 6870515.816197900101542 ], [ 347736.352356683346443, 6870555.237748957239091 ], [ 347727.584589836653322, 6870583.604030288755894 ], [ 347713.113917930051684, 6870619.807872637175024 ], [ 347700.084079620195553, 6870652.865838412195444 ], [ 347688.474872736493126, 6870684.359856879338622 ], [ 347674.207104417553637, 6870704.744639439508319 ], [ 347661.339670616085641, 6870725.147398507222533 ], [ 347644.149181245069485, 6870754.987597991712391 ], [ 347618.597030837438069, 6870781.555951427668333 ], [ 347607.930377100827172, 6870818.576227566227317 ], [ 347605.200824094761629, 6870843.088012950494885 ], [ 347608.73112595663406, 6870895.344605181366205 ], [ 347627.828191722044721, 6870935.143971735611558 ], [ 347651.187598231481388, 6870970.251616616733372 ], [ 347668.965906567173079, 6871003.705328710377216 ], [ 347676.758708932902664, 6871051.270182430744171 ], [ 347676.230405277805403, 6871092.399518620222807 ], [ 347675.824022745830007, 6871124.037425508722663 ], [ 347675.336367274518125, 6871162.003022961318493 ], [ 347678.072580382984597, 6871175.86413043551147 ], [ 347681.911763480515219, 6871195.312786102294922 ], [ 347694.190449817688204, 6871220.784981431439519 ], [ 347707.971106823009904, 6871238.365640992298722 ], [ 347816.20917949907016, 6871317.280811900272965 ], [ 347887.083197480125818, 6871360.908300463110209 ], [ 347930.050414907978848, 6871396.266639305278659 ], [ 347950.651316576753743, 6871428.173948417417705 ], [ 347972.59206956916023, 6871464.844709847122431 ], [ 347979.107592088053934, 6871502.900012271478772 ], [ 347978.580427195760421, 6871544.029292016290128 ], [ 347965.469502256601118, 6871583.415095657110214 ], [ 347956.640873203577939, 6871616.527169380337 ], [ 347951.912279207899701, 6871657.602589504793286 ], [ 347955.687826299108565, 6871690.876227241009474 ], [ 347969.266792190261185, 6871724.275516498833895 ], [ 347977.375609556562267, 6871738.425576584413648 ], [ 347991.187841953360476, 6871762.528121653012931 ], [ 348016.1127383436542, 6871784.997697190381587 ], [ 348036.897001982200891, 6871802.667740918695927 ], [ 348054.819619131623767, 6871825.04740572348237 ], [ 348069.819811051362194, 6871856.88268524967134 ], [ 348077.817503430414945, 6871888.628148954361677 ], [ 348085.734309479477815, 6871926.701173296198249 ], [ 348085.248114040470682, 6871964.666691021062434 ], [ 348086.20297057821881, 6871999.48630303889513 ], [ 348089.857527796062641, 6872042.251156782731414 ], [ 348094.155690441722982, 6872055.773942785337567 ], [ 348101.554162407410331, 6872079.050693126395345 ], [ 348112.714326625573449, 6872116.904999969527125 ], [ 348120.692103961715475, 6872150.232330225408077 ], [ 348135.733439886709675, 6872178.903648963198066 ], [ 348160.760753139911685, 6872193.463374404236674 ], [ 348188.93518865457736, 6872202.392542751505971 ], [ 348219.319889430305921, 6872214.78068567533046 ], [ 348252.770751324249431, 6872227.865793569013476 ], [ 348282.731172506464645, 6872242.667318116873503 ], [ 348294.838499041856267, 6872249.439314421266317 ], [ 348316.029876194021199, 6872255.08648145198822 ], [ 348339.939551423653029, 6872265.714696304872632 ], [ 348361.418458354542963, 6872276.335618356242776 ], [ 348391.647984228620771, 6872281.837070403620601 ], [ 348428.67209428246133, 6872274.414662186056376 ], [ 348462.446612314321101, 6872262.188815047964454 ], [ 348496.241254692082293, 6872248.381178949028254 ], [ 348527.23480206890963, 6872234.537577098235488 ], [ 348554.00651740108151, 6872222.222069563344121 ], [ 348584.959543029777706, 6872211.542156449519098 ], [ 348613.010477259056643, 6872208.735895484685898 ], [ 348649.424246021779254, 6872209.200498158112168 ], [ 348678.81517340184655, 6872211.157478155568242 ], [ 348715.007047329680063, 6872229.022738046944141 ], [ 348738.594218658749014, 6872246.727070029824972 ], [ 348760.841397928015795, 6872259.667859886772931 ], [ 348778.846718673477881, 6872275.718884306028485 ], [ 348798.252649172965903, 6872291.787728480994701 ], [ 348814.776875360519625, 6872314.14828563388437 ], [ 348824.338841524091549, 6872333.255980199202895 ], [ 348829.699137333547696, 6872352.310018852353096 ], [ 348836.459924562717788, 6872371.3818972222507 ], [ 348843.200679548783228, 6872392.035687156952918 ], [ 348849.860850044991821, 6872419.017022933810949 ], [ 348856.500903089006897, 6872447.580268114805222 ], [ 348860.339827592833899, 6872476.10782509110868 ], [ 348862.737987869302742, 6872507.781259309500456 ], [ 348866.536658719414845, 6872539.472530109807849 ], [ 348871.675503006204963, 6872575.927382238209248 ], [ 348876.854682228644378, 6872609.218398978002369 ], [ 348884.875394118425902, 6872639.381256039254367 ], [ 348891.455254328553565, 6872672.69020876660943 ], [ 348902.277177017182112, 6872702.888719086535275 ], [ 348915.940568669233471, 6872729.959163121879101 ], [ 348931.065156617085449, 6872752.301787706092 ], [ 348947.69100703834556, 6872766.752756804227829 ], [ 348967.138268366979901, 6872779.657440531998873 ], [ 348989.406842970405705, 6872791.015823786146939 ], [ 349020.119335188879631, 6872799.317371318116784 ], [ 349052.252511765342206, 6872806.05473914463073 ], [ 349078.884027340391185, 6872804.811309551820159 ], [ 349104.215491638868116, 6872795.640663001686335 ], [ 349140.852216804167256, 6872778.702850520610809 ], [ 349173.246774522354826, 6872764.875348681584001 ], [ 349208.442477881209925, 6872751.083469920791686 ], [ 349233.793815328099299, 6872740.33053163997829 ], [ 349253.442277526657563, 6872737.415935946628451 ], [ 349278.693075151648372, 6872734.572359148412943 ], [ 349302.503066963981837, 6872734.874767596833408 ], [ 349331.955572991049848, 6872732.084549942985177 ], [ 349375.29348308336921, 6872738.963310537859797 ], [ 349425.69451677845791, 6872741.185037951916456 ], [ 349485.893582585209515, 6872752.780145516619086 ], [ 349540.197142667020671, 6872759.813893899321556 ], [ 349555.30018883140292, 6872763.322650135494769 ], [ 349571.621445416705683, 6872773.21195369400084 ], [ 349608.563943582121283, 6872800.217537576332688 ], [ 349635.46753637411166, 6872824.096804577857256 ], [ 349659.293018448282965, 6872851.331397593021393 ], [ 349694.549247208167799, 6872868.547944966703653 ], [ 349725.93196152895689, 6872880.422386904247105 ], [ 349738.666826718952507, 6872884.416881719604135 ], [ 349754.64861794776516, 6872889.1670340038836 ], [ 349799.029665292124264, 6872905.712631398811936 ], [ 349919.261558812460862, 6872924.637289615347981 ], [ 349996.215039710397832, 6872931.938812768086791 ], [ 350057.821707423310727, 6872934.299555204808712 ], [ 350089.464629118680023, 6872937.839053193107247 ], [ 350116.852169030695222, 6872920.841949880123138 ], [ 350138.767647759523243, 6872907.237223207950592 ], [ 350156.60331709869206, 6872877.008309433236718 ], [ 350190.796828410006128, 6872831.558021482080221 ], [ 350223.729335232055746, 6872775.016935366205871 ], [ 350266.206076559901703, 6872739.163860104978085 ], [ 350315.64556074293796, 6872706.562801743857563 ], [ 350360.86983717395924, 6872690.503068994730711 ], [ 350473.159971814369783, 6872650.62644406221807 ], [ 350502.982053560437635, 6872640.035813055001199 ], [ 350540.961653024423867, 6872631.248933034017682 ], [ 350585.499728605849668, 6872622.787437691353261 ], [ 350617.116313866572455, 6872617.836082652211189 ], [ 350670.794497165072244, 6872626.683522379957139 ], [ 350696.261867015156895, 6872633.662876726128161 ], [ 350714.64492816652637, 6872638.700823659077287 ], [ 350727.384210332180373, 6872639.957201856188476 ], [ 350746.707406121655367, 6872641.878293604589999 ], [ 350780.471818700665608, 6872644.385682098567486 ], [ 350802.918778254941572, 6872645.432154839858413 ], [ 350852.273375447373837, 6872639.759135912172496 ], [ 350926.102079087286256, 6872641.673535153269768 ], [ 350977.336085195012856, 6872657.531599981710315 ], [ 351000.495362472895067, 6872699.094012955203652 ], [ 351012.954576414776966, 6872729.577816074714065 ], [ 351023.408676870632917, 6872761.636424535885453 ], [ 351025.038382172526326, 6872780.11403164640069 ], [ 351032.023458718729671, 6872828.98821660131216 ], [ 351039.733986736391671, 6872866.076094090938568 ], [ 351064.191113065811805, 6872888.433948518708348 ], [ 351089.104121356969699, 6872912.478471773676574 ], [ 351118.219007083564065, 6872936.575764579698443 ], [ 351148.774322861921974, 6872957.526738871820271 ], [ 351190.178958412259817, 6872967.041142689064145 ], [ 351247.181259321048856, 6872970.498998458497226 ], [ 351323.492192810866982, 6872973.876465152949095 ], [ 351365.729303785949014, 6872971.320932349190116 ], [ 351398.389209668966942, 6872957.291111694648862 ], [ 351419.328596147941425, 6872941.931700356304646 ], [ 351446.098386213183403, 6872929.609852494671941 ], [ 351478.510198554606177, 6872914.194370513781905 ], [ 351498.217572732537519, 6872906.530360889621079 ], [ 351520.726059250882827, 6872898.901368470862508 ], [ 351550.217715655337088, 6872892.941846052184701 ], [ 351579.630198387545533, 6872893.309753862209618 ], [ 351607.622279623930808, 6872895.241977276280522 ], [ 351629.893422080203891, 6872906.595286649651825 ], [ 351650.724335773556959, 6872921.094847463071346 ], [ 351674.336771559843328, 6872937.211285509169102 ], [ 351700.730751311522909, 6872954.944472383707762 ], [ 351717.241456464747898, 6872978.882702959701419 ], [ 351726.689886948675849, 6873007.478895702399313 ], [ 351738.939633395988494, 6873036.110185888595879 ], [ 351752.629602102912031, 6873061.595152148045599 ], [ 351767.641138648381457, 6873093.425201239064336 ], [ 351784.132528230198659, 6873118.945112651214004 ], [ 351804.944251878361683, 6873135.026276372373104 ], [ 351834.19931352394633, 6873148.048518815077841 ], [ 351863.47418182058027, 6873159.488784609362483 ], [ 351890.113952577812597, 6873166.103545874357224 ], [ 351916.638693353510462, 6873164.898605290800333 ], [ 351941.968372764240485, 6873155.721970139071345 ], [ 351974.34060221206164, 6873143.468831527978182 ], [ 352008.093581208901014, 6873132.814862595871091 ], [ 352046.107583751901984, 6873117.467705053277314 ], [ 352074.257951293722726, 6873106.743706277571619 ], [ 352109.411360240424983, 6873096.107026416808367 ], [ 352155.671170090092346, 6873093.519121870398521 ], [ 352207.809103011037223, 6873068.854646952822804 ], [ 352244.421980846615043, 6873053.489319215528667 ], [ 352273.972625795286149, 6873042.782409690320492 ], [ 352307.94156489346642, 6873014.727043617516756 ], [ 352334.848362617893144, 6872991.330148985609412 ], [ 352358.91444855905138, 6872971.062035407871008 ], [ 352378.508366032270715, 6872956.35803372040391 ], [ 352388.000998463714495, 6872945.759598815813661 ], [ 352452.239061190979555, 6872901.027369821444154 ], [ 352508.71494977211114, 6872865.340800191275775 ], [ 352555.307732857298106, 6872835.859534280374646 ], [ 352601.998623564548325, 6872798.468820824287832 ], [ 352627.542940521321725, 6872771.890104686841369 ], [ 352648.806981753208674, 6872751.586649155244231 ], [ 352663.808571678237058, 6872739.413994281552732 ], [ 352675.692766808962915, 6872729.770815543830395 ], [ 352699.639909960678779, 6872718.993335318751633 ], [ 352727.847678760183044, 6872703.522262552753091 ], [ 352790.951619434461463, 6872697.976850369945168 ], [ 352849.834200776764192, 6872693.960898492485285 ], [ 352914.338682772009633, 6872688.43220510147512 ], [ 352960.596462375076953, 6872685.841237185522914 ], [ 352998.392100827477407, 6872687.891679603606462 ], [ 353033.269017560407519, 6872699.398471381515265 ], [ 353071.975504879141226, 6872741.01279448159039 ], [ 353109.281767696491443, 6872782.609640804119408 ], [ 353147.988798768084962, 6872824.223688459023833 ], [ 353179.928132639150135, 6872846.768525142222643 ], [ 353235.794891727564391, 6872860.116504684090614 ], [ 353297.420443061040714, 6872860.878526984713972 ], [ 353352.277744686347432, 6872842.571268075145781 ], [ 353468.779824063880369, 6872823.443008292466402 ], [ 353536.144205758115277, 6872813.199822183698416 ], [ 353601.951724231359549, 6872815.594029702246189 ], [ 353646.516450471244752, 6872836.711185727268457 ], [ 353683.902968092588708, 6872871.978654037229717 ], [ 353708.762432803632692, 6872900.763136047869921 ], [ 353729.342194168188144, 6872935.823235372081399 ], [ 353748.619041455327533, 6872962.956671392545104 ], [ 353767.993344647344202, 6872982.180710176937282 ], [ 353799.93420859600883, 6873004.72380549646914 ], [ 353827.634357748785987, 6873030.378730901516974 ], [ 353849.712840047548525, 6873057.546486470848322 ], [ 353860.469617689435836, 6873094.067360162734985 ], [ 353871.148556110856589, 6873136.9157933332026 ], [ 353872.10120828950312, 6873173.316033684648573 ], [ 353877.255707266042009, 6873209.767896126955748 ], [ 353877.002514479565434, 6873230.332175993360579 ], [ 353887.740090860752389, 6873268.435010368004441 ], [ 353901.279054622864351, 6873306.572203350253403 ], [ 353920.478961625951342, 6873340.032763952389359 ], [ 353923.902708045672625, 6873353.592233931645751 ], [ 353928.493445271044038, 6873371.773497462272644 ], [ 353927.948332894186024, 6873416.065828179940581 ], [ 353927.344824395258911, 6873465.103723373264074 ], [ 353926.721858071978204, 6873515.723397260531783 ], [ 353933.082762273028493, 6873568.011144913733006 ], [ 353948.70569022174459, 6873621.796951336786151 ], [ 353959.311719411867671, 6873652.780951432883739 ], [ 353968.245019925059751, 6873663.68773808889091 ], [ 353978.634984163218178, 6873674.211390379816294 ], [ 353996.57008836674504, 6873690.294986179098487 ], [ 354023.784464069467504, 6873714.688676478341222 ], [ 354034.714321252307855, 6873737.236214363947511 ], [ 354048.287643395306077, 6873768.773559004999697 ], [ 354057.471828340319917, 6873808.484177604317665 ], [ 354072.333250398631208, 6873863.995450608432293 ], [ 354088.344421297544613, 6873929.058485625311732 ], [ 354101.787707031937316, 6873975.104811584576964 ], [ 354122.727556060766801, 6874025.256569059565663 ], [ 354138.65374324657023, 6874047.771728162653744 ], [ 354150.65608276904095, 6874063.227620457299054 ], [ 354178.696091840276495, 6874092.273019819520414 ], [ 354204.136587331769988, 6874126.965218186378479 ], [ 354222.981321281171404, 6874159.450460815802217 ], [ 354250.228921406203881, 6874207.915072711184621 ], [ 354265.01572704303544, 6874258.723910696804523 ], [ 354269.93912530207308, 6874314.157931749708951 ], [ 354272.138692771317437, 6874363.230002269148827 ], [ 354272.898775226203725, 6874415.448766713961959 ], [ 354272.452237535035238, 6874451.831554181873798 ], [ 354275.994430733437184, 6874505.666472751647234 ], [ 354275.567330283578485, 6874540.467477587983012 ], [ 354269.381809903250542, 6874587.854605613276362 ], [ 354250.802739856007975, 6874617.686547847464681 ], [ 354230.91996077762451, 6874639.591934872791171 ], [ 354203.994200512301177, 6874664.574964233674109 ], [ 354178.50799377221847, 6874686.411471364088356 ], [ 354155.02481060125865, 6874716.82523943670094 ], [ 354134.189651563181542, 6874758.643820240162313 ], [ 354116.913559733948205, 6874796.402002042159438 ], [ 354106.71555076201912, 6874842.407763615250587 ], [ 354089.568182502989657, 6874890.615389244630933 ], [ 354076.295224314671941, 6874941.920605911873281 ], [ 354064.541466620867141, 6874984.674037988297641 ], [ 354056.239142914826516, 6875019.672158021479845 ], [ 354048.245058835600503, 6875077.752825285308063 ], [ 354047.062538683239836, 6875112.736483030021191 ], [ 354048.345049719093367, 6875127.711146278306842 ], [ 354053.08396043011453, 6875183.194156636483967 ], [ 354056.005963821429759, 6875206.162322446703911 ], [ 354069.296135915792547, 6875224.90102007240057 ], [ 354086.082446425920352, 6875253.250658627599478 ], [ 354133.543467672308907, 6875315.319373591803014 ], [ 354180.253387919685338, 6875343.004718730226159 ], [ 354244.037940713868011, 6875369.443392526358366 ], [ 354297.079720236361027, 6875380.923035554587841 ], [ 354322.26888771483209, 6875385.601046942174435 ], [ 354401.009157798369415, 6875393.175821326673031 ], [ 354444.402693772164639, 6875406.134047953411937 ], [ 354481.6390752242296, 6875411.777496535331011 ], [ 354528.254773271386512, 6875431.16476914472878 ], [ 354547.722911563119851, 6875438.916966953314841 ], [ 354565.664419429027475, 6875449.131614651530981 ], [ 354614.51046038500499, 6875463.821192044764757 ], [ 354654.010590231511742, 6875497.714344723150134 ], [ 354666.879364129970782, 6875506.721139220520854 ], [ 354697.886672035267111, 6875531.492773629724979 ], [ 354704.75888736860361, 6875544.211869794875383 ], [ 354728.08665784529876, 6875571.211297533474863 ], [ 354752.915939029422589, 6875603.156802928075194 ], [ 354781.928695146925747, 6875636.735512271523476 ], [ 354808.004418747266755, 6875681.352978220209479 ], [ 354828.921652191085741, 6875713.993723922409117 ], [ 354852.46000675734831, 6875766.138711154460907 ], [ 354873.024068298283964, 6875806.720553359016776 ], [ 354889.615913747344166, 6875846.210498080588877 ], [ 354904.222721626400016, 6875886.283217424526811 ], [ 354927.232231483096257, 6875925.768693026155233 ], [ 354946.006816796900239, 6875958.097443263977766 ], [ 354958.597171604749747, 6875982.235386181622744 ], [ 354986.920941993012093, 6876038.753952471539378 ], [ 355032.279566371580586, 6876123.899031557142735 ], [ 355051.873849435593002, 6876159.472289711236954 ], [ 355076.330625061818864, 6876198.945031236857176 ], [ 355098.770060003385879, 6876247.757822336629033 ], [ 355176.728355961968191, 6876395.527456380426884 ], [ 355275.852796587569173, 6876540.178026828914881 ], [ 355401.286168929189444, 6876672.490961596369743 ], [ 355505.126335086359177, 6876737.037583545781672 ], [ 355579.360888786264695, 6876778.019498398527503 ], [ 355663.012992163421586, 6876812.786964708939195 ], [ 355731.728177015436813, 6876841.055576594546437 ], [ 355763.401228558039293, 6876854.085283488035202 ], [ 355837.893089192104526, 6876873.974134755320847 ], [ 355925.691830273135565, 6876875.03884101845324 ], [ 356004.22688035434112, 6876869.662332051433623 ], [ 356075.34067562315613, 6876859.976589202880859 ], [ 356215.082721413928084, 6876829.815505491569638 ], [ 356383.665776060777716, 6876793.884064445272088 ], [ 356479.266975325532258, 6876767.616268523037434 ], [ 356598.923071474069729, 6876760.622954870574176 ], [ 356701.86841914645629, 6876744.989172762259841 ], [ 356789.818341428821441, 6876733.392759142443538 ], [ 356852.003242647973821, 6876721.276376290246844 ], [ 356881.58037410932593, 6876715.513311332091689 ], [ 356947.012025006173644, 6876712.082312667742372 ], [ 357008.834501773235388, 6876698.060287708416581 ], [ 357070.783654228958767, 6876673.492344914004207 ], [ 357200.411798204877414, 6876613.877153270877898 ], [ 357316.988012292713393, 6876551.994433507323265 ], [ 357418.593725621583872, 6876492.040474474430084 ], [ 357581.216636510449462, 6876414.361358629539609 ], [ 357595.220715957053471, 6876407.671885745599866 ], [ 357694.955818425689358, 6876347.693276105448604 ], [ 357785.122874055989087, 6876306.584205973893404 ], [ 357867.968843265553005, 6876252.73034882824868 ], [ 357928.121406923339237, 6876221.80837525986135 ], [ 357976.939989195903763, 6876201.297728907316923 ], [ 358023.562789302261081, 6876208.183217409998178 ], [ 358072.129186394799035, 6876208.763463121838868 ], [ 358129.845084194210358, 6876211.562225176021457 ], [ 358180.93759105715435, 6876212.17218841612339 ], [ 358225.274947499157861, 6876212.701327797025442 ], [ 358274.042598426633049, 6876196.407692107371986 ], [ 358401.615049168816768, 6876151.521439051255584 ], [ 358517.99977140390547, 6876106.847270302474499 ], [ 358536.198522418388166, 6876094.520590944215655 ], [ 358570.197694036643952, 6876063.283949621021748 ], [ 358607.90736064594239, 6876034.200946931727231 ], [ 358628.755448440788314, 6876009.136003994382918 ], [ 358638.546745712752454, 6875971.28283984772861 ], [ 358644.526857941760682, 6875939.712693437933922 ], [ 358641.242744944000151, 6875901.703942300751805 ], [ 358630.411918258992955, 6875869.933755861595273 ], [ 358623.241569389647339, 6875844.535379840061069 ], [ 358614.278754659113474, 6875812.787401642650366 ], [ 358609.001484417589381, 6875785.302084234543145 ], [ 358613.138824484893121, 6875751.600555072538555 ], [ 358620.861313191242516, 6875730.598219088278711 ], [ 358624.934819836402312, 6875713.578551610931754 ], [ 358632.87164855224546, 6875663.239608781412244 ], [ 358641.797032984264661, 6875632.034956449642777 ], [ 358665.537170841475017, 6875599.357662834227085 ], [ 358704.374924875795841, 6875573.451924288645387 ], [ 358737.25017873570323, 6875558.022224755957723 ], [ 358788.834882980911061, 6875540.178163105621934 ], [ 358829.771981664816849, 6875534.072872633114457 ], [ 358889.340221227612346, 6875532.143854454159737 ], [ 358927.86422395450063, 6875532.601445701904595 ], [ 358975.727210191893391, 6875533.169792058877647 ], [ 359036.650563320727088, 6875515.435548853129148 ], [ 359071.985014155623503, 6875489.487088089808822 ], [ 359110.837104735197499, 6875462.261789930984378 ], [ 359148.521662544342689, 6875435.022639115341008 ], [ 359175.605847713421099, 6875415.567931273952127 ], [ 359209.674903035513125, 6875378.411439744755626 ], [ 359232.499305348377675, 6875343.73104283772409 ], [ 359255.147898184193764, 6875304.447864048182964 ], [ 359275.430540813831612, 6875267.773431777022779 ], [ 359298.094476207916159, 6875227.171900521963835 ], [ 359319.544192113680765, 6875190.511229151859879 ], [ 359337.413556674146093, 6875160.399994039908051 ], [ 359368.108137549716048, 6875131.758961042389274 ], [ 359398.646512632840313, 6875116.29986191727221 ], [ 359433.729354315204546, 6875111.441626003012061 ], [ 359473.43483419844415, 6875110.593152545392513 ], [ 359514.198369972931687, 6875118.985745662823319 ], [ 359540.891475734184496, 6875132.485314415767789 ], [ 359569.981725555378944, 6875140.739648329094052 ], [ 359610.854590510192793, 6875139.90440374519676 ], [ 359642.497639558510855, 6875129.731377110816538 ], [ 359673.004464058030862, 6875116.908031644299626 ], [ 359694.203543716052081, 6875101.337842223234475 ], [ 359722.500165513774846, 6875077.94123918004334 ], [ 359741.442327017197385, 6875055.752339903265238 ], [ 359768.867080941738095, 6875007.296017736196518 ], [ 359786.657207626849413, 6874983.77521188557148 ], [ 359805.630227508256212, 6874958.949885603971779 ], [ 359835.186944693792611, 6874927.65759271197021 ], [ 359848.307546102092601, 6874904.081479571759701 ], [ 359883.902773541980423, 6874855.721348556689918 ], [ 359902.984255427261814, 6874821.668492957949638 ], [ 359930.174622235819697, 6874792.984771351329982 ], [ 359952.680087309970986, 6874765.564202778972685 ], [ 359976.337185784650501, 6874739.475525489076972 ], [ 359991.760881659050938, 6874718.563241090625525 ], [ 360013.067616988671944, 6874693.765135379508138 ], [ 360033.222628549323417, 6874667.635070269927382 ], [ 360072.178522618836723, 6874631.179415022023022 ], [ 360093.422809982846957, 6874611.654061758890748 ], [ 360112.410148562514223, 6874585.510117806494236 ], [ 360137.156270791427232, 6874566.02583693806082 ], [ 360166.617919022217393, 6874542.641995469108224 ], [ 360212.414061880903319, 6874518.98476267978549 ], [ 360241.826172522967681, 6874507.523034269921482 ], [ 360260.513025262742303, 6874500.240786108188331 ], [ 360309.77150919981068, 6874481.04462568834424 ], [ 360369.42695663170889, 6874471.199196952395141 ], [ 360425.533953844220378, 6874465.26702584233135 ], [ 360495.570730311796069, 6874466.090112006291747 ], [ 360567.833734261803329, 6874476.167576244100928 ], [ 360609.670138021581806, 6874492.479392258450389 ], [ 360642.121913996408693, 6874512.635951992124319 ], [ 360681.624026633508038, 6874528.920104876160622 ], [ 360723.383446322404779, 6874551.822437046095729 ], [ 360753.454671424231492, 6874575.906007159501314 ], [ 360782.343203865457326, 6874601.293861921876669 ], [ 360808.959137316793203, 6874621.381619700230658 ], [ 360836.711626813048497, 6874644.119322365149856 ], [ 360862.144934609357733, 6874665.511434593237936 ], [ 360885.243793188594282, 6874686.876138048246503 ], [ 360917.727525825845078, 6874704.395573575049639 ], [ 360952.592205039109103, 6874717.987652452662587 ], [ 361015.986692692968063, 6874739.823862191289663 ], [ 361073.177560324547812, 6874761.059785051271319 ], [ 361130.42401781474473, 6874777.549948707222939 ], [ 361193.440113616001327, 6874779.868684971705079 ], [ 361326.771847301162779, 6874759.277837100438774 ], [ 361439.31303477747133, 6874719.458250460214913 ], [ 361514.681668985751458, 6874694.251448570750654 ], [ 361844.277314925566316, 6874603.009570742025971 ], [ 361915.935801651910879, 6874588.662322739139199 ], [ 362118.096206446876749, 6874548.183920501731336 ], [ 362237.311840400565416, 6874536.383986243978143 ], [ 362346.974946989386808, 6874542.929389987140894 ], [ 362521.689619841636159, 6874628.950486027635634 ], [ 362725.405153693805914, 6874729.245241940021515 ], [ 362815.81473018968245, 6874785.661497705616057 ], [ 362850.194355671235826, 6874841.429928140714765 ], [ 362879.296263289405033, 6874949.872039336711168 ], [ 362884.869470368721522, 6875073.862838032655418 ], [ 362839.933135570841841, 6875311.24179751612246 ] ] ] } }
]
}
