{
"type": "FeatureCollection",
"name": "Limite Territorial Passo Fundo",
"crs": { "type": "name", "properties": { "name": "urn:ogc:def:crs:EPSG::31982" } },
"features": [
{ "type": "Feature", "properties": { "CD_MUN": "4314100", "NM_MUN": "Passo Fundo", "CD_RGI": "430025", "NM_RGI": "Passo Fundo", "CD_RGINT": "4306", "NM_RGINT": "Passo Fundo", "CD_UF": "43", "NM_UF": "Rio Grande do Sul", "SIGLA_UF": "RS", "CD_REGIA": "4", "NM_REGIA": "Sul", "SIGLA_RG": "S", "CD_CONCU": "4314100", "NM_CONCU": "Passo Fundo", "AREA_KM2": 784.406 }, "geometry": { "type": "MultiPolygon", "coordinates": [ [ [ [ 373766.071127988572698, 6871949.650622467510402 ], [ 373813.012732732458971, 6871850.866486446931958 ], [ 373802.722497264388949, 6871786.300228433683515 ], [ 373772.708237856044434, 6871736.183906111866236 ], [ 373764.46641194447875, 6871680.116174265742302 ], [ 373756.449450291693211, 6871586.342977592721581 ], [ 373743.97123612271389, 6871520.955514430068433 ], [ 373683.614838225999847, 6871465.529503669589758 ], [ 373636.629788602585904, 6871387.9621990788728 ], [ 373604.394562219677027, 6871315.383105243556201 ], [ 373559.645116833911743, 6871257.330346249975264 ], [ 373512.868519529059995, 6871242.227043570950627 ], [ 373440.77097815007437, 6871254.07883289270103 ], [ 373343.489420501515269, 6871295.623695590533316 ], [ 373285.127125744067598, 6871316.408316293731332 ], [ 373244.873933509283233, 6871274.680024636909366 ], [ 373228.14742419635877, 6871231.69612128008157 ], [ 373184.436385087261442, 6871159.292225759476423 ], [ 373149.209844557393808, 6871096.153804814442992 ], [ 373124.507666124496609, 6871052.386302663944662 ], [ 373086.56710468896199, 6871033.009953978471458 ], [ 373000.532236255239695, 6870990.746319226920605 ], [ 372980.54770760552492, 6870940.690778972581029 ], [ 372973.266994754434563, 6870885.973306339234114 ], [ 372985.215351843915414, 6870854.753690673038363 ], [ 372976.451768748578615, 6870833.16303547564894 ], [ 372971.977000836341176, 6870786.642169459722936 ], [ 372952.462866778951138, 6870773.291241440922022 ], [ 372937.925468825327698, 6870721.166438462212682 ], [ 372939.004178366682027, 6870659.867846159264445 ], [ 372917.23720567143755, 6870576.69463147316128 ], [ 372922.288677376112901, 6870520.879290901124477 ], [ 372935.076327362854499, 6870468.991909548640251 ], [ 372922.360122267040424, 6870390.680423378944397 ], [ 372891.237701028527226, 6870294.586296694353223 ], [ 372878.284414412803017, 6870164.347429828718305 ], [ 372860.693600888596848, 6870007.453699763864279 ], [ 372800.602473689301405, 6869863.53382786270231 ], [ 372711.407225471455604, 6869767.569152870215476 ], [ 372661.549682683835272, 6869753.215782098472118 ], [ 372637.792372319847345, 6869741.536160783842206 ], [ 372629.205091935000382, 6869710.074009127914906 ], [ 372616.232538851851132, 6869666.85226159542799 ], [ 372589.658670742879622, 6869621.589453821070492 ], [ 372554.136478560627438, 6869611.323399171233177 ], [ 372510.520124157774262, 6869595.828651204705238 ], [ 372441.489378187805414, 6869603.296774731948972 ], [ 372412.122347015538253, 6869592.531409677118063 ], [ 372402.45439149660524, 6869564.946799886412919 ], [ 372401.47902914811857, 6869506.141270881518722 ], [ 372404.21312355104601, 6869463.542648704722524 ], [ 372409.377538493019529, 6869440.261965209618211 ], [ 372398.41376858309377, 6869420.08756403811276 ], [ 372398.018485929933377, 6869392.126300087198615 ], [ 372406.922227836970706, 6869373.163091614842415 ], [ 372416.846532664378174, 6869340.481680413708091 ], [ 372402.76820160727948, 6869321.736417305655777 ], [ 372379.857904751435854, 6869300.72417282871902 ], [ 372378.548488675267436, 6869266.581016207113862 ], [ 372377.838656081468798, 6869249.619652045890689 ], [ 372360.751240079058334, 6869243.463023703545332 ], [ 372345.723813491291367, 6869219.975928334519267 ], [ 372356.367605294333771, 6869174.226889852434397 ], [ 372365.229440048278775, 6869113.62137046828866 ], [ 372344.404164598614443, 6869083.921927008777857 ], [ 372317.459335120744072, 6869076.041213208809495 ], [ 372282.441210170334671, 6869084.694723200984299 ], [ 372273.819259267882444, 6869073.875504991970956 ], [ 372240.806261732010171, 6868996.618346527218819 ], [ 372225.471283648279496, 6868929.856936003081501 ], [ 372214.500296919140965, 6868905.881495133042336 ], [ 372194.007020554854535, 6868854.566534075886011 ], [ 372186.340950975078158, 6868821.529308128170669 ], [ 372151.624467485235073, 6868790.47178609855473 ], [ 372128.696558955940418, 6868796.673423426225781 ], [ 372111.007676387147512, 6868789.978019986301661 ], [ 372096.000610898016021, 6868766.524004677310586 ], [ 372033.499779505014885, 6868688.305060600861907 ], [ 372092.755013046087697, 6868631.113810926675797 ], [ 372177.204789912153501, 6868550.248368997126818 ], [ 372202.749571192776784, 6868523.24283338803798 ], [ 372252.122677560080774, 6868474.675974924117327 ], [ 372299.861519362893887, 6868427.565066808834672 ], [ 372331.522462438617367, 6868399.007397757843137 ], [ 372373.738798554695677, 6868358.31900948099792 ], [ 372426.374147623544559, 6868308.124497113749385 ], [ 372471.789002156176139, 6868266.328902941197157 ], [ 372548.351311019679997, 6868194.351609241217375 ], [ 372624.13630565837957, 6868120.703369226306677 ], [ 372686.868131541355979, 6868062.516244567930698 ], [ 372762.529550046485383, 6867988.345059085637331 ], [ 372816.241671279130969, 6867936.199202531948686 ], [ 372872.478555801324546, 6867883.592664014548063 ], [ 372939.159258227911778, 6867819.983826631680131 ], [ 373019.493023156363051, 6867742.359702203422785 ], [ 373076.823939346999396, 6867687.237562570720911 ], [ 373120.196561600430869, 6867647.06883149780333 ], [ 373195.327342831180431, 6867574.329922614619136 ], [ 373221.478690328251105, 6867547.960470704361796 ], [ 373250.701259851397481, 6867519.573881059885025 ], [ 373279.528687249636278, 6867493.277276944369078 ], [ 373319.486173199431505, 6867454.135087529197335 ], [ 373409.232179039565381, 6867367.943987751379609 ], [ 373459.953860017936677, 6867318.899347787722945 ], [ 373513.54744739504531, 6867266.261750506237149 ], [ 373570.12292789015919, 6867211.661218175664544 ], [ 373601.363886417297181, 6867182.353510159999132 ], [ 373682.722192302520853, 6867103.472956469282508 ], [ 373754.36518304166384, 6867034.394565189257264 ], [ 373794.308817403449211, 6866996.259106360375881 ], [ 373827.717598498857114, 6866964.015371909365058 ], [ 373867.127046530600637, 6866924.433485500514507 ], [ 373898.533205026586074, 6866896.046522170305252 ], [ 373939.331963763397653, 6866856.711909083649516 ], [ 374011.20606883050641, 6866785.905935070477426 ], [ 374042.483878733532038, 6866754.769207770004869 ], [ 374064.502448978601024, 6866733.096662629395723 ], [ 374122.605178220430389, 6866678.244000534527004 ], [ 374138.779524607001804, 6866663.01362809818238 ], [ 374200.643133552221116, 6866604.820944994688034 ], [ 374228.756051241769455, 6866577.99381267093122 ], [ 374272.589999850955792, 6866537.028263105079532 ], [ 374306.151021068566479, 6866504.053565138950944 ], [ 374332.737964808067773, 6866478.683750234544277 ], [ 374362.58311950287316, 6866451.187703020870686 ], [ 374421.16554274194641, 6866397.070111242122948 ], [ 374438.534191541140899, 6866380.10126163624227 ], [ 374450.566666219965555, 6866366.100853173062205 ], [ 374471.32765514095081, 6866346.37557490170002 ], [ 374491.941203401482198, 6866329.452145224437118 ], [ 374529.539894986432046, 6866299.334199994802475 ], [ 374570.693807155068498, 6866272.356444668024778 ], [ 374602.19936680822866, 6866249.996765430085361 ], [ 374623.839651511283591, 6866237.006604371592402 ], [ 374638.216248300101142, 6866228.460445513948798 ], [ 374699.940322454785928, 6866195.040546867996454 ], [ 374795.74631924071582, 6866155.144063368439674 ], [ 374939.461699109175242, 6866118.700647233054042 ], [ 375106.239955944358371, 6866072.725660920143127 ], [ 375368.844028962077573, 6866005.917640158906579 ], [ 375535.889729583985172, 6865964.006209257058799 ], [ 376372.147694245912135, 6865758.203792097046971 ], [ 376682.146689088316634, 6865685.236044067889452 ], [ 376828.246028391295113, 6865670.978667665272951 ], [ 376923.551853969402146, 6865673.277799936011434 ], [ 377165.140174931788351, 6865712.553741498850286 ], [ 377302.891075817227829, 6865741.252378726378083 ], [ 377526.359999427571893, 6865773.208067642524838 ], [ 377671.433303176541813, 6865756.669209577143192 ], [ 377809.81269529479323, 6865712.291300289332867 ], [ 377949.231329278962221, 6865621.228583180345595 ], [ 378070.595328125811648, 6865503.772505711764097 ], [ 378205.049087193619926, 6865283.111725714057684 ], [ 378420.621169876016211, 6864873.072803914546967 ], [ 378545.114136542892084, 6864641.602297722361982 ], [ 378600.042545740725473, 6864550.983388456515968 ], [ 378657.656056863430422, 6864473.766153948381543 ], [ 378705.644408797030337, 6864411.597225608304143 ], [ 378758.356719740782864, 6864354.285549880005419 ], [ 378881.004164687416051, 6864255.938125167042017 ], [ 379019.744051176880021, 6864165.488425856456161 ], [ 379253.825381921371445, 6864027.189674840308726 ], [ 379440.331030913162977, 6863910.640428247861564 ], [ 379922.775412535236683, 6863606.455093499273062 ], [ 380258.915230544633232, 6863402.667536992579699 ], [ 380450.711058147717267, 6863281.513960810378194 ], [ 380552.579469223623164, 6863225.068507924675941 ], [ 380656.067677172017284, 6863178.965683119371533 ], [ 380742.584037608932704, 6863154.563884248025715 ], [ 380849.521222690236755, 6863133.746874222531915 ], [ 381049.279213284840807, 6863117.431149148382246 ], [ 381132.898410948750097, 6862274.674221247434616 ], [ 380847.647672179096844, 6862295.669428337365389 ], [ 380825.371068138163537, 6862166.156353927217424 ], [ 380769.352323091647122, 6861841.051394390873611 ], [ 380576.343876245140564, 6861860.742793074809015 ], [ 380514.674533789046109, 6861762.842603760771453 ], [ 380432.981961400131695, 6861879.071972472593188 ], [ 380276.778124111064244, 6861846.298430612310767 ], [ 380218.771105986670591, 6861954.921291596256196 ], [ 380032.196327001031023, 6861864.804593130946159 ], [ 379798.76215801842045, 6861937.78080034814775 ], [ 379751.190526088001207, 6861884.408860471099615 ], [ 379816.609770083741751, 6861839.543998170644045 ], [ 379675.333176907908637, 6861757.860151924192905 ], [ 379441.139833654742688, 6861684.246511334553361 ], [ 379225.654871100035962, 6861807.656493335030973 ], [ 379218.763161648763344, 6862076.30348595418036 ], [ 378973.101579724811018, 6862238.748284985311329 ], [ 378974.807199528557248, 6862057.840382129885256 ], [ 378833.291456840059254, 6861868.772009611129761 ], [ 378558.371277623693459, 6861985.399813562631607 ], [ 378569.303023494663648, 6861875.403212064877152 ], [ 378325.625783149385825, 6861829.349443404003978 ], [ 378306.928293353354093, 6861592.051726285368204 ], [ 377971.051751016813796, 6861581.795138010755181 ], [ 377890.108583149616607, 6861378.43624188285321 ], [ 377568.887622318288777, 6861426.127685053274035 ], [ 377418.475615184404887, 6861321.816197689622641 ], [ 377336.215244050545152, 6860652.747692598029971 ], [ 377390.649215719371568, 6860573.187807455658913 ], [ 377455.411985083250329, 6860478.509889552369714 ], [ 377516.700772325624712, 6860388.914940251037478 ], [ 377371.211937472689897, 6860287.51197571028024 ], [ 377512.602948676794767, 6860011.106705354526639 ], [ 377585.881472695735283, 6859867.871915366500616 ], [ 377490.705926523776725, 6859765.9278445225209 ], [ 377408.694145119516179, 6859678.01490892842412 ], [ 377344.59325764660025, 6859609.335298828780651 ], [ 377448.935394834261388, 6859270.726168965920806 ], [ 375445.130761725653429, 6859527.962014648132026 ], [ 375533.115277637843974, 6859633.526545459404588 ], [ 375652.341199367132504, 6859612.698645837605 ], [ 375702.947645863925572, 6859773.615882567130029 ], [ 375652.35192231455585, 6859845.241719419136643 ], [ 375774.239727915730327, 6860119.302024399861693 ], [ 375996.893638898211066, 6860359.381532441824675 ], [ 375962.065625862916932, 6860922.875126941129565 ], [ 376155.699773545144126, 6861211.523255985230207 ], [ 376023.440066942537669, 6861490.458653112873435 ], [ 376425.270129543263465, 6861370.186493001878262 ], [ 376616.045273802417796, 6861416.326245534233749 ], [ 376652.844126399897505, 6861621.383772699162364 ], [ 376519.661346626118757, 6861897.500076655298471 ], [ 376299.415880143817049, 6862071.370213814079762 ], [ 376281.377367713372223, 6862346.051624585874379 ], [ 376095.484385841991752, 6862509.784412461332977 ], [ 375877.703647052519955, 6863067.124432050623 ], [ 375627.097198278119322, 6863263.435506854206324 ], [ 375409.596744812326506, 6864147.300204435363412 ], [ 374968.726683971181046, 6864332.994064252823591 ], [ 374848.86465138773201, 6864677.126784659922123 ], [ 374498.93236676894594, 6864785.601820690557361 ], [ 374334.627399396442343, 6865026.561258675530553 ], [ 373993.327254159143195, 6864594.678140262141824 ], [ 373717.853789671557024, 6864560.337302912026644 ], [ 373511.173096990562044, 6864357.454209487885237 ], [ 373100.033910961938091, 6864333.137940873391926 ], [ 372887.420636400813237, 6864497.511856125667691 ], [ 372636.02131119382102, 6864528.549008989706635 ], [ 372416.384844433399849, 6864440.515383328311145 ], [ 372188.263384401623625, 6864504.726648343726993 ], [ 372108.449010047712363, 6864384.267300361767411 ], [ 371953.466393710928969, 6864346.721484451554716 ], [ 371881.796600674395449, 6864172.484036042355001 ], [ 372030.697964015533216, 6864064.206235498189926 ], [ 371982.486157668172382, 6863948.132221091538668 ], [ 372273.296892931335606, 6863796.198769735172391 ], [ 372306.165140289580449, 6863664.745840899646282 ], [ 372238.2262048322591, 6863581.58077722042799 ], [ 372060.407670710177626, 6863682.234612669795752 ], [ 371711.384312664100435, 6863673.355985661037266 ], [ 371802.389820976473857, 6863452.468598448671401 ], [ 371772.4682444758364, 6863163.495706939138472 ], [ 371675.858172720996663, 6863111.497115612961352 ], [ 371629.588850609667134, 6862896.699526865035295 ], [ 371895.419725069776177, 6862707.959787874482572 ], [ 371881.958711140905507, 6862597.846207052469254 ], [ 371742.36495365673909, 6862456.002643711864948 ], [ 371662.426754130283371, 6862099.601046822965145 ], [ 371834.520195568795316, 6861755.05449340865016 ], [ 372423.252125138649717, 6861704.014899983070791 ], [ 372506.322279811545741, 6861609.3048733221367 ], [ 372488.88915430085035, 6861425.516086934134364 ], [ 372196.019797652319539, 6861354.646862021647394 ], [ 372271.371611499984283, 6861192.360670549795032 ], [ 372230.598123461008072, 6861078.273115769028664 ], [ 372523.887685450958088, 6861044.176245369948447 ], [ 372684.040131260291673, 6860870.003967300988734 ], [ 372996.582216811541002, 6861066.432005668058991 ], [ 373120.022712278878316, 6860920.636619428172708 ], [ 373050.792282490525395, 6860809.149706108495593 ], [ 373122.275825095188338, 6860665.255836611613631 ], [ 373370.7889487297507, 6860585.75747125223279 ], [ 373277.090794375690166, 6860464.756896218284965 ], [ 373459.207075933169108, 6860082.887565232813358 ], [ 373152.613615872221999, 6859953.086827494204044 ], [ 373193.673844698292669, 6859850.131322307512164 ], [ 373084.554481126368046, 6859722.236956388689578 ], [ 373068.880228320485912, 6859451.914225033484399 ], [ 372936.2194591879379, 6859389.430975679308176 ], [ 373115.013860445644241, 6858992.671293394640088 ], [ 372327.901413447980303, 6858941.887959655374289 ], [ 372241.224476285744458, 6858755.664298818446696 ], [ 372094.327190074254759, 6858670.633151003159583 ], [ 372123.274052254855633, 6858448.09609919693321 ], [ 372020.749143681139685, 6858243.891384618356824 ], [ 371853.779578181449324, 6858378.409609779715538 ], [ 371656.684514939261135, 6858329.106810010969639 ], [ 371594.518799571495038, 6858459.929532933980227 ], [ 371470.19646218419075, 6858488.229165848344564 ], [ 371468.729350486362819, 6858330.529595166444778 ], [ 371241.209057293483056, 6858422.438026698306203 ], [ 371006.370601559523493, 6858374.895406604744494 ], [ 370807.198757256439421, 6858127.990616818889976 ], [ 370610.245935830811504, 6858096.789098372682929 ], [ 370197.125843837333377, 6858336.557628680020571 ], [ 370266.493268093210645, 6858551.230374276638031 ], [ 370068.208907515800092, 6858533.602017674595118 ], [ 369757.716332161915489, 6858266.525974533520639 ], [ 369635.696978892898187, 6858343.267553915269673 ], [ 369586.337242431065533, 6858269.054676405154169 ], [ 369142.970375794335268, 6858265.609386340714991 ], [ 369089.771696939365938, 6858068.727344231680036 ], [ 368922.662332568899728, 6858031.977589951828122 ], [ 368941.029812103777658, 6858258.282148702070117 ], [ 368769.66643933521118, 6858392.38833578210324 ], [ 368814.665017840452492, 6858489.184149688109756 ], [ 368554.473898501310032, 6858423.026550668291748 ], [ 368333.300816343165934, 6858774.439477710053325 ], [ 368360.879062145249918, 6859012.283741472288966 ], [ 368143.494364261161536, 6859074.859897902235389 ], [ 368065.478263655211776, 6859255.675761771388352 ], [ 367899.670881597266998, 6859235.249452469870448 ], [ 367884.642290335381404, 6859039.619618384167552 ], [ 367694.566107631078921, 6859001.587569380179048 ], [ 367597.709257779235486, 6859252.233981255441904 ], [ 367331.393859145697206, 6859143.119057277217507 ], [ 367235.189888794382568, 6859323.592683354392648 ], [ 367061.295302168815397, 6859250.272527175024152 ], [ 366984.321036209003069, 6859429.221087405458093 ], [ 367019.039422116009519, 6859545.167531052604318 ], [ 366764.997565930942073, 6859674.314610630273819 ], [ 366721.492209245450795, 6859895.094319341704249 ], [ 366638.946407813113183, 6859948.726508484221995 ], [ 366578.257707939133979, 6859988.210559388622642 ], [ 366371.693094656569883, 6859905.280720592476428 ], [ 366166.841220890521072, 6859994.868964140303433 ], [ 366011.466022360080387, 6859900.711166655644774 ], [ 365875.647359605005477, 6860041.009929988533258 ], [ 365669.191654099733569, 6859978.081704622134566 ], [ 365646.723598403506912, 6860201.679666861891747 ], [ 365483.541303635807708, 6860284.50551394186914 ], [ 365443.676077750278637, 6860250.619045060127974 ], [ 364852.701752339955419, 6859748.390563398599625 ], [ 364642.573615655303001, 6859864.742601516656578 ], [ 364419.876500702812336, 6859783.111045124009252 ], [ 364573.260462604986969, 6859527.672660209238529 ], [ 364348.345324018504471, 6859534.775799386203289 ], [ 364309.099540059163701, 6859456.012686440721154 ], [ 364417.788903403095901, 6859348.730313615873456 ], [ 364324.303273173223715, 6859283.417537291534245 ], [ 364297.552187703666277, 6859096.488397009670734 ], [ 364168.267486297874711, 6859006.782489599660039 ], [ 364027.229779861227144, 6859063.856946108862758 ], [ 364215.24834343168186, 6858678.704129396937788 ], [ 364000.727852938463911, 6858670.361124916933477 ], [ 363792.723836243210826, 6858781.768752879463136 ], [ 363593.622680613363627, 6859085.760154703631997 ], [ 363605.828446399886161, 6859214.246227761730552 ], [ 363457.058269548404496, 6859236.129905134439468 ], [ 363366.344575043010991, 6859119.789115386083722 ], [ 363287.670956943067722, 6859230.712133198976517 ], [ 363134.946371923433617, 6859038.241925291717052 ], [ 362830.136667961778585, 6859008.562787409871817 ], [ 362702.531218734919094, 6858767.021408274769783 ], [ 362432.862537314998917, 6858648.024594455957413 ], [ 362602.76206945697777, 6858452.188112081028521 ], [ 362521.847051024786197, 6857938.44989974424243 ], [ 362369.639050127821974, 6857905.868974417448044 ], [ 361451.667775969719514, 6857951.198658093810081 ], [ 361358.035632794955745, 6857855.573270628228784 ], [ 361359.432227622077335, 6857353.983087778091431 ], [ 361126.468176151043735, 6857423.572392826899886 ], [ 361014.959620114939753, 6857222.425182234495878 ], [ 360786.042363628279418, 6857133.433563723228872 ], [ 360497.96766356768785, 6857391.522878888994455 ], [ 360331.605693344841711, 6857204.702159269712865 ], [ 360054.466437485069036, 6857272.583825918845832 ], [ 359857.596469753829297, 6857458.955838648602366 ], [ 359883.893522333120927, 6857700.083042872138321 ], [ 359793.076228742022067, 6857792.599636236205697 ], [ 359855.406851381005254, 6857932.037751941941679 ], [ 359740.578281770227477, 6857936.480159886181355 ], [ 359715.858547215582803, 6858069.74210149794817 ], [ 359607.413099843484815, 6858067.144759519957006 ], [ 359485.238425843126606, 6857928.821227535605431 ], [ 359152.627919433289208, 6858055.419813767075539 ], [ 359137.460578974569216, 6858042.14024912007153 ], [ 358797.123781638569199, 6857744.308488795533776 ], [ 358977.966689348046202, 6857659.513450883328915 ], [ 359002.850066470564343, 6857547.653249028138816 ], [ 359206.584226857521571, 6857543.625677466392517 ], [ 359004.794484779646154, 6857301.330879198387265 ], [ 358951.993731852271594, 6857019.956406185403466 ], [ 358821.455145192914642, 6856984.407222935929894 ], [ 358727.526802143664099, 6857185.844904188066721 ], [ 358579.597409141599201, 6857177.855569079518318 ], [ 358482.103566328412853, 6857478.385687774047256 ], [ 358276.087419596151449, 6857581.842715760692954 ], [ 358403.829350004089065, 6857845.990602852776647 ], [ 358426.069049560057465, 6858302.091806777752936 ], [ 357968.067035503103398, 6858544.552923976443708 ], [ 357270.860712755937129, 6859572.461696383543313 ], [ 356798.222312800993677, 6859851.960852243006229 ], [ 356091.234814081690274, 6858943.26974302623421 ], [ 355701.661192246247083, 6859353.117837196215987 ], [ 355540.914721211127471, 6859108.848060509189963 ], [ 355464.823099829140119, 6858722.4906772878021 ], [ 355184.106304037151858, 6858769.494460246525705 ], [ 355107.006242511444725, 6858391.421775022521615 ], [ 354721.248277411446907, 6858343.21638267301023 ], [ 354461.927335667656735, 6857928.694722127169371 ], [ 354087.688123785890639, 6858047.869032964110374 ], [ 353892.291945730918087, 6857789.525379151105881 ], [ 353463.751313430955634, 6857555.269072523340583 ], [ 353490.907005101442337, 6857388.568057170137763 ], [ 353280.201955711236224, 6857282.920479940250516 ], [ 353327.490523954795208, 6857147.410908002406359 ], [ 353272.923000720445998, 6857117.35401276871562 ], [ 353051.639421983272769, 6856757.881584912538528 ], [ 352691.756216953974217, 6856638.416576136834919 ], [ 352735.521529934252612, 6856515.520667051896453 ], [ 352548.307843118906021, 6856274.075889756903052 ], [ 352405.791070501552895, 6856205.534905802458525 ], [ 352120.767377416254021, 6856425.112036051228642 ], [ 352048.530374889960513, 6856951.965945589356124 ], [ 352149.153745266143233, 6857578.12082933075726 ], [ 352076.149970853119157, 6857685.997980065643787 ], [ 352184.891994497738779, 6857725.106134909205139 ], [ 352026.402249158942141, 6857968.630675449967384 ], [ 352223.812618326570373, 6858142.332660935819149 ], [ 352099.305490420607384, 6858362.313374541699886 ], [ 352236.845557201246265, 6858538.422599581070244 ], [ 352009.602565390407108, 6858795.747807582840323 ], [ 352111.38412227970548, 6858901.571064967662096 ], [ 352006.489260554662906, 6858980.756129652261734 ], [ 352062.835289998212829, 6859079.748675525188446 ], [ 351991.826490205654409, 6859095.780825395137072 ], [ 352088.913322225329466, 6859217.481151713058352 ], [ 352075.88489697658224, 6859491.541914898902178 ], [ 352225.092324977973476, 6859737.335897508077323 ], [ 352165.907708188111428, 6859917.14275529794395 ], [ 352259.405120348907076, 6860143.155098667368293 ], [ 352157.620900141017046, 6860322.307033809833229 ], [ 352231.015332936192863, 6860600.308070737868547 ], [ 351936.198070024955086, 6860835.953732972964644 ], [ 351985.804652976803482, 6861001.065188674256206 ], [ 351821.313212918466888, 6861461.742304679006338 ], [ 351842.736945334472694, 6861677.854576278477907 ], [ 351444.199503122712485, 6862259.187950156629086 ], [ 351553.701611698954366, 6862541.59162693284452 ], [ 351702.831069888430648, 6862766.488063781522214 ], [ 351502.867660609073937, 6863073.386534002609551 ], [ 351337.105598519789055, 6863114.75580389238894 ], [ 350983.234617476293352, 6863026.365889717824757 ], [ 350791.474170257803053, 6863131.985800334252417 ], [ 350498.815363331465051, 6863932.654691403731704 ], [ 349983.824161042226478, 6864310.624611157923937 ], [ 349300.735760373994708, 6864497.927782397717237 ], [ 348045.935715202766005, 6864681.619917904958129 ], [ 347786.668826758337673, 6865358.14266212284565 ], [ 347401.66355515626492, 6865942.842819086275995 ], [ 347359.05357198981801, 6866188.571828855201602 ], [ 347265.682411544956267, 6866279.24946659244597 ], [ 347181.523652451462112, 6866361.157488118857145 ], [ 347048.853406415204518, 6866230.259339403361082 ], [ 346815.664561732439324, 6866417.258766911923885 ], [ 346635.921572284016293, 6866296.49626812338829 ], [ 346614.085408741491847, 6866281.861917547881603 ], [ 346420.245844248682261, 6866269.840064157731831 ], [ 346272.376884663302917, 6865925.081683918833733 ], [ 345959.609159553947393, 6865804.718347551301122 ], [ 345865.138129226630554, 6865569.575776994228363 ], [ 345439.965905530261807, 6865564.917016925290227 ], [ 345199.901148156088311, 6865460.753251845017076 ], [ 345041.253099782275967, 6865566.008707834407687 ], [ 344832.72413190943189, 6865529.419959280639887 ], [ 344580.328046071110293, 6865181.160051266662776 ], [ 344446.986016709008254, 6865125.348315486684442 ], [ 344379.038126482686494, 6864889.265833927318454 ], [ 344067.005198951228522, 6864698.619431905448437 ], [ 343896.576052202028222, 6864698.588279608637094 ], [ 343568.375844129011966, 6865041.917988250032067 ], [ 343333.873551005381159, 6864894.98814744129777 ], [ 343174.489006527350284, 6864985.425557175651193 ], [ 343086.523966531269252, 6864903.147242052480578 ], [ 343113.130379846203141, 6865092.199938604608178 ], [ 343300.128653068095446, 6865391.342075727880001 ], [ 343466.938857944740448, 6866451.061514313332736 ], [ 343725.711771458387375, 6866780.489326376467943 ], [ 343984.896763691562228, 6867350.712306556291878 ], [ 344059.601961062522605, 6867445.308477811515331 ], [ 344019.044146382017061, 6867620.506401877850294 ], [ 343964.069973767618649, 6867729.253224618732929 ], [ 343852.822099910816178, 6867851.665092445909977 ], [ 343784.460874994052574, 6868009.218512523919344 ], [ 343750.974140013102442, 6868095.573470517992973 ], [ 343664.037575465277769, 6868150.225843120366335 ], [ 343502.425089415512048, 6868176.185510153882205 ], [ 343423.763740619411692, 6868195.315867872908711 ], [ 343343.972652473370545, 6868229.391920680180192 ], [ 343201.534221581998281, 6868322.006483662873507 ], [ 342960.920893912785687, 6868393.004544362425804 ], [ 342870.887296214699745, 6868431.474467905238271 ], [ 342666.659477875102311, 6868518.741680759936571 ], [ 342557.63211553171277, 6868568.427332304418087 ], [ 342493.024837152101099, 6868633.109722185879946 ], [ 342421.448686217074282, 6868743.070340308360755 ], [ 342341.7584439025959, 6868863.406552257016301 ], [ 342255.640090380562469, 6868939.648616227321327 ], [ 342156.864114675321616, 6868984.42486837040633 ], [ 342065.416532845469192, 6869006.257735170423985 ], [ 341983.867006720916834, 6869003.009472846984863 ], [ 341880.562630074797198, 6868956.980462351813912 ], [ 341840.99088743556058, 6868960.77448168490082 ], [ 341649.975426836463157, 6868455.203684261068702 ], [ 341319.66105102666188, 6868094.50580932572484 ], [ 341079.893033911765087, 6868199.755479097366333 ], [ 340685.397822643397376, 6868216.056302659213543 ], [ 340372.167437897878699, 6868387.973656380549073 ], [ 340257.640685917867813, 6868665.830709434114397 ], [ 340091.804415164515376, 6868742.512149346992373 ], [ 339962.30929596349597, 6868958.601501611061394 ], [ 339751.628181433014106, 6868399.965770761482418 ], [ 339504.223597244475968, 6868373.631467649713159 ], [ 339453.147766600130126, 6868666.161245290189981 ], [ 339021.601008918485604, 6869139.548832785338163 ], [ 338895.480938388733193, 6869570.320665033534169 ], [ 338737.018817633506842, 6869728.486017914488912 ], [ 338353.851983921485953, 6869800.279572021216154 ], [ 338442.765475782915018, 6870118.796978702768683 ], [ 338412.757085237419233, 6870364.853305223397911 ], [ 338028.839228904224001, 6870817.436245272867382 ], [ 337430.40692751610186, 6870849.188633715733886 ], [ 337088.667652885487769, 6871420.019728858955204 ], [ 337002.234118579188362, 6871448.877219184301794 ], [ 336877.404202286968939, 6871472.983611725270748 ], [ 336685.199807791272178, 6871648.713901637122035 ], [ 336516.03449018264655, 6871641.71775808185339 ], [ 336361.986726887524128, 6871521.097669607028365 ], [ 335860.034726151381619, 6871728.046926167793572 ], [ 335620.160418667888734, 6871906.104826588183641 ], [ 335498.890828484320082, 6871883.699121974408627 ], [ 336099.863020925433375, 6872713.321281761862338 ], [ 336618.16689955687616, 6872290.57327476143837 ], [ 336821.655290981638245, 6872296.820409861393273 ], [ 336961.520806053187698, 6872642.293386807665229 ], [ 337079.148307871771976, 6872694.81143357232213 ], [ 337416.159830641874578, 6872737.768425799906254 ], [ 337698.97638652625028, 6872376.978859351016581 ], [ 337775.586311933235265, 6872377.272960882633924 ], [ 337813.920302846934646, 6872549.732052627950907 ], [ 338055.08090454043122, 6872630.105119083076715 ], [ 338255.652087911847048, 6872213.676690168678761 ], [ 338313.012566454475746, 6872349.100412808358669 ], [ 338490.83312255423516, 6872374.008816823363304 ], [ 338506.737507280195132, 6872543.510992234572768 ], [ 338347.864456261217128, 6872815.174973485991359 ], [ 338436.759285058826208, 6873110.482662281021476 ], [ 339075.934051487711258, 6873367.425542793236673 ], [ 339505.21001073368825, 6873888.672014534473419 ], [ 339638.463643631548621, 6873827.081169094890356 ], [ 340251.795819510647561, 6873968.483491325750947 ], [ 340261.147461104032118, 6874511.215023170225322 ], [ 340331.737470089457929, 6874706.161782396957278 ], [ 340279.852329261484556, 6874854.178728180006146 ], [ 340394.854459132126067, 6875149.928991029970348 ], [ 341287.684648974682204, 6875777.937866762280464 ], [ 341462.22585254983278, 6875608.470328832045197 ], [ 341521.632003324455582, 6875402.644298573955894 ], [ 341620.322797132655978, 6875408.083234217017889 ], [ 341668.501305123558268, 6875538.477201581001282 ], [ 341531.059402722050436, 6875970.971356626600027 ], [ 341625.408904969342984, 6876127.204358323477209 ], [ 341781.942836530739442, 6876098.979782860726118 ], [ 341878.594320367381442, 6875907.7781723998487 ], [ 342215.445726288831793, 6875848.323039762675762 ], [ 342275.03693863179069, 6875941.806435410864651 ], [ 342189.574984668986872, 6876205.881371716037393 ], [ 342317.557956370001193, 6876506.64636255800724 ], [ 342592.654334884253331, 6876488.760749602690339 ], [ 342652.404441778897308, 6876366.140249419957399 ], [ 342776.863650427898392, 6876598.918711218982935 ], [ 342736.006269658799283, 6876714.30930962972343 ], [ 342557.498647869797423, 6876761.184138290584087 ], [ 342479.241424087551422, 6876883.946871208027005 ], [ 342496.201251867460087, 6877087.763470621779561 ], [ 342652.401888467604294, 6877379.820976668968797 ], [ 342412.540442812489346, 6877771.980119856074452 ], [ 342434.725674688175786, 6878031.221532185561955 ], [ 342272.884164948482066, 6878383.108746133744717 ], [ 342232.008537667570636, 6878971.287731810472906 ], [ 341936.372423285269178, 6879398.661162267439067 ], [ 341811.840505635016598, 6879750.374098256230354 ], [ 341256.135074741730932, 6879131.729993438348174 ], [ 339249.671225558849983, 6880522.673966119065881 ], [ 339578.604762354400009, 6880928.304285569116473 ], [ 339390.966039346880279, 6881716.86507678963244 ], [ 339853.843565228395164, 6882453.61237433925271 ], [ 339883.244095525471494, 6882685.317425461485982 ], [ 339888.407023705134634, 6882713.280970563180745 ], [ 339888.912292556429747, 6882739.253583876416087 ], [ 339885.126985182054341, 6882766.609220589511096 ], [ 339872.432216351851821, 6882791.927851092070341 ], [ 339847.123284167377278, 6882835.828125574626029 ], [ 339818.987720355566125, 6882868.630211198702455 ], [ 339836.151768789975904, 6882891.468894457444549 ], [ 339854.022197774029337, 6882909.252435736358166 ], [ 339864.291642650496215, 6882921.902405966073275 ], [ 339868.217623524018563, 6882930.843183405697346 ], [ 339866.1542583090486, 6882941.875576112419367 ], [ 339858.104669831693172, 6882954.035464266315103 ], [ 339845.187964133569039, 6882964.434321403503418 ], [ 339817.95528362877667, 6882976.81280080974102 ], [ 339791.309207914280705, 6882993.765017326921225 ], [ 339781.354471348808147, 6883005.178887911140919 ], [ 339778.581688557867892, 6883021.487984912469983 ], [ 339787.345840632449836, 6883035.07085007801652 ], [ 339801.303414065449033, 6883042.949671931564808 ], [ 339840.075738158193417, 6883042.994473750703037 ], [ 339859.668310857086908, 6883043.734410091303289 ], [ 339878.728748649475165, 6883052.645893320441246 ], [ 339896.415780933515634, 6883068.753457659855485 ], [ 339909.740994176303502, 6883091.540409304201603 ], [ 339925.383703594096005, 6883132.622094518505037 ], [ 339942.022823242703453, 6883163.14463571831584 ], [ 339943.217786821071059, 6883200.663148863241076 ], [ 339935.91224996233359, 6883237.114377051591873 ], [ 339936.885066041373648, 6883259.735310949385166 ], [ 339942.609877880779095, 6883278.075830860063434 ], [ 339955.178058083460201, 6883293.63796809501946 ], [ 339981.856231183628552, 6883306.497138282284141 ], [ 339995.762464707891922, 6883318.231647169217467 ], [ 340042.735765389923472, 6883374.639519768767059 ], [ 340111.059476044494659, 6883427.488166073337197 ], [ 340178.681104779650923, 6883469.754478322342038 ], [ 340221.939001157879829, 6883549.196066735312343 ], [ 340229.875621562299784, 6883593.066357268951833 ], [ 340249.804317554691806, 6883631.800100803375244 ], [ 340285.432562571775634, 6883660.648309657350183 ], [ 340329.529346180730499, 6883677.596716916188598 ], [ 340365.679720186395571, 6883682.890786431729794 ], [ 340400.221557490120176, 6883681.425189217552543 ], [ 340420.598270136979409, 6883671.358362909406424 ], [ 340442.341560344677418, 6883654.582876861095428 ], [ 340457.086615389969666, 6883651.41131370421499 ], [ 340471.325750187563244, 6883654.483348242007196 ], [ 340495.409991499094758, 6883669.722482483834028 ], [ 340526.177610529121011, 6883695.612395390868187 ], [ 340556.513149268226698, 6883721.50752056017518 ], [ 340578.248102895100601, 6883753.061343329027295 ], [ 340617.806478806305677, 6883854.571896739304066 ], [ 340662.409737524227239, 6883922.603795237839222 ], [ 340711.496145264361985, 6883971.235017083585262 ], [ 340750.870378898922354, 6884022.728429495356977 ], [ 340817.540539626439568, 6884072.669095518998802 ], [ 340852.987373667187057, 6884099.119247112423182 ], [ 340867.224728485860396, 6884117.816676618531346 ], [ 340883.009208684030455, 6884132.456485778093338 ], [ 340903.893004676268902, 6884132.247681168839335 ], [ 340921.481580422027037, 6884124.314878044649959 ], [ 340928.673151988536119, 6884112.386665930040181 ], [ 340935.509535410848912, 6884094.690956387668848 ], [ 340949.419032867066562, 6884074.673722255043685 ], [ 340967.623251309851184, 6884067.702144507318735 ], [ 340985.328162028454244, 6884066.497711766511202 ], [ 341004.86457751627313, 6884071.568057044409215 ], [ 341016.66748695273418, 6884081.344882374629378 ], [ 341020.504884860827588, 6884097.021994768641889 ], [ 341018.962079222663306, 6884116.960477899760008 ], [ 341013.116763729834929, 6884155.34885747730732 ], [ 341015.424235626182053, 6884190.000469247810543 ], [ 341021.673946614377201, 6884217.013612017966807 ], [ 341043.336171199916862, 6884237.981958083808422 ], [ 341066.387449379835743, 6884251.277731502428651 ], [ 341095.673375206533819, 6884260.323443163186312 ], [ 341116.419770283042453, 6884271.172461605630815 ], [ 341124.671020555426367, 6884290.997699204832315 ], [ 341124.382553613628261, 6884312.637397360056639 ], [ 341118.581229596107733, 6884332.275302083231509 ], [ 341105.123197586857714, 6884350.846977417357266 ], [ 341075.145428505493328, 6884361.994939239695668 ], [ 341028.158344968338497, 6884370.02351161558181 ], [ 340999.879485358484089, 6884381.182869214564562 ], [ 340984.412038810667582, 6884390.59587396774441 ], [ 340976.549984026176389, 6884404.920015612617135 ], [ 340979.700957860564813, 6884424.200772941112518 ], [ 340988.838549408887047, 6884441.633093621581793 ], [ 341011.209659077576362, 6884465.447972809895873 ], [ 341074.243261805968359, 6884493.739237851463258 ], [ 341126.448212526098359, 6884541.567805846221745 ], [ 341181.242529931012541, 6884587.491234555840492 ], [ 341233.778399565373547, 6884611.275327883660793 ], [ 341274.61618646531133, 6884616.628876809030771 ], [ 341300.889079858898185, 6884628.526345742866397 ], [ 341315.950162824126892, 6884649.638947958126664 ], [ 341329.500882157939486, 6884720.024986254051328 ], [ 341348.705657632206567, 6884750.102766841650009 ], [ 341370.604825264657848, 6884769.621798572130501 ], [ 341391.035255208378658, 6884771.821957735344768 ], [ 341413.276906356331892, 6884766.344062514603138 ], [ 341460.393095649080351, 6884748.696286917664111 ], [ 341485.293241581995972, 6884734.598439559340477 ], [ 341497.480722825974226, 6884715.53292672522366 ], [ 341514.262734767864458, 6884671.516020722687244 ], [ 341522.959498028503731, 6884658.643338805064559 ], [ 341534.145465377834626, 6884650.624490426853299 ], [ 341547.166952778818086, 6884649.345830535516143 ], [ 341559.705086055735592, 6884651.917328327894211 ], [ 341599.570732549065724, 6884666.876150999218225 ], [ 341663.45626629376784, 6884669.653237398713827 ], [ 341741.183847281965427, 6884658.173707790672779 ], [ 341821.018353328458034, 6884615.957564743235707 ], [ 341866.726202289923094, 6884605.160501050762832 ], [ 341913.182193494867533, 6884607.560954244807363 ], [ 341957.579842806444503, 6884611.119724345393479 ], [ 341999.491986482404172, 6884623.610840769484639 ], [ 342039.506281663430855, 6884659.249424711801112 ], [ 342072.565408253867645, 6884705.368077881634235 ], [ 342109.537547658430412, 6884745.288123974576592 ], [ 342155.273106073611416, 6884768.013782070949674 ], [ 342199.478136001038365, 6884777.265279258601367 ], [ 342222.80168072914239, 6884785.741545205935836 ], [ 342242.615637465321925, 6884801.873400472104549 ], [ 342260.622496404801495, 6884826.159920698963106 ], [ 342269.222532976069488, 6884853.203298272565007 ], [ 342270.38690970884636, 6884909.959216210991144 ], [ 342253.622055000858381, 6885017.455694800242782 ], [ 342257.108216811553575, 6885076.159534268081188 ], [ 342261.099920401466079, 6885096.658877233043313 ], [ 342270.243137923651375, 6885113.846325642429292 ], [ 342286.697568062925711, 6885126.331925353966653 ], [ 342303.219305411330424, 6885134.47419726382941 ], [ 342321.449435099260882, 6885141.929783992469311 ], [ 342338.888772900798358, 6885144.565242257900536 ], [ 342356.839342620922253, 6885140.480586288496852 ], [ 342374.837954697373789, 6885133.504105515778065 ], [ 342393.643044124997687, 6885129.419611692428589 ], [ 342412.384408368496224, 6885130.154968626797199 ], [ 342439.529519739211537, 6885140.133028151467443 ], [ 342464.886809982475825, 6885156.814243881031871 ], [ 342532.775265655189287, 6885198.803583923727274 ], [ 342559.674498915614095, 6885208.079933560453355 ], [ 342585.209842560288962, 6885211.298462905921042 ], [ 342611.704024523380212, 6885205.874468853697181 ], [ 342634.716153684013989, 6885194.120903018862009 ], [ 342747.250838403240778, 6885108.611264498904347 ], [ 342813.776966772624291, 6885072.939821174368262 ], [ 342861.885805220692419, 6885044.716258157044649 ], [ 342908.937212541350164, 6885031.871607828885317 ], [ 342940.646202786592767, 6885035.414549723267555 ], [ 342993.339063017512672, 6885047.656170569360256 ], [ 343042.487949380651116, 6885069.459061753004789 ], [ 343063.093956507160328, 6885074.783768358640373 ], [ 343083.350269983173348, 6885073.842458422295749 ], [ 343126.215293998946436, 6885055.168091564439237 ], [ 343137.523193968110718, 6885054.241922967135906 ], [ 343147.513441374583635, 6885056.412471938878298 ], [ 343152.30957401311025, 6885064.410342939198017 ], [ 343154.942994438286405, 6885074.784569637849927 ], [ 343157.878448817296885, 6885094.305484101176262 ], [ 343157.857336776331067, 6885112.335748595185578 ], [ 343142.704208454524633, 6885162.13872728869319 ], [ 343139.056012455723248, 6885180.365075736306608 ], [ 343143.109468134935014, 6885196.287943009287119 ], [ 343161.264202096848749, 6885209.514979919418693 ], [ 343182.909134912537411, 6885216.52652174141258 ], [ 343234.780199158820324, 6885226.35139256156981 ], [ 343307.864263023482636, 6885243.181663022376597 ], [ 343347.992924319813028, 6885238.41176482103765 ], [ 343367.62042776675662, 6885236.752443248406053 ], [ 343382.897346856247168, 6885241.762752581387758 ], [ 343388.322607265901752, 6885250.489111535251141 ], [ 343389.854590424336493, 6885263.97394279576838 ], [ 343388.230611144565046, 6885290.394414160400629 ], [ 343382.344227859983221, 6885316.76997647061944 ], [ 343366.268709118361585, 6885339.642736120149493 ], [ 343337.857505033141933, 6885360.901647614315152 ], [ 343303.566882378130686, 6885375.8440255895257 ], [ 343271.163725362392142, 6885408.597839937545359 ], [ 343242.253986023599282, 6885435.623746442608535 ], [ 343225.635549855651334, 6885467.631907895207405 ], [ 343223.353245669975877, 6885487.316900588572025 ], [ 343229.413825305178761, 6885496.284406010061502 ], [ 343239.49180663813604, 6885500.029661014676094 ], [ 343257.382648922968656, 6885500.497583821415901 ], [ 343290.966065450455062, 6885491.563583433628082 ], [ 343321.353682675282471, 6885481.39063507784158 ], [ 343350.767586086178198, 6885481.777107389643788 ], [ 343368.528853520518169, 6885492.106197279877961 ], [ 343381.094733020639978, 6885509.104910049587488 ], [ 343391.485388860921375, 6885529.432901402004063 ], [ 343395.854237418738194, 6885553.53835013974458 ], [ 343399.03057684446685, 6885636.285466145724058 ], [ 343406.91130088357022, 6885685.438144073821604 ], [ 343419.19614496617578, 6885723.112221253104508 ], [ 343438.559370227041654, 6885741.640769431367517 ], [ 343461.441531922551803, 6885752.513450262136757 ], [ 343505.578205970639829, 6885766.557451915927231 ], [ 343528.425351772049908, 6885779.357814413495362 ], [ 343545.197365408763289, 6885800.744586421176791 ], [ 343570.973248028778471, 6885850.131869353353977 ], [ 343595.917635879246518, 6885866.317457122728229 ], [ 343624.348315215902403, 6885875.832987425848842 ], [ 343679.662196326768026, 6885883.284986104816198 ], [ 343756.767504614195786, 6885918.926812155172229 ], [ 343913.87027615820989, 6885965.223526844754815 ], [ 344002.759017240547109, 6886012.543204069137573 ], [ 344081.135025462717749, 6886081.855519263073802 ], [ 344151.941903273807839, 6886208.772368512116373 ], [ 344223.117370535619557, 6886306.835968270897865 ], [ 344256.489956461940892, 6886363.04749458655715 ], [ 344270.451448784791864, 6886435.839041106402874 ], [ 344270.111406376468949, 6886494.990301884710789 ], [ 344280.115407123346813, 6886545.122872399166226 ], [ 344297.51501289755106, 6886583.339082090184093 ], [ 344323.571884231234435, 6886611.572549687698483 ], [ 344363.05141816905234, 6886689.983023134991527 ], [ 344373.911013752571307, 6886706.958243308588862 ], [ 344390.372970061027445, 6886719.196950983256102 ], [ 344426.765325236017816, 6886739.862995132803917 ], [ 344450.99863446271047, 6886744.512063456699252 ], [ 344464.509785823640414, 6886754.783918842673302 ], [ 344469.385228227474727, 6886772.645147456787527 ], [ 344474.019882582942955, 6886809.730470329523087 ], [ 344479.709730869391933, 6886831.436673762276769 ], [ 344483.446306477824692, 6886838.699754137545824 ], [ 344488.92327218875289, 6886843.580730855464935 ], [ 344500.221698139212094, 6886843.495287230238318 ], [ 344512.412336699897423, 6886840.529065564274788 ], [ 344555.621886717388406, 6886828.104095390997827 ], [ 344571.634152325219475, 6886826.628267800435424 ], [ 344587.135422152699903, 6886830.442945629358292 ], [ 344619.109024360193871, 6886846.485022118315101 ], [ 344667.323194140975829, 6886859.369563404470682 ], [ 344714.398356446472462, 6886878.256585531868041 ], [ 344738.344199670944363, 6886905.02090722694993 ], [ 344754.518993034551386, 6886939.374933810904622 ], [ 344781.698910148697905, 6887012.814130770042539 ], [ 344822.259602479287423, 6887106.629693126305938 ], [ 344859.752895780955441, 6887173.476035501807928 ], [ 344897.384039704105817, 6887229.7518400400877 ], [ 344939.591098052391317, 6887262.028059730306268 ], [ 344966.844017176190391, 6887297.489812338724732 ], [ 344994.998114836751483, 6887328.630158482119441 ], [ 345017.383682847896125, 6887344.790289653465152 ], [ 345040.216715540387668, 6887359.027928382158279 ], [ 345054.993474378541578, 6887370.279601838439703 ], [ 345065.748528084426653, 6887395.431197071447968 ], [ 345067.095526932855137, 6887423.341928521171212 ], [ 345066.351284760457929, 6887447.368990452960134 ], [ 345060.499159498431254, 6887471.340810132212937 ], [ 345064.83493139653001, 6887498.326218225061893 ], [ 345084.323823907179758, 6887540.890085311606526 ], [ 345100.47712801839225, 6887610.350794666446745 ], [ 345114.901308175176382, 6887648.039284612052143 ], [ 345120.732356171647552, 6887724.092693018727005 ], [ 345123.525072053424083, 6887739.034135452471673 ], [ 345133.197228496195748, 6887749.255297090858221 ], [ 345179.93167895427905, 6887761.409061415120959 ], [ 345203.210427564627025, 6887774.687977339141071 ], [ 345222.126243169244844, 6887795.612197561189532 ], [ 345267.726478787662927, 6887895.264826666563749 ], [ 345278.056632668012753, 6887919.923045351170003 ], [ 345283.907459406298585, 6887929.374199982732534 ], [ 345291.072624070802703, 6887935.961090156808496 ], [ 345306.844634491368197, 6887935.689012354239821 ], [ 345327.834200287237763, 6887927.782602448016405 ], [ 345396.682661914033815, 6887878.662010997533798 ], [ 345415.52169274922926, 6887872.179326804354787 ], [ 345434.649836461874656, 6887876.749025044962764 ], [ 345477.003679424407892, 6887897.976336102001369 ], [ 345516.604633669834584, 6887934.549540508538485 ], [ 345584.176304824650288, 6888016.698689345270395 ], [ 345637.319066425203346, 6888060.660958204418421 ], [ 345665.927602605836, 6888090.364714296534657 ], [ 345683.216307871858589, 6888105.016889959573746 ], [ 345702.344908219762146, 6888109.586136383935809 ], [ 345728.414908840844873, 6888104.637074453756213 ], [ 345754.549665448954329, 6888093.915128243155777 ], [ 345804.533191537950188, 6888053.203378533944488 ], [ 345885.240600832388736, 6888010.006924595683813 ], [ 345966.655611249618232, 6887977.40228683128953 ], [ 346087.516447447414976, 6887927.984921040944755 ], [ 346162.658004548808094, 6887919.334681765176356 ], [ 346219.99137301457813, 6887902.763705016113818 ], [ 346294.302725523535628, 6887892.184791870415211 ], [ 346389.037867699109484, 6887884.74960926361382 ], [ 346450.779781150980853, 6887857.651121953502297 ], [ 346539.752354598720558, 6887833.794886952266097 ], [ 346598.223701179667842, 6887795.106325167231262 ], [ 346671.998080111923628, 6887760.470608770847321 ], [ 346744.173990464652888, 6887717.159011555835605 ], [ 346775.794834571192041, 6887677.659345295280218 ], [ 346799.660795406904072, 6887661.376244518905878 ], [ 346834.456047286570538, 6887657.733701008372009 ], [ 346871.872671954450198, 6887664.940569430589676 ], [ 346947.388630503963213, 6887710.391836766153574 ], [ 347002.55188503646059, 6887730.337264110334218 ], [ 347030.684145840466954, 6887730.697909239679575 ], [ 347056.326660257764161, 6887725.252946987748146 ], [ 347065.698119342327118, 6887726.093369733542204 ], [ 347073.708828044414986, 6887732.689978761598468 ], [ 347088.38931364833843, 6887751.6285460582003 ], [ 347110.886559285398107, 6887792.310040596872568 ], [ 347131.088635667751078, 6887812.771002602763474 ], [ 347158.18187667534221, 6887827.535474762320518 ], [ 347206.602863185515162, 6887841.619926864281297 ], [ 347279.43046099646017, 6887880.06406681612134 ], [ 347315.123963621677831, 6887889.175673570483923 ], [ 347352.602891319082119, 6887891.58334942907095 ], [ 347394.514720996259712, 6887881.536232277750969 ], [ 347425.434819743502885, 6887863.657678195275366 ], [ 347486.602016777731478, 6887814.427353505045176 ], [ 347563.212375517119654, 6887756.750213569030166 ], [ 347602.034259796026163, 6887721.66239725984633 ], [ 347644.876000514370389, 6887704.88858942873776 ], [ 347692.017273758188821, 6887685.299326706677675 ], [ 347739.841184936929494, 6887679.182973048649728 ], [ 347763.228972894721664, 6887683.326742978766561 ], [ 347789.278567674919032, 6887679.813656751066446 ], [ 347808.095073904609308, 6887675.720670255832374 ], [ 347843.368972481810488, 6887650.682378991506994 ], [ 347866.903776212129742, 6887643.291683536022902 ], [ 347890.387074987986125, 6887640.709781043231487 ], [ 347910.774139788525645, 6887646.732161954045296 ], [ 347925.121576440986246, 6887657.974631687626243 ], [ 348077.388960018695798, 6887417.079188380390406 ], [ 348070.302717118873261, 6887471.333998581394553 ], [ 348073.549526202958077, 6887518.018535590730608 ], [ 348078.68540526664583, 6887549.822130357846618 ], [ 348087.768484466359951, 6887572.533507000654936 ], [ 348101.406027966062538, 6887606.362460368312895 ], [ 348119.757050080399495, 6887638.8218360748142 ], [ 348142.741024044808, 6887674.697910659015179 ], [ 348188.669952336116694, 6887717.115965249016881 ], [ 348223.81518009561114, 6887735.3492467161268 ], [ 348256.930388001259416, 6887746.353459572419524 ], [ 348334.341273925907444, 6887759.837762361392379 ], [ 348393.995825473219156, 6887762.036397477611899 ], [ 348440.140908574860077, 6887753.491175519302487 ], [ 348494.04672522621695, 6887738.783121303655207 ], [ 348529.239785628276877, 6887720.003040590323508 ], [ 348568.146435809088871, 6887677.211514146998525 ], [ 348639.47198802564526, 6887632.913982832804322 ], [ 348740.893763406784274, 6887568.806657189503312 ], [ 348827.303020889055915, 6887477.579722529277205 ], [ 348908.725125435565133, 6887376.670131465420127 ], [ 348950.269506284152158, 6887260.350339664146304 ], [ 349016.264203424099833, 6887165.007302540354431 ], [ 349130.197566432179883, 6887054.888827468268573 ], [ 349240.455532332242001, 6886964.92490341886878 ], [ 349345.592390497564338, 6886875.848401167429984 ], [ 349453.798276808694936, 6886812.785320580005646 ], [ 349489.987206370569766, 6886782.468050312250853 ], [ 349514.38808638456976, 6886740.454834844917059 ], [ 349535.986919512331951, 6886650.333768835291266 ], [ 349548.866435113246553, 6886575.473031911998987 ], [ 349590.31695051479619, 6886533.685805447399616 ], [ 349643.423975343757775, 6886513.200372475199401 ], [ 349716.732523313374259, 6886514.124230343848467 ], [ 349837.619071059627458, 6886527.182744664140046 ], [ 349942.995075376238674, 6886553.509160755202174 ], [ 350078.957568954210728, 6886587.920858146622777 ], [ 350228.225033364607953, 6886649.426496392115951 ], [ 350348.785271131433547, 6886689.404082456603646 ], [ 350564.346227181085851, 6886767.118176482617855 ], [ 350669.773753871908411, 6886789.593273090198636 ], [ 350756.114789910614491, 6886838.768124708905816 ], [ 350867.133513952489011, 6886959.406028660014272 ], [ 350934.101758426288143, 6887058.337608844041824 ], [ 350992.767938582983334, 6887104.74895248003304 ], [ 351097.486309165717103, 6887116.639324515126646 ], [ 351168.609381491318345, 6887155.991076475940645 ], [ 351199.221599055919796, 6887162.146433001384139 ], [ 351251.507515984936617, 6887139.715422797016799 ], [ 351283.462609201669693, 6887140.590294959023595 ], [ 351324.618013598024845, 6887156.007991960272193 ], [ 351391.742660719668493, 6887174.153744735755026 ], [ 351447.752144589496311, 6887195.05301736947149 ], [ 351505.616730704088695, 6887203.4639778342098 ], [ 351561.095118117867969, 6887198.380824977532029 ], [ 351581.74588765919907, 6887183.256476661190391 ], [ 351610.366693415271584, 6887144.184162453748286 ], [ 351636.943469249992631, 6887132.014645061455667 ], [ 351664.462910484406166, 6887137.254893123172224 ], [ 351684.200566602987237, 6887171.06641838978976 ], [ 351699.751825471990742, 6887223.188062658533454 ], [ 351744.906001772498712, 6887293.96216687373817 ], [ 351804.241494178655557, 6887321.616464490070939 ], [ 351870.417533444939181, 6887347.449345488101244 ], [ 351901.381988760491367, 6887352.986657604575157 ], [ 351934.469731322489679, 6887338.625563304871321 ], [ 351973.14754776970949, 6887313.141345096752048 ], [ 352016.727893859671894, 6887305.027232497930527 ], [ 352090.090457108803093, 6887301.127505905926228 ], [ 352153.927727420814335, 6887309.609309740364552 ], [ 352213.870934626669623, 6887322.375425888225436 ], [ 352290.246817199105863, 6887351.213467516936362 ], [ 352314.418245085282251, 6887361.120385931804776 ], [ 352337.637772001326084, 6887379.681248470209539 ], [ 352391.369696850015316, 6887446.70241813454777 ], [ 352417.048065611859784, 6887472.995201987214386 ], [ 352438.666035852394998, 6887482.870265238918364 ], [ 352462.102079398173373, 6887483.160066325217485 ], [ 352505.783544335514307, 6887466.878307208418846 ], [ 352538.177487423352432, 6887467.278686340898275 ], [ 352552.124176755431108, 6887477.069814523681998 ], [ 352564.698977373191155, 6887494.534563548862934 ], [ 352585.98447343026055, 6887531.33338413015008 ], [ 352600.282331026857719, 6887546.902268742211163 ], [ 352634.245071558281779, 6887557.904621353372931 ], [ 352676.358936334727332, 6887565.15113871358335 ], [ 352718.859513442148454, 6887575.294557590037584 ], [ 352764.46482738427585, 6887575.857362743467093 ], [ 352865.969649090548046, 6887572.300003982149065 ], [ 352900.822862218308728, 6887580.420283087529242 ], [ 352920.215012241911609, 6887597.968658829107881 ], [ 352929.336629959288985, 6887618.282697749324143 ], [ 352934.489335572288837, 6887650.560181249864399 ], [ 352944.468580462038517, 6887670.640979679301381 ], [ 353041.32441514916718, 6887767.035453314892948 ], [ 353061.766867926635314, 6887768.738858165219426 ], [ 353089.643991365388501, 6887754.65395244769752 ], [ 353110.08069705509115, 6887756.822628067806363 ], [ 353136.189644546888303, 6887782.631443480029702 ], [ 353142.646408691885881, 6887795.210843279026449 ], [ 353143.973772397032008, 6887808.691208401694894 ], [ 353138.132100428338163, 6887833.142693392932415 ], [ 353139.985446009319276, 6887855.771773625165224 ], [ 353160.031881776929367, 6887889.672979904338717 ], [ 353186.534037109289784, 6887917.891182644292712 ], [ 353204.673930823104456, 6887933.49544845148921 ], [ 353230.895761818857864, 6887950.174250594340265 ], [ 353268.683114283077884, 6887962.662326636724174 ], [ 353314.260266369557939, 6887965.627287317067385 ], [ 353332.084361964196432, 6887972.572816956788301 ], [ 353387.641991708194837, 6888029.992695297114551 ], [ 353436.180310556897894, 6888104.646448835730553 ], [ 353485.252536677639, 6888135.058154043741524 ], [ 353509.634271527815145, 6888163.249527922831476 ], [ 353512.440920648456085, 6888212.3306137714535 ], [ 353495.728636597865261, 6888323.671679543331265 ], [ 353498.346421646885574, 6888388.142615927383304 ], [ 353528.278423937619664, 6888450.0564777366817 ], [ 353570.344323182594962, 6888496.738009102642536 ], [ 353635.227798780077137, 6888559.080249354243279 ], [ 353671.6049139786046, 6888582.60892403870821 ], [ 353707.188955656427424, 6888592.298091191798449 ], [ 353735.009890698129311, 6888548.401802936568856 ], [ 353750.005645429599099, 6888507.229512167163193 ], [ 353758.362554082879797, 6888494.710110052488744 ], [ 353769.028887695865706, 6888485.343967572785914 ], [ 353779.441823628847487, 6888479.819980222731829 ], [ 353791.293792792013846, 6888477.926167592406273 ], [ 353798.71124614099972, 6888481.141991645097733 ], [ 353805.564331599976867, 6888487.121264355257154 ], [ 353817.435256261960603, 6888501.32902130484581 ], [ 353850.027178927906789, 6888555.58400141634047 ], [ 353886.359585722675547, 6888581.992631021887064 ], [ 353901.588653046928812, 6888591.553939999081194 ], [ 353909.56559891422512, 6888593.214051574468613 ], [ 353916.929470424773172, 6888591.985476892441511 ], [ 353922.212752507417463, 6888587.362675181590021 ], [ 353925.813373496872373, 6888580.547315775416791 ], [ 353931.746135081164539, 6888566.202940881252289 ], [ 353936.515348675544374, 6888524.905309902504086 ], [ 353954.137218071206007, 6888408.754565509036183 ], [ 354084.729998569120653, 6888192.113608454354107 ], [ 354492.804433206736576, 6888285.381267682649195 ], [ 354772.017294817545917, 6888023.404034258797765 ], [ 354716.675918221648317, 6887939.641964988783002 ], [ 354508.946128545503598, 6888113.693966621533036 ], [ 354477.287682168884203, 6887852.240460687316954 ], [ 354225.256296117499005, 6887718.436619689688087 ], [ 354568.574663646228146, 6887359.553377467207611 ], [ 354658.708642250276171, 6887152.099004577845335 ], [ 354019.182969291403424, 6886873.537424478679895 ], [ 353944.287588206352666, 6886739.000200277194381 ], [ 354030.33431889989879, 6886543.445841932669282 ], [ 354379.160339060006663, 6886281.687898953445256 ], [ 354567.604690165375359, 6885831.797169517725706 ], [ 354727.770126899355091, 6885761.454029089771211 ], [ 354897.116076715756208, 6885549.965311763808131 ], [ 354873.423516354174353, 6885444.392074079252779 ], [ 355039.967212970950641, 6885318.216826613992453 ], [ 355001.121046803891659, 6885000.094630239531398 ], [ 355081.894648651534226, 6884892.600509705021977 ], [ 354995.147123417933472, 6884780.675621036440134 ], [ 355126.286665666964836, 6884654.323745282366872 ], [ 355094.025511702580843, 6884539.449066824279726 ], [ 355432.108528026030399, 6884874.158157976344228 ], [ 355468.232386840798426, 6885051.533416372723877 ], [ 355737.423268673243001, 6884940.40056087076664 ], [ 355713.897390981670469, 6884823.827409606426954 ], [ 355878.744129008264281, 6884697.620764059945941 ], [ 355864.673655618738849, 6884421.201977478340268 ], [ 355593.97525254660286, 6884314.125400540418923 ], [ 355601.528522745880764, 6884028.748035219497979 ], [ 355853.596045699436218, 6883886.090099348686635 ], [ 356164.736595332273282, 6883364.446697123348713 ], [ 356466.511003612889908, 6883213.722276664339006 ], [ 356784.271833502920344, 6883362.967692487873137 ], [ 356881.324685090861749, 6883292.670143009163439 ], [ 356890.010780639480799, 6883103.415759675204754 ], [ 357095.405699886905495, 6882955.208006856963038 ], [ 357328.524996351392474, 6883057.158529754728079 ], [ 357333.846098697860725, 6882902.304742336273193 ], [ 357726.274357281858101, 6882838.925745908170938 ], [ 357750.099229699349962, 6882995.78974174708128 ], [ 358575.90857343794778, 6882563.866444066166878 ], [ 359183.722162415506318, 6882562.901506889611483 ], [ 360521.083721818169579, 6882596.967004155740142 ], [ 360734.209839777438901, 6882686.226865731179714 ], [ 360963.14709026447963, 6882738.578566875308752 ], [ 361057.242884988896549, 6882621.916820555925369 ], [ 361510.246994167566299, 6882620.322610354050994 ], [ 361826.445994207344484, 6882274.395817054435611 ], [ 361981.449552008823957, 6881935.492199407890439 ], [ 362376.039342934265733, 6881610.595109638758004 ], [ 362788.403941427357495, 6881101.19059384893626 ], [ 362970.956105755176395, 6881083.602374244481325 ], [ 363235.654942544177175, 6881247.123227505013347 ], [ 363535.500828240183182, 6881226.451952522620559 ], [ 364054.48426358011784, 6881407.759186692535877 ], [ 364258.932408226595726, 6881358.321468878537416 ], [ 364493.992918834672309, 6881514.90405529178679 ], [ 364734.297257759899367, 6881471.462185217998922 ], [ 365091.339885355439037, 6881407.010817622765899 ], [ 365736.146236138069071, 6880795.870708089321852 ], [ 366056.523074086697306, 6880717.414845481514931 ], [ 366362.263729611353483, 6880806.263926507905126 ], [ 367187.338747653644532, 6880568.926800092682242 ], [ 368881.443900524056517, 6879849.694328485056758 ], [ 369676.283010705024935, 6880288.374436457641423 ], [ 370949.011885277519468, 6880377.949222860857844 ], [ 372068.260400738217868, 6880886.029145626351237 ], [ 372209.887090524018276, 6880408.642859742976725 ], [ 372376.069202745216899, 6880159.614747953601182 ], [ 372619.441286231274717, 6879983.978682968765497 ], [ 373045.951233273139223, 6879856.167600657790899 ], [ 373368.479033125098795, 6879759.480022571049631 ], [ 373544.093106028158218, 6879521.285619210451841 ], [ 373585.796691286552232, 6878890.973482205532491 ], [ 373736.439530485949945, 6878405.423624889925122 ], [ 373619.962650665838737, 6877749.794888936914504 ], [ 373695.723017361364327, 6876968.359370689839125 ], [ 373486.068601710256189, 6876642.650519918650389 ], [ 373496.518298790906556, 6876503.643558505922556 ], [ 373814.752014726342168, 6876652.79378573410213 ], [ 374686.748694275447633, 6876844.98517631739378 ], [ 374729.000079723715317, 6876848.466734046116471 ], [ 374763.351769899250939, 6876842.590395573526621 ], [ 374798.578208937018644, 6876828.2021628851071 ], [ 374827.457840174436569, 6876807.021030986681581 ], [ 374852.830025274422951, 6876777.81375562120229 ], [ 374885.268221671460196, 6876728.081921826116741 ], [ 374935.415167641825974, 6876651.765581445768476 ], [ 374982.486388823250309, 6876579.505447166971862 ], [ 375025.736725366499741, 6876512.180165262892842 ], [ 375065.789918124210089, 6876452.078942283056676 ], [ 375091.055094784533139, 6876416.121976541355252 ], [ 375120.643532276153564, 6876369.373542533256114 ], [ 375155.618597801076248, 6876318.958551688119769 ], [ 375194.981365603744052, 6876260.002070026472211 ], [ 375219.738399273424875, 6876220.028332646936178 ], [ 375255.878134139522444, 6876160.483789023011923 ], [ 375289.811328224022873, 6876109.182135520502925 ], [ 375352.525382953928784, 6876017.760267574340105 ], [ 375397.054521898448002, 6875950.690969426184893 ], [ 375460.875674507464282, 6875852.731550372205675 ], [ 375477.597576780361123, 6875825.537700523622334 ], [ 375499.656625423580408, 6875792.826213128864765 ], [ 375540.449430488166399, 6875729.119026644155383 ], [ 375556.895335607288871, 6875703.883456062525511 ], [ 375578.051095839531627, 6875661.810328796505928 ], [ 375618.655576514080167, 6875570.089114697650075 ], [ 375659.981467284960672, 6875478.76315363869071 ], [ 375687.743746805004776, 6875417.622777684591711 ], [ 375696.329986992990598, 6875372.603425320237875 ], [ 375693.938293443294242, 6875318.914933521300554 ], [ 375676.548682161723264, 6875242.210118362680078 ], [ 375660.175994997611269, 6875177.117323440499604 ], [ 375644.536738249938935, 6875117.904905252158642 ], [ 375634.082914698286913, 6875068.586358712986112 ], [ 375632.930588163493667, 6875030.578808093443513 ], [ 375642.047172827180475, 6874993.011212952435017 ], [ 375652.15873024368193, 6874965.371195193380117 ], [ 375663.692426058289129, 6874946.222743025049567 ], [ 375687.397720991633832, 6874902.2813650239259 ], [ 375712.475971275358461, 6874864.958370962180197 ], [ 375732.853674475452863, 6874831.420037724077702 ], [ 375756.945844886824489, 6874787.970133137889206 ], [ 375784.388752870669123, 6874738.416569005697966 ], [ 375811.361092576989904, 6874688.802624139003456 ], [ 375849.33591952547431, 6874623.846194427460432 ], [ 375872.934235604188871, 6874591.892609415575862 ], [ 375896.459188693203032, 6874565.068545436486602 ], [ 375921.375259712454863, 6874544.07630492374301 ], [ 375966.038353492622264, 6874513.162627287209034 ], [ 375971.668922666867729, 6874494.517351672053337 ], [ 375816.144902681349777, 6874545.690924596972764 ], [ 375628.776121035218239, 6874610.302237285301089 ], [ 375636.289854454109445, 6874547.753172568045557 ], [ 375643.433110511628911, 6874518.696991814300418 ], [ 375646.142933629045729, 6874447.332817274145782 ], [ 375622.74171197717078, 6874352.724958207458258 ], [ 375598.538622635067441, 6874233.553912995383143 ], [ 375577.438153938332107, 6874167.591319467872381 ], [ 375600.060963548312429, 6874092.956471499055624 ], [ 375591.89721431164071, 6873986.2750886939466 ], [ 375563.414229878748301, 6873917.032744240947068 ], [ 375525.332034596707672, 6873844.431941789574921 ], [ 375489.873254076228477, 6873698.559961320832372 ], [ 375458.36518215329852, 6873597.029742281883955 ], [ 375416.010893396916799, 6873549.304062578827143 ], [ 375399.287631746148691, 6873499.320928473956883 ], [ 375347.58000900951447, 6873414.609229478053749 ], [ 375301.976287888013758, 6873364.377960826270282 ], [ 375287.690941583365202, 6873324.282035656273365 ], [ 375282.262646247632802, 6873267.602755112573504 ], [ 375245.777290276600979, 6873167.604003149084747 ], [ 375226.964988213148899, 6873118.618002418428659 ], [ 375211.997921655885875, 6873056.641518468037248 ], [ 375199.78412353945896, 6872983.823811624199152 ], [ 375170.705123619176447, 6872968.913611245341599 ], [ 375117.883681526232976, 6872964.324465898796916 ], [ 375050.868606665520929, 6873002.3681720495224 ], [ 374982.341074626252521, 6873008.859940983355045 ], [ 374943.063288394012488, 6872990.761289334855974 ], [ 374894.172871544666123, 6872987.387130238115788 ], [ 374860.841856433136854, 6872952.419587188400328 ], [ 374809.154994006850757, 6872908.183202864602208 ], [ 374764.135129424161278, 6872906.212251260876656 ], [ 374704.735874478763435, 6872903.956335419788957 ], [ 374662.073999757762067, 6872878.441231684759259 ], [ 374601.564781671913806, 6872841.977999558672309 ], [ 374569.900476765877102, 6872877.766444534063339 ], [ 374551.269671485177241, 6872915.853347815573215 ], [ 374515.996902175829746, 6872916.178477857261896 ], [ 374474.844043049495667, 6872872.317898968234658 ], [ 374452.195131242508069, 6872828.375940937548876 ], [ 374423.091066908324137, 6872751.98775518592447 ], [ 374420.08729769452475, 6872690.047986555844545 ], [ 374381.353255418245681, 6872636.516985293477774 ], [ 374319.660980282991659, 6872603.574431402608752 ], [ 374260.520073743886314, 6872588.188290856778622 ], [ 374217.007107126992196, 6872541.354213526472449 ], [ 374183.398700693564024, 6872528.221777787432075 ], [ 374128.272375240863767, 6872538.573747577145696 ], [ 374079.063724458217621, 6872506.205546665936708 ], [ 374026.347852709586732, 6872482.642319382168353 ], [ 373939.233999704068992, 6872463.998921405524015 ], [ 373909.990859338722657, 6872463.865459040738642 ], [ 373867.193949528213125, 6872472.574322855100036 ], [ 373800.886120262788609, 6872460.566828773356974 ], [ 373750.502379826735705, 6872429.026842643506825 ], [ 373720.739722081809305, 6872364.34198365919292 ], [ 373690.811005244846456, 6872287.643719385378063 ], [ 373674.86936867586337, 6872215.792546927928925 ], [ 373634.642723408527672, 6872158.253873464651406 ], [ 373623.327656414010562, 6872121.799514789134264 ], [ 373638.449388341745362, 6872048.6281100763008 ], [ 373687.659509809920564, 6872013.317027250304818 ], [ 373739.131740481534507, 6871988.490068938583136 ], [ 373766.071127988572698, 6871949.650622467510402 ] ] ] ] } }
]
}
