{
"type": "FeatureCollection",
"name": "Limite Plano Diretor",
"crs": { "type": "name", "properties": { "name": "urn:ogc:def:crs:EPSG::31982" } },
"features": [
{ "type": "Feature", "properties": { "Layer": "PERIMETRO", "PaperSpace": null, "SubClasses": "AcDbEntity:AcDbPolyline", "Linetype": "FENCELINE1", "EntityHand": "701F", "Text": null }, "geometry": { "type": "MultiPolygon", "coordinates": [ [ [ [ 362299.479873672884423, 6867800.612358015030622 ], [ 362252.161186923505738, 6867880.472069152630866 ], [ 362274.287714896607213, 6867978.342115391045809 ], [ 362306.281295545282774, 6868023.673437113873661 ], [ 362332.544796373113059, 6868079.50263980589807 ], [ 362342.89780096441973, 6868196.513432012870908 ], [ 362346.780272933421656, 6868244.621461232192814 ], [ 362365.416176483791787, 6868313.679778293706477 ], [ 362341.698636985907797, 6868419.41155428159982 ], [ 362389.391265493293758, 6868515.32362705282867 ], [ 362394.429277448973153, 6868591.272462236694992 ], [ 362442.255823001614772, 6868671.764099777676165 ], [ 362566.233948306413367, 6868852.584653124213219 ], [ 362579.366584449948277, 6868887.309222385287285 ], [ 362590.250904461659957, 6868922.802791102789342 ], [ 362598.842318861570675, 6868958.919953797012568 ], [ 362605.105631449725479, 6868995.512750325724483 ], [ 362609.015183493902441, 6869032.431272036395967 ], [ 362610.554958844732028, 6869069.524275882169604 ], [ 362609.718649549002293, 6869106.639804023317993 ], [ 362606.509681690891739, 6869143.625806344673038 ], [ 362600.941201356530655, 6869180.330763355828822 ], [ 362593.036020778992679, 6869216.604306916706264 ], [ 362582.826524883799721, 6869252.29783624690026 ], [ 362570.354538618994411, 6869287.265126691199839 ], [ 362570.354538618994411, 6869287.265126691199839 ], [ 362529.827177524392027, 6869358.502450586296618 ], [ 362420.893559664080385, 6869526.178684797137976 ], [ 362410.675568594539072, 6869539.138475723564625 ], [ 362399.62538946204586, 6869551.396414518356323 ], [ 362387.791104829753749, 6869562.899163302965462 ], [ 362375.22420913312817, 6869573.596670250408351 ], [ 362361.979384612699505, 6869583.442387379705906 ], [ 362348.114263375755399, 6869592.393473092466593 ], [ 362333.689176622137893, 6869600.410978596657515 ], [ 362318.766892125480808, 6869607.460017378441989 ], [ 362303.412341112212744, 6869613.509917008690536 ], [ 362287.692335726926103, 6869618.534352603368461 ], [ 362287.692335726926103, 6869618.534352603368461 ], [ 362240.308036767528392, 6869649.910508935339749 ], [ 362173.873971371096559, 6869712.300767056643963 ], [ 362154.263687558704987, 6869745.108736118301749 ], [ 362116.187040456628893, 6869835.447292557917535 ], [ 362118.937593067414127, 6869919.522249872796237 ], [ 362125.660912123217713, 6869973.269835270009935 ], [ 362125.575616436835844, 6870009.959116998128593 ], [ 362123.353788249660283, 6870046.581161568872631 ], [ 362119.002969424356706, 6870083.011657648719847 ], [ 362112.537928554462269, 6870119.126944101415575 ], [ 362103.980610833619721, 6870154.804429753683507 ], [ 362093.360063563915901, 6870189.923009519465268 ], [ 362093.360063563915901, 6870189.923009519465268 ], [ 361735.459840255673043, 6870417.330033526755869 ], [ 361369.115076665824745, 6870677.837632364593446 ], [ 361318.321988547104411, 6870701.021354991942644 ], [ 361230.146122204721905, 6870733.529714295640588 ], [ 361170.799640078505035, 6870745.119580004364252 ], [ 361107.743138516671024, 6870750.562737775035203 ], [ 361025.983244359726086, 6870750.562737775035203 ], [ 360985.332820755895227, 6870745.440483041107655 ], [ 360950.685996624699328, 6870739.01517079770565 ], [ 360918.397428095689975, 6870730.046527379192412 ], [ 360865.526796560210641, 6870709.742741183377802 ], [ 360629.675958156876732, 6870598.181648387573659 ], [ 360579.938320509449113, 6870578.26003566943109 ], [ 360529.054806716565508, 6870561.479949968867004 ], [ 360477.223622864577919, 6870547.906754599884152 ], [ 360424.646666490181815, 6870537.593321106396616 ], [ 360371.528740131005179, 6870530.579823311418295 ], [ 360318.0767535600462, 6870526.893580827862024 ], [ 360264.498917812015861, 6870526.548952643759549 ], [ 360211.003934140841011, 6870529.54728118609637 ], [ 360157.800181067490485, 6870535.876887092366815 ], [ 360157.800181067490485, 6870535.876887092366815 ], [ 359949.673196372110397, 6870573.381889594718814 ], [ 359995.568506910582073, 6870005.897253929637372 ], [ 360012.964169516577385, 6869805.217741632834077 ], [ 359725.950171663425863, 6869815.412447159178555 ], [ 359540.719429543416481, 6869959.55410442315042 ], [ 359531.867687962832861, 6869942.557160799391568 ], [ 359521.859996157058049, 6869926.214103365316987 ], [ 359510.744418047892395, 6869910.6034228913486 ], [ 359498.574338400561828, 6869895.80009276047349 ], [ 359485.408206432359293, 6869881.875208899378777 ], [ 359471.309255099215079, 6869868.895648318342865 ], [ 359471.309255099215079, 6869868.895648318342865 ], [ 359450.932997597672511, 6869820.474105591885746 ], [ 359433.70368830813095, 6869770.845599960535765 ], [ 359419.692246505408548, 6869720.214412255212665 ], [ 359419.692246505408548, 6869720.214412255212665 ], [ 359420.492705129319802, 6869611.851388175971806 ], [ 359420.492705129319802, 6869611.851388175971806 ], [ 359399.859182492771652, 6869607.636770811863244 ], [ 359378.995604280964471, 6869604.770351422950625 ], [ 359357.989966395020019, 6869603.264219649136066 ], [ 359336.930863898480311, 6869603.12472787220031 ], [ 359315.907117351423949, 6869604.352464423514903 ], [ 359295.007398193818517, 6869606.942251103930175 ], [ 359274.319854757923167, 6869610.883165021426976 ], [ 359274.319854757923167, 6869610.883165021426976 ], [ 359270.887525189202279, 6869611.392805396579206 ], [ 359267.496799074404407, 6869612.130095024593174 ], [ 359264.162757899845019, 6869613.091754542663693 ], [ 359260.900231024716049, 6869614.273506618104875 ], [ 359257.723729722492862, 6869615.670094982720912 ], [ 359254.647382636670955, 6869617.275307799689472 ], [ 359251.684872938436456, 6869619.082005302421749 ], [ 359248.849377465900034, 6869621.082151548936963 ], [ 359246.153508115268778, 6869623.266850161366165 ], [ 359243.609255744609982, 6869625.626383897848427 ], [ 359243.609255744609982, 6869625.626383897848427 ], [ 359239.056252741836943, 6869627.646680798381567 ], [ 359234.653699618938845, 6869629.9766940837726 ], [ 359230.422633613809012, 6869632.605289977043867 ], [ 359226.3832725273096, 6869635.519907948561013 ], [ 359222.554918114037719, 6869638.706620736978948 ], [ 359218.955863850656897, 6869642.150200896896422 ], [ 359215.603307521843817, 6869645.834193564020097 ], [ 359212.513269042188767, 6869649.740995082072914 ], [ 359209.700513906427659, 6869653.851937122642994 ], [ 359207.178482633607928, 6869658.147375885397196 ], [ 359207.178482633607928, 6869658.147375885397196 ], [ 359167.301089369691908, 6869631.986988005228341 ], [ 359132.676015282107983, 6869587.984605678357184 ], [ 359102.567188946704846, 6869569.932353657670319 ], [ 359027.671540586219635, 6869548.871408990584314 ], [ 359006.258224675897509, 6869525.54406648222357 ], [ 358966.51747793512186, 6869499.178228012286127 ], [ 358922.63734872097848, 6869496.953939369879663 ], [ 358918.620036435488146, 6869496.730021779425442 ], [ 358914.596764150657691, 6869496.777109022252262 ], [ 358910.585792891739402, 6869497.094987373799086 ], [ 358906.60532785160467, 6869497.682214034721255 ], [ 358902.673435759847052, 6869498.536123669706285 ], [ 358898.807962880819105, 6869499.652840512804687 ], [ 358895.026454012200702, 6869501.027295955456793 ], [ 358891.346072851563804, 6869502.653251551091671 ], [ 358887.783524093218148, 6869504.523327332921326 ], [ 358884.354977607843466, 6869506.629035309888422 ], [ 358881.075995050254278, 6869508.960817991755903 ], [ 358877.961459227313753, 6869511.508091768249869 ], [ 358877.961459227313753, 6869511.508091768249869 ], [ 358857.090098689950537, 6869512.319072636775672 ], [ 358836.274290628614835, 6869514.043461051769555 ], [ 358836.274290628614835, 6869514.043461051769555 ], [ 358834.475548572663683, 6869513.414333747699857 ], [ 358832.637707987450995, 6869512.910730599425733 ], [ 358830.769517066772096, 6869512.535048776306212 ], [ 358828.879868473333772, 6869512.289076539687812 ], [ 358826.977757009037305, 6869512.173984725959599 ], [ 358825.072236799634993, 6869512.190321178175509 ], [ 358823.172378196555655, 6869512.338008132763207 ], [ 358821.287224601954222, 6869512.616342594847083 ], [ 358819.425749421294313, 6869513.023999680764973 ], [ 358817.596813350042794, 6869513.559038927778602 ], [ 358815.809122196165845, 6869514.218913526274264 ], [ 358814.071185440174304, 6869515.000482448376715 ], [ 358812.391275729693007, 6869515.900025395676494 ], [ 358810.777389501337893, 6869516.913260506466031 ], [ 358809.237208917329554, 6869518.035364742390811 ], [ 358807.778065298043657, 6869519.260996842756867 ], [ 358806.406904224830214, 6869520.584322751499712 ], [ 358805.130252478586044, 6869521.999043383635581 ], [ 358803.954186971997842, 6869523.498424612917006 ], [ 358802.884305823477916, 6869525.075329327024519 ], [ 358802.884305823477916, 6869525.075329327024519 ], [ 358796.378840168996248, 6869523.209443814121187 ], [ 358789.7643366229604, 6869521.777328257448971 ], [ 358783.069684423564468, 6869520.785237506963313 ], [ 358776.324122863064986, 6869520.237504578195512 ], [ 358769.557113583374303, 6869520.136521726846695 ], [ 358762.798211900517344, 6869520.482730001211166 ], [ 358756.076937720179558, 6869521.274617317132652 ], [ 358749.422646607679781, 6869522.508725058287382 ], [ 358742.864401575759985, 6869524.179663186892867 ], [ 358736.430846150266007, 6869526.280133781023324 ], [ 358730.150079267681576, 6869528.800962909124792 ], [ 358724.049532551434822, 6869531.73114070110023 ], [ 358718.155850502720568, 6869535.057869429700077 ], [ 358712.494774128834251, 6869538.76661941036582 ], [ 358707.091028518101666, 6869542.8411924559623 ], [ 358707.091028518101666, 6869542.8411924559623 ], [ 358690.002454007393681, 6869545.755822508595884 ], [ 358673.137205096893013, 6869549.765538999810815 ], [ 358656.565382212225813, 6869554.853675537742674 ], [ 358640.355866153549869, 6869560.999083278700709 ], [ 358624.576031792152207, 6869568.176218826323748 ], [ 358609.291468026989605, 6869576.35525041166693 ], [ 358594.565705164219253, 6869585.502181878313422 ], [ 358594.565705164219253, 6869585.502181878313422 ], [ 358522.897798575111665, 6869647.64930263813585 ], [ 358508.053949459223077, 6869637.30159186758101 ], [ 358493.925689897674602, 6869625.996404715813696 ], [ 358480.574675204290543, 6869613.783076691441238 ], [ 358468.059168819047045, 6869600.714906402863562 ], [ 358456.433788047870621, 6869586.848922965116799 ], [ 358445.749265714432113, 6869572.245637126266956 ], [ 358436.052228763583116, 6869556.968777202069759 ], [ 358436.052228763583116, 6869556.968777202069759 ], [ 358273.803913767100312, 6869303.859035245142877 ], [ 358262.486113267659675, 6869273.050376038067043 ], [ 358253.318734782049432, 6869241.534899491816759 ], [ 358246.34538200480165, 6869209.462505734525621 ], [ 358241.599222972756252, 6869176.985743816010654 ], [ 358239.102832304080948, 6869144.25908612087369 ], [ 358239.102832304080948, 6869144.25908612087369 ], [ 358178.034049426205456, 6869052.691700261086226 ], [ 358039.092567408399191, 6868846.090703221037984 ], [ 357981.169613591628149, 6868788.885260388255119 ], [ 356955.729539832216688, 6869425.749110699631274 ], [ 356734.906549997220282, 6869628.818574580363929 ], [ 356948.351354652782902, 6869856.822311268188059 ], [ 357020.70108533691382, 6869944.283320038579404 ], [ 357030.72643528226763, 6869961.043600173667073 ], [ 357039.652437140583061, 6869978.414297412149608 ], [ 357047.442087682022247, 6869996.323400576598942 ], [ 357054.063094483397435, 6870014.696666498668492 ], [ 357059.488009798165876, 6870033.457927798852324 ], [ 357063.694344342569821, 6870052.529408638365567 ], [ 357066.664660526323132, 6870071.832047149538994 ], [ 357066.664660526323132, 6870071.832047149538994 ], [ 357135.734064860909712, 6870343.115029267035425 ], [ 357154.074415099632461, 6870409.318919029086828 ], [ 357176.288922992651351, 6870474.325373367406428 ], [ 357202.300189305504318, 6870537.907898413948715 ], [ 357232.017586232803296, 6870599.844961521215737 ], [ 357265.337573161290493, 6870659.920763119123876 ], [ 357265.337573161290493, 6870659.920763119123876 ], [ 356740.789954094623681, 6870804.608155029825866 ], [ 357093.298354447295424, 6871522.757044662721455 ], [ 356214.003881151671521, 6872150.630520533770323 ], [ 356280.313367093796842, 6872263.367695908993483 ], [ 356297.055961544509046, 6872353.201658140867949 ], [ 356354.553555692371447, 6872407.568994176574051 ], [ 356392.839682404126506, 6872424.399386517703533 ], [ 356367.110501523013227, 6872472.609672289341688 ], [ 356348.987178588984534, 6872530.003790262155235 ], [ 356291.328231866413262, 6872668.732332419604063 ], [ 356271.501475269789807, 6872731.549397570081055 ], [ 356349.486717874999158, 6872792.476391772739589 ], [ 356396.410041834111325, 6872819.493288826197386 ], [ 356374.380312288994901, 6872911.550863992422819 ], [ 356355.655042166705243, 6872995.047529379837215 ], [ 356366.449609632487409, 6873051.193755785934627 ], [ 356358.959501589590218, 6873116.567975801415741 ], [ 356320.62777217751136, 6873160.817873042076826 ], [ 356215.325664932723157, 6873230.972860883921385 ], [ 356178.536016578727867, 6873319.806197296828032 ], [ 356336.346581617021002, 6873392.086082179099321 ], [ 356229.335436015797313, 6873445.442378900945187 ], [ 356229.335436015797313, 6873445.442378900945187 ], [ 356159.099292827304453, 6873487.353528000414371 ], [ 355934.320016039418988, 6873688.682387123815715 ], [ 355934.320016039418988, 6873688.682387123815715 ], [ 355848.873024668486323, 6873776.9135822346434 ], [ 355747.432381240883842, 6873902.477666789665818 ], [ 355671.280925918021239, 6874007.222329310141504 ], [ 355605.180513927189168, 6874117.358183120377362 ], [ 355367.640289709088393, 6874506.867847267538309 ], [ 355101.643689206219278, 6875130.934381948783994 ], [ 354912.521119381359313, 6875211.346534812822938 ], [ 354729.391555145208258, 6875304.604367985390127 ], [ 354553.126243764185347, 6875410.264203066006303 ], [ 354553.126243764185347, 6875410.264203066006303 ], [ 354445.751561489596497, 6875492.157146543264389 ], [ 354344.332640272041317, 6875581.319801303558052 ], [ 354249.36067378136795, 6875677.320333415642381 ], [ 354161.29563169751782, 6875779.693791634403169 ], [ 354080.564031978545245, 6875887.944359262473881 ], [ 354007.556875142094214, 6876001.547755494713783 ], [ 354007.556875142094214, 6876001.547755494713783 ], [ 353929.38014471612405, 6876150.890704010613263 ], [ 353900.101123127504252, 6876219.20000671222806 ], [ 353616.39748210599646, 6876881.093637047335505 ], [ 354338.604361538076773, 6876972.980625618249178 ], [ 354730.891160970379133, 6877022.915144428610802 ], [ 354892.478699722792953, 6877073.370791501365602 ], [ 356152.826157844508998, 6877796.452695474028587 ], [ 356188.865663164528087, 6877818.780875471420586 ], [ 356226.343685776577331, 6877838.599840802140534 ], [ 356265.085794193786569, 6877855.817349364981055 ], [ 356304.911673578026239, 6877870.353266844525933 ], [ 356345.635964967368636, 6877882.139939679764211 ], [ 356387.069127980270423, 6877891.122509938664734 ], [ 356429.018322980788071, 6877897.259170635603368 ], [ 356471.288308599265292, 6877900.521360316313803 ], [ 356513.682350431510713, 6877900.893895987421274 ], [ 356556.003136686689686, 6877898.37504378054291 ], [ 356598.053696522605605, 6877892.976527022197843 ], [ 356639.638316793949343, 6877884.723471673205495 ], [ 356680.563452947186306, 6877873.654289384372532 ], [ 356720.638629822409712, 6877859.820498720742762 ], [ 356720.638629822409712, 6877859.820498720742762 ], [ 357123.445157140027732, 6877709.232223140075803 ], [ 357935.56137852818938, 6877471.537975849583745 ], [ 357990.8035124076996, 6877489.926524623297155 ], [ 357979.778050427616108, 6877363.140003476291895 ], [ 358170.909438959672116, 6877275.922996329143643 ], [ 359028.301831270509865, 6877711.886449825018644 ], [ 359080.07169571047416, 6877562.682022462598979 ], [ 359203.658478493685834, 6877553.303623201325536 ], [ 359284.739344482193701, 6877562.112278116866946 ], [ 359280.762531931395642, 6877468.289653728716075 ], [ 359290.896207506710198, 6877361.333871971815825 ], [ 359252.564478094573133, 6877255.489896667189896 ], [ 359294.86155882012099, 6877179.775876503437757 ], [ 359323.279909963719547, 6877150.535366515628994 ], [ 359360.5101529014064, 6877127.298611442558467 ], [ 359374.609179790015332, 6877061.47966880723834 ], [ 359386.725531066709664, 6876997.884339106269181 ], [ 359410.958233560377266, 6876950.52138377353549 ], [ 359332.091801757807843, 6876926.617544811218977 ], [ 359269.967964435811155, 6876891.706821870058775 ], [ 359267.985288764291909, 6876856.907279562205076 ], [ 359301.690775002294686, 6876830.220287838950753 ], [ 359324.601693714910652, 6876816.876791979186237 ], [ 359333.413585538917687, 6876744.058923552744091 ], [ 359287.812045360798948, 6876654.669683913700283 ], [ 359298.606612856383435, 6876626.985702971927822 ], [ 359391.79236885427963, 6876607.973812443204224 ], [ 359422.41369291668525, 6876561.055579704232514 ], [ 359528.59698935871711, 6876493.45774672459811 ], [ 359666.503096337371971, 6876331.903055772185326 ], [ 359759.027960474486463, 6876227.624821346253157 ], [ 359793.61463585018646, 6876185.820898335427046 ], [ 359819.030852382420562, 6876161.421533478423953 ], [ 359822.345073580159806, 6876156.404277610592544 ], [ 359825.940591215505265, 6876151.584612526930869 ], [ 359829.805654242401943, 6876146.978290091268718 ], [ 359833.927630673453677, 6876142.600364910438657 ], [ 359838.29304886457976, 6876138.465145133435726 ], [ 359838.29304886457976, 6876138.465145133435726 ], [ 359847.206893681955989, 6876130.802068108692765 ], [ 359856.414907115511596, 6876123.495094211772084 ], [ 359856.414907115511596, 6876123.495094211772084 ], [ 359909.491013283724897, 6876125.005084794014692 ], [ 360023.080204698606394, 6876098.099368374794722 ], [ 360141.464065457694232, 6876075.752058487385511 ], [ 360240.377551163488533, 6876054.961277615278959 ], [ 360332.241523380274884, 6876037.505916129797697 ], [ 360384.45198240398895, 6875928.437702100723982 ], [ 360431.190101545886137, 6875896.232127346098423 ], [ 360486.0090356420842, 6875878.184049945324659 ], [ 360549.519952724105678, 6875861.971086313948035 ], [ 360550.63110897684237, 6875859.894755964167416 ], [ 360551.87250019935891, 6875857.893565375357866 ], [ 360553.239065947302151, 6875855.975672261789441 ], [ 360554.725235510792118, 6875854.148894779384136 ], [ 360556.324950623500627, 6875852.420679660513997 ], [ 360558.031690158590209, 6875850.798071852885187 ], [ 360559.838496711628977, 6875849.287685802206397 ], [ 360561.738004961865954, 6875847.895678494125605 ], [ 360563.722471696848515, 6875846.627724347636104 ], [ 360565.783807376399636, 6875845.488992089405656 ], [ 360565.783807376399636, 6875845.488992089405656 ], [ 360607.257632123713847, 6875824.276774601079524 ], [ 360682.073628659301903, 6875840.271449548192322 ], [ 361385.482893194013741, 6875946.33778614923358 ], [ 361858.681483949476387, 6876031.390980581752956 ], [ 362131.409535790677182, 6876181.596033764071763 ], [ 362202.802177918434609, 6876232.701157800853252 ], [ 362277.136636139126495, 6876279.424079090356827 ], [ 362354.144275876111351, 6876321.595947379246354 ], [ 362433.546802040189505, 6876359.064359296113253 ], [ 362515.057264749717433, 6876391.693909119814634 ], [ 362598.381096328608692, 6876419.366678114049137 ], [ 362598.381096328608692, 6876419.366678114049137 ], [ 362647.837860788102262, 6876911.911980981938541 ], [ 362738.508595670515206, 6877456.041420216672122 ], [ 362747.759453592123464, 6877470.516075321473181 ], [ 362757.962889752932824, 6877484.335767909884453 ], [ 362769.072696233692113, 6877497.437913254834712 ], [ 362781.038560469984077, 6877509.763176164589822 ], [ 362793.806293100700714, 6877521.255739680491388 ], [ 362807.318073373346124, 6877531.863557861186564 ], [ 362821.512710994808003, 6877541.538591478951275 ], [ 362836.325923241325654, 6877550.237025570124388 ], [ 362851.690626073512249, 6877557.919467862695456 ], [ 362867.537237937271129, 6877564.551127168349922 ], [ 362883.793994875042699, 6877570.101970938965678 ], [ 362900.387275520595722, 6877574.546861276961863 ], [ 362917.241934505524114, 6877577.865668774582446 ], [ 362934.281642767018639, 6877580.043363670818508 ], [ 362951.429233216622379, 6877581.070083922706544 ], [ 362968.607050203776453, 6877580.941179858520627 ], [ 362985.737301192129962, 6877579.657235243357718 ], [ 363002.742409055819735, 6877577.224064626730978 ], [ 363019.545363399782218, 6877573.652687019668519 ], [ 363019.545363399782218, 6877573.652687019668519 ], [ 363095.364956783712842, 6877601.419918484054506 ], [ 363293.857504960789811, 6877806.34088069666177 ], [ 363368.813348715077154, 6877840.461266205646098 ], [ 363516.32379767060047, 6877860.179879029281437 ], [ 363572.858493087987881, 6877880.100691785104573 ], [ 363633.929685815994162, 6877930.805688262917101 ], [ 363685.712857479113154, 6878070.030536058358848 ], [ 363685.923872288491111, 6878081.530352056957781 ], [ 363686.923250620020553, 6878092.988604025915265 ], [ 363688.706284213170875, 6878104.351309973746538 ], [ 363691.264572859450709, 6878115.56493804231286 ], [ 363694.586063976923469, 6878126.576658707112074 ], [ 363698.655109392420854, 6878137.334593669511378 ], [ 363703.452539063233417, 6878147.78806026186794 ], [ 363708.955751390371006, 6878157.887810225598514 ], [ 363715.138819699292071, 6878167.586261727847159 ], [ 363721.972614385304041, 6878176.837723527103662 ], [ 363729.424940148659516, 6878185.598610238172114 ], [ 363737.460687672661152, 6878193.827647665515542 ], [ 363746.041999030217994, 6878201.486067256890237 ], [ 363755.128446039860137, 6878208.537788747809827 ], [ 363764.677220730518457, 6878214.94959014467895 ], [ 363774.643337017856538, 6878220.691264238208532 ], [ 363784.979842642438598, 6878225.735760915093124 ], [ 363795.638040370482486, 6878230.05931459646672 ], [ 363806.567717415804509, 6878233.641556203365326 ], [ 363817.717382001923397, 6878236.4656091183424 ], [ 363829.034505949239247, 6878238.518168692477047 ], [ 363840.465772145660594, 6878239.789564930833876 ], [ 363851.957325733150356, 6878240.273808043450117 ], [ 363863.455027828516904, 6878239.968616670928895 ], [ 363863.455027828516904, 6878239.968616670928895 ], [ 363860.120794984220993, 6878230.142201305367053 ], [ 363851.506894192891195, 6878219.492077662609518 ], [ 363843.591638439451344, 6878208.312938750721514 ], [ 363836.407425510522444, 6878196.650541696697474 ], [ 363829.983660975180101, 6878184.552621643058956 ], [ 363824.346637825132348, 6878172.068696360103786 ], [ 363819.519428855506703, 6878159.249863573350012 ], [ 363815.521792226063553, 6878146.148591809906065 ], [ 363812.370090589276515, 6878132.818505642004311 ], [ 363810.077224116830621, 6878119.314166199415922 ], [ 363808.652577697997913, 6878105.690847842954099 ], [ 363808.652577697997913, 6878105.690847842954099 ], [ 363903.025825998978689, 6877896.310474178753793 ], [ 364017.926019958220422, 6877664.11656214017421 ], [ 364098.956645298574585, 6877478.680713528767228 ], [ 364191.591102758888155, 6877298.760527100414038 ], [ 364295.456000350066461, 6877125.081227120012045 ], [ 364410.132678301713895, 6876958.342882017605007 ], [ 364410.132678301713895, 6876958.342882017605007 ], [ 365673.221844594401773, 6877732.676496656611562 ], [ 365761.182116095500533, 6877715.147546260617673 ], [ 365852.023423140286468, 6877672.57728967256844 ], [ 365942.864730185305234, 6877530.467743190936744 ], [ 365922.03030577179743, 6877444.275840302929282 ], [ 365975.812146030482836, 6877378.421355820260942 ], [ 366038.897771161224227, 6877373.808293608017266 ], [ 366116.444724406988826, 6877275.303148357197642 ], [ 366316.813280822010711, 6877179.134562582708895 ], [ 366857.22711902379524, 6875591.78270501922816 ], [ 366999.283913443912752, 6874079.966476763598621 ], [ 366436.072143680998124, 6873700.881500463932753 ], [ 366448.074808490928262, 6873682.293451520614326 ], [ 366446.27615777059691, 6873651.292289474979043 ], [ 366430.08811079262523, 6873601.703078485094011 ], [ 366389.592181319312658, 6873562.983477825298905 ], [ 366352.074826582800597, 6873535.446945942007005 ], [ 366316.06733263930073, 6873505.334734726697206 ], [ 366306.987975444528274, 6873462.831266830675304 ], [ 366322.179735272715334, 6873403.916844272986054 ], [ 366386.818007368827239, 6873335.278369382023811 ], [ 366453.622534836526029, 6873284.400826278142631 ], [ 366475.43403468868928, 6873248.144534485414624 ], [ 366502.173772203794215, 6873198.260804574936628 ], [ 366517.882915569120087, 6873133.598091810010374 ], [ 366516.206562430015765, 6873102.631116330623627 ], [ 366512.344473391072825, 6873079.404418095014989 ], [ 366525.913599578605499, 6873048.112284053117037 ], [ 366543.067073568876367, 6873043.411724553443491 ], [ 366552.854308975685854, 6872978.979074145667255 ], [ 366564.709554573171772, 6872940.955140526406467 ], [ 366555.41265245951945, 6872924.312104570679367 ], [ 366590.335516555584036, 6872878.147158605977893 ], [ 366318.753654701518826, 6872553.283072726801038 ], [ 366235.483290225791279, 6872434.946373924612999 ], [ 366167.147754494799301, 6872220.5360515601933 ], [ 366132.185400159214623, 6872069.040305533446372 ], [ 366111.536375591123942, 6871950.825726087205112 ], [ 366179.31763559137471, 6871789.002948423847556 ], [ 366217.262987140682526, 6871646.990410193800926 ], [ 366242.387441949278582, 6871512.812876601703465 ], [ 366563.42664948158199, 6871573.131010992452502 ], [ 366651.672303727013059, 6871568.721421337686479 ], [ 366774.113263733685017, 6871562.107050727121532 ], [ 366876.956146412529051, 6871536.43423383962363 ], [ 366975.621513811289333, 6871478.982350757345557 ], [ 367062.537432865006849, 6871448.168040935881436 ], [ 367131.199466913880315, 6871430.788833335973322 ], [ 367190.400885987502988, 6871386.30016016215086 ], [ 367260.937309712579008, 6871334.605108042247593 ], [ 367382.952998861786909, 6871241.626705225557089 ], [ 367442.621517812425736, 6871174.292380219325423 ], [ 367490.142087044427171, 6871123.862013912759721 ], [ 367538.831560251826886, 6871116.614828808233142 ], [ 367596.122207874606829, 6871088.495242519304156 ], [ 367633.102681985183153, 6871062.778604516759515 ], [ 367671.117345483798999, 6871027.312753087840974 ], [ 367719.124747336492874, 6870984.521571783348918 ], [ 367741.182217097375542, 6870946.268834390677512 ], [ 367754.157183143193834, 6870906.071049609221518 ], [ 367912.915076135483105, 6870836.210210236720741 ], [ 367945.794995091215242, 6870810.950724576599896 ], [ 367980.6166596832918, 6870772.508390880189836 ], [ 367983.049657671072055, 6870717.226703913882375 ], [ 367951.520503039821051, 6870661.149076177738607 ], [ 368057.618295217223931, 6870450.62831318564713 ], [ 367566.825479538179934, 6870050.510922339744866 ], [ 367770.473222143424209, 6869996.483576335012913 ], [ 367818.045929274696391, 6869983.586844039149582 ], [ 367864.682876854203641, 6869967.634311694651842 ], [ 367910.188003315299284, 6869948.693043693900108 ], [ 367954.370005263481289, 6869926.842669061385095 ], [ 367997.043141715112142, 6869902.175046697258949 ], [ 368038.028014951851219, 6869874.793879199773073 ], [ 368077.152324708178639, 6869844.814276904799044 ], [ 368114.251592520682607, 6869812.362273953855038 ], [ 368114.251592520682607, 6869812.362273953855038 ], [ 368374.971113810199313, 6869582.592077692039311 ], [ 368176.073135263402946, 6869357.107215847820044 ], [ 368176.073135263402946, 6869357.107215847820044 ], [ 368117.380881646007765, 6869290.521176256239414 ], [ 368103.312862967839465, 6869272.914853642694652 ], [ 368090.368767108477186, 6869254.466489815153182 ], [ 368078.598858343728352, 6869235.247723122127354 ], [ 368068.048841367242858, 6869215.333183526992798 ], [ 368058.759683811455034, 6869194.800202802754939 ], [ 368050.76745716255391, 6869173.728514243848622 ], [ 368044.103196688462049, 6869152.199943045154214 ], [ 368038.792780923016835, 6869130.298088559880853 ], [ 368038.792780923016835, 6869130.298088559880853 ], [ 368018.559925258508883, 6869096.962864694185555 ], [ 367708.68948479561368, 6869370.028349120169878 ], [ 367701.03998012089869, 6869377.063681057654321 ], [ 367692.964573533157818, 6869383.605746914632618 ], [ 367684.495017929351889, 6869389.628822965547442 ], [ 367675.664616020338144, 6869395.109226177446544 ], [ 367666.508089382317849, 6869400.025407334789634 ], [ 367657.061441930185538, 6869404.358035769313574 ], [ 367647.361818348115776, 6869408.090075373649597 ], [ 367637.44735803490039, 6869411.206851582974195 ], [ 367627.357045138196554, 6869413.696109079755843 ], [ 367627.357045138196554, 6869413.696109079755843 ], [ 366539.832852161489427, 6869711.67479731887579 ], [ 366515.260023946815636, 6869712.429844886995852 ], [ 366490.688388198672328, 6869711.636938865296543 ], [ 366466.215360865928233, 6869709.299222785048187 ], [ 366441.937966957630124, 6869705.425964684225619 ], [ 366417.952455880586058, 6869700.032520360313356 ], [ 366417.952455880586058, 6869700.032520360313356 ], [ 366230.852767702774145, 6869628.02082847058773 ], [ 366165.741337354003917, 6869604.804194560274482 ], [ 366099.237350422481541, 6869585.943384015001357 ], [ 366031.631851308455225, 6869571.520938253961504 ], [ 365963.220705010113306, 6869561.599974876269698 ], [ 365894.303302315645851, 6869556.223911442793906 ], [ 365825.181249566085171, 6869555.416275462135673 ], [ 365756.157048721623141, 6869559.180601428262889 ], [ 365687.532773508690298, 6869567.500415350310504 ], [ 365687.532773508690298, 6869567.500415350310504 ], [ 365432.39476188091794, 6869615.349995179101825 ], [ 365420.811505999707151, 6869616.901808444410563 ], [ 365409.150055250327569, 6869617.670253394171596 ], [ 365397.463327638397459, 6869617.651842935010791 ], [ 365385.804355872154702, 6869616.846660610288382 ], [ 365374.226046707946807, 6869615.258360223844647 ], [ 365362.780940866447054, 6869612.894149256870151 ], [ 365351.520974610815756, 6869609.764756161719561 ], [ 365340.497244067082647, 6869605.884381679818034 ], [ 365340.497244067082647, 6869605.884381679818034 ], [ 365187.90932753670495, 6869567.309119174256921 ], [ 365131.439337571442593, 6869550.787996656261384 ], [ 365073.98873624013504, 6869538.090136105194688 ], [ 365015.816064492973965, 6869529.272680819034576 ], [ 364957.183112763625104, 6869524.375311381183565 ], [ 364898.353742851584684, 6869523.420067082159221 ], [ 364839.592700483684894, 6869526.411246741190553 ], [ 364781.164423896931112, 6869533.335389359854162 ], [ 364723.331853805517312, 6869544.161334701813757 ], [ 364723.331853805517312, 6869544.161334701813757 ], [ 364335.838646184187382, 6869657.229815213941038 ], [ 364294.798129318514839, 6869574.746040536090732 ], [ 364280.776041489676572, 6869541.041252925992012 ], [ 364269.531860483984929, 6869527.350409289821982 ], [ 364259.235391487542074, 6869512.933282940648496 ], [ 364249.933402487367857, 6869497.855358460918069 ], [ 364241.668144404538907, 6869482.18512187153101 ], [ 364234.477159184985794, 6869465.993749553337693 ], [ 364234.477159184985794, 6869465.993749553337693 ], [ 364198.386706759571098, 6869324.368138720281422 ], [ 364192.463526068488136, 6869309.182298366911709 ], [ 364185.534155215951614, 6869294.428395956754684 ], [ 364177.629864179121796, 6869280.173011011444032 ], [ 364168.786322430241853, 6869266.480473405681551 ], [ 364159.043437971966341, 6869253.412573070265353 ], [ 364148.445177245419472, 6869241.028281152248383 ], [ 364137.039366724318825, 6869229.383483897894621 ], [ 364124.877477089816239, 6869218.530730457045138 ], [ 364124.877477089816239, 6869218.530730457045138 ], [ 364117.253401595284231, 6869208.174650138244033 ], [ 364111.843082590494305, 6869175.037638370878994 ], [ 364109.227299415506423, 6869156.039206931367517 ], [ 364109.079040165815968, 6869145.439180818386376 ], [ 364117.186867165612057, 6869100.94753841124475 ], [ 364120.730748860980384, 6869091.77456468064338 ], [ 364123.63950180093525, 6869082.380859294906259 ], [ 364125.899526765570045, 6869072.810340411029756 ], [ 364127.500257516279817, 6869063.107752839103341 ], [ 364128.434210196544882, 6869053.318458843976259 ], [ 364128.697018320614006, 6869043.488226068206131 ], [ 364128.287453188269865, 6869033.663013554178178 ], [ 364127.207429629052058, 6869023.888756874017417 ], [ 364125.461997050326318, 6869014.211153366602957 ], [ 364123.059315829537809, 6869004.675448490306735 ], [ 364120.01061916234903, 6868995.326224288903177 ], [ 364116.330160544486716, 6868986.207190956920385 ], [ 364112.035147132410202, 6868977.360982485115528 ], [ 364107.145659295434598, 6868968.828957331366837 ], [ 364101.684556734282523, 6868960.651005059480667 ], [ 364095.67737160611432, 6868952.865359847433865 ], [ 364095.67737160611432, 6868952.865359847433865 ], [ 364075.814923573518172, 6868945.344385246746242 ], [ 364056.49411387485452, 6868936.524622587487102 ], [ 364037.799759706482291, 6868926.444790097884834 ], [ 364019.813928162795492, 6868915.149137639440596 ], [ 364002.615575966192409, 6868902.687252447940409 ], [ 363986.280202851979993, 6868889.11384145449847 ], [ 363970.879520129004959, 6868874.488491118885577 ], [ 363956.481135871319566, 6868858.875405851751566 ], [ 363943.148258122906554, 6868842.343126161955297 ], [ 363943.148258122906554, 6868842.343126161955297 ], [ 363936.002795700973365, 6868823.521706519648433 ], [ 363930.022491639421787, 6868804.298298032023013 ], [ 363925.229761764931027, 6868784.744955327361822 ], [ 363921.642570549040101, 6868764.934969720430672 ], [ 363919.274363772477955, 6868744.942594493739307 ], [ 363918.134018126467708, 6868724.842766574583948 ], [ 363918.225807940529194, 6868704.710825654678047 ], [ 363919.549389161227737, 6868684.62223179358989 ], [ 363919.549389161227737, 6868684.62223179358989 ], [ 363921.025411455018912, 6868670.530127042904496 ], [ 363921.522036148759071, 6868656.369638985022902 ], [ 363921.036878902523313, 6868642.208753400482237 ], [ 363919.572268999938387, 6868628.115457974374294 ], [ 363917.135238165210467, 6868614.157415890134871 ], [ 363913.737486802914646, 6868600.401640965603292 ], [ 363909.395327823527623, 6868586.914175913669169 ], [ 363904.129608323506545, 6868573.759775271639228 ], [ 363897.965609496925026, 6868561.001594500616193 ], [ 363897.965609496925026, 6868561.001594500616193 ], [ 363856.97657050890848, 6868522.86624411214143 ], [ 363818.594323175260797, 6868482.108308001421392 ], [ 363782.986303575453348, 6868438.905585788190365 ], [ 363750.307845688366797, 6868393.44654206186533 ], [ 363720.701503773976583, 6868345.92948423139751 ], [ 363720.701503773976583, 6868345.92948423139751 ], [ 363710.941571016097441, 6868217.416537802666426 ], [ 363741.100485677307006, 6868109.479008769616485 ], [ 363743.970699236902874, 6868076.644616692326963 ], [ 363809.458794101199601, 6867997.787768073379993 ], [ 363861.70312894100789, 6867966.364369482733309 ], [ 363863.629821559472475, 6867962.345378446392715 ], [ 363865.287153470970225, 6867958.208026112057269 ], [ 363866.667902407993097, 6867953.970342101529241 ], [ 363867.766051387414336, 6867949.650793257169425 ], [ 363868.576814931002446, 6867945.268203169107437 ], [ 363869.096659919596277, 6867940.841670148074627 ], [ 363869.323320989438798, 6867936.390483996830881 ], [ 363869.255810404196382, 6867931.934041948989034 ], [ 363868.89442235941533, 6867927.491764145903289 ], [ 363868.240731700148899, 6867923.083009001798928 ], [ 363867.297587058623321, 6867918.726988847367465 ], [ 363867.297587058623321, 6867918.726988847367465 ], [ 363847.65642786049284, 6867886.526748962700367 ], [ 363817.06554990040604, 6867834.982861778698862 ], [ 363795.366817809524946, 6867754.283455823548138 ], [ 363797.381939056620467, 6867673.095007622614503 ], [ 363795.594329431070946, 6867615.087195138446987 ], [ 363796.432502714684233, 6867574.824785074219108 ], [ 363795.556826898071449, 6867535.817895838059485 ], [ 363784.822495067899581, 6867467.148026258684695 ], [ 363777.383178210293408, 6867443.717391490004957 ], [ 363766.942838586110156, 6867407.682119221426547 ], [ 363755.922150159371085, 6867370.068872891366482 ], [ 363759.228375736915041, 6867334.827991984784603 ], [ 363777.963527012907434, 6867315.004942397587001 ], [ 363789.679467989073601, 6867285.03557394258678 ], [ 363789.679467989073601, 6867232.581953953020275 ], [ 363802.115013380127493, 6867167.831850178539753 ], [ 363802.115013380127493, 6867147.286214429885149 ], [ 363789.031077129591722, 6867122.382372735999525 ], [ 363773.235680760582909, 6867092.317563250660896 ], [ 363764.401189133292064, 6867075.502074644900858 ], [ 363738.997169521579053, 6867061.077749203890562 ], [ 363718.758012794307433, 6867049.586017277091742 ], [ 363711.7466255457839, 6867023.746285178698599 ], [ 363697.416473132092506, 6866939.695843496359885 ], [ 363676.856001881300472, 6866902.962585661560297 ], [ 363665.625652773072943, 6866882.898487699218094 ], [ 363665.625652773072943, 6866882.898487699218094 ], [ 363656.886445112118963, 6866851.631279935128987 ], [ 363656.886445112118963, 6866817.388425500132143 ], [ 363656.886445112118963, 6866788.126473999582231 ], [ 363645.048534529982135, 6866760.109628058038652 ], [ 363636.361145508592017, 6866695.295539651066065 ], [ 363598.971225653018337, 6866667.926866546273232 ], [ 363525.151269029302057, 6866685.790271018631756 ], [ 363473.406291616498493, 6866705.530294505879283 ], [ 363467.514926819771063, 6866722.128572753630579 ], [ 363460.4109994036844, 6866727.513743227347732 ], [ 363435.180360703205224, 6866731.185511546209455 ], [ 363403.090770738373976, 6866739.997582461684942 ], [ 363375.202921817719471, 6866747.712602992542088 ], [ 363355.102495206811, 6866747.712602992542088 ], [ 363335.746712279971689, 6866734.570014373399317 ], [ 363331.031778581615072, 6866718.947693862952292 ], [ 363342.695005546789616, 6866696.134218177758157 ], [ 363353.250351211812813, 6866675.487777667120099 ], [ 363359.044586626812816, 6866664.154151977039874 ], [ 363359.044586626812816, 6866651.133040264248848 ], [ 363335.854532265977468, 6866645.411188478581607 ], [ 363312.414301555487327, 6866631.903864217922091 ], [ 363281.560984684096184, 6866650.560258770361543 ], [ 363253.20079777558567, 6866679.74249146040529 ], [ 363231.292576699925121, 6866717.307838599197567 ], [ 363226.641268223000225, 6866745.257867433130741 ], [ 363215.014616235392168, 6866759.279846104793251 ], [ 363203.161747875914443, 6866773.574646320194006 ], [ 363145.25470430997666, 6866773.574646320194006 ], [ 363056.93965857650619, 6866793.764395805075765 ], [ 363030.052459855680354, 6866799.911092575639486 ], [ 362999.135396881494671, 6866806.979058752767742 ], [ 362967.646994171314873, 6866806.979058752767742 ], [ 362946.731440846517216, 6866806.979058752767742 ], [ 362933.86047764250543, 6866791.352826980873942 ], [ 362929.436048323521391, 6866772.060276387259364 ], [ 362929.436048323521391, 6866749.150372559204698 ], [ 362929.436048323521391, 6866737.092432297766209 ], [ 362929.436048323521391, 6866714.986352696083486 ], [ 362921.793782956025098, 6866691.272528499364853 ], [ 362915.51968328631483, 6866673.348385750316083 ], [ 362890.822968216787558, 6866661.529782241210341 ], [ 362876.805417564581148, 6866657.992994094267488 ], [ 362859.25209525169339, 6866667.474485903978348 ], [ 362848.498670853907242, 6866681.222466362640262 ], [ 362827.854381946090143, 6866706.663440695032477 ], [ 362818.145249355991837, 6866715.888335581868887 ], [ 362803.34305113798473, 6866719.069310613907874 ], [ 362788.381408876972273, 6866715.411194135434926 ], [ 362778.035833578091115, 6866705.709157798439264 ], [ 362764.66596482048044, 6866682.328746162354946 ], [ 362752.410108921816573, 6866673.899119066074491 ], [ 362747.151884410704952, 6866665.551018455997109 ], [ 362731.521796335582621, 6866671.245374280028045 ], [ 362731.521796335582621, 6866690.768948626704514 ], [ 362735.946606644021813, 6866726.814321050420403 ], [ 362739.682390257017687, 6866757.246746902354062 ], [ 362739.682390257017687, 6866766.368612476624548 ], [ 362732.820589028997347, 6866777.041563880629838 ], [ 362725.526547927292995, 6866777.041563880629838 ], [ 362715.424409797473345, 6866776.54764396790415 ], [ 362704.30387246760074, 6866770.5723871383816 ], [ 362687.503071531420574, 6866739.499242109246552 ], [ 362678.811005593510345, 6866725.709851968102157 ], [ 362673.518662066897377, 6866719.443017098121345 ], [ 362661.442996324505657, 6866726.540616944432259 ], [ 362642.165887698414735, 6866748.146673845127225 ], [ 362628.098808430717327, 6866773.917791984044015 ], [ 362607.988602605881169, 6866833.430245531722903 ], [ 362612.055346911016386, 6866875.347411486320198 ], [ 362632.740782668581232, 6866899.883614878170192 ], [ 362655.583570619288366, 6866920.320997298695147 ], [ 362665.411190897226334, 6866938.635037786327302 ], [ 362665.411190897226334, 6866960.930320364423096 ], [ 362660.065910319623072, 6867010.892500288784504 ], [ 362649.673092341283336, 6867025.298076456412673 ], [ 362641.459342949208803, 6867031.160772934556007 ], [ 362625.702194925921503, 6867037.023565553128719 ], [ 362601.899123319017235, 6867037.023565553128719 ], [ 362537.572280505497474, 6867033.784913688898087 ], [ 362495.995473831193522, 6867050.083193330094218 ], [ 362441.938720997888595, 6867102.809375474229455 ], [ 362419.200302864599507, 6867135.730422096326947 ], [ 362410.706285440188367, 6867154.806936579756439 ], [ 362413.171286533295643, 6867173.333734274841845 ], [ 362419.312216418620665, 6867189.44007277674973 ], [ 362431.187510906078387, 6867222.035426285117865 ], [ 362435.268506267399061, 6867233.236957886256278 ], [ 362439.274364485580008, 6867245.485243700444698 ], [ 362438.974478533491492, 6867249.781990778632462 ], [ 362431.892131926782895, 6867271.824192808009684 ], [ 362417.909643277875148, 6867287.458656911738217 ], [ 362375.319045527372509, 6867317.502178011462092 ], [ 362356.483389559085481, 6867342.73912504222244 ], [ 362347.022591113811359, 6867359.2498594885692 ], [ 362364.648863933281973, 6867392.620848529040813 ], [ 362385.132780639396515, 6867431.402079642750323 ], [ 362398.710268550086766, 6867457.10769562330097 ], [ 362388.896169122017454, 6867508.385766060091555 ], [ 362428.822710012027528, 6867582.754937589168549 ], [ 362428.822710012027528, 6867615.271218730136752 ], [ 362423.851370481192134, 6867641.013398813083768 ], [ 362299.479873672884423, 6867800.612358015030622 ], [ 362299.479873672884423, 6867800.612358015030622 ] ] ] ] } }
]
}
