{
"type": "FeatureCollection",
"name": "Pontes",
"crs": { "type": "name", "properties": { "name": "urn:ogc:def:crs:EPSG::31982" } },
"features": [
{ "type": "Feature", "properties": { "id": 1, "Pontes": "ponte", "AREA": 252 }, "geometry": { "type": "MultiPolygon", "coordinates": [ [ [ [ 365477.880902602337301, 6874571.672137591056526 ], [ 365489.579959152499214, 6874570.623637239448726 ], [ 365488.365906114282552, 6874549.212156384252012 ], [ 365476.611665335076395, 6874550.426209421828389 ], [ 365477.880902602337301, 6874571.672137591056526 ] ] ] ] } },
{ "type": "Feature", "properties": { "id": 2, "Pontes": "ponte", "AREA": 72 }, "geometry": { "type": "MultiPolygon", "coordinates": [ [ [ [ 366445.137038536078762, 6873694.504262611269951 ], [ 366438.81739371526055, 6873691.603505184873939 ], [ 366434.218007952673361, 6873700.727591520175338 ], [ 366440.569777687254827, 6873703.734583714045584 ], [ 366445.137038536078762, 6873694.504262611269951 ] ] ] ] } },
{ "type": "Feature", "properties": { "id": 3, "Pontes": "ponte", "AREA": 218 }, "geometry": { "type": "MultiPolygon", "coordinates": [ [ [ [ 364727.734085550706368, 6874244.236514755524695 ], [ 364737.446509856497869, 6874251.796754130162299 ], [ 364748.372987200564239, 6874238.718091854825616 ], [ 364739.929800161975436, 6874229.998983670957386 ], [ 364727.734085550706368, 6874244.236514755524695 ] ] ] ] } },
{ "type": "Feature", "properties": { "id": 4, "Pontes": "ponte", "AREA": 148 }, "geometry": { "type": "MultiPolygon", "coordinates": [ [ [ [ 364005.814001637976617, 6873849.117435043677688 ], [ 364014.25718867656542, 6873856.125832128338516 ], [ 364022.590007257123943, 6873845.585644387640059 ], [ 364014.477925592567772, 6873838.41169461607933 ], [ 364005.814001637976617, 6873849.117435043677688 ] ] ] ] } },
{ "type": "Feature", "properties": { "id": 5, "Pontes": "ponte", "AREA": 75 }, "geometry": { "type": "MultiPolygon", "coordinates": [ [ [ [ 364041.738934723602142, 6873776.550173894502223 ], [ 364040.745618601387832, 6873770.148803329095244 ], [ 364030.370983547472861, 6873771.418040596880019 ], [ 364031.585036585689522, 6873779.199016886763275 ], [ 364041.738934723602142, 6873776.550173894502223 ] ] ] ] } },
{ "type": "Feature", "properties": { "id": 6, "Pontes": "ponte", "AREA": 165 }, "geometry": { "type": "MultiPolygon", "coordinates": [ [ [ [ 363695.513081912882626, 6873521.930141241289675 ], [ 363699.59671485965373, 6873525.075642295181751 ], [ 363719.463037303357851, 6873503.057134919799864 ], [ 363714.937930524523836, 6873499.194238889031112 ], [ 363695.513081912882626, 6873521.930141241289675 ] ] ] ] } },
{ "type": "Feature", "properties": { "id": 7, "Pontes": "ponte", "AREA": 199 }, "geometry": { "type": "MultiPolygon", "coordinates": [ [ [ [ 363280.196574381203391, 6873780.633806840516627 ], [ 363287.204971465514973, 6873773.29430438298732 ], [ 363272.581150777754374, 6873760.270826335996389 ], [ 363265.710714265936986, 6873767.969026283361018 ], [ 363280.196574381203391, 6873780.633806840516627 ] ] ] ] } },
{ "type": "Feature", "properties": { "id": 8, "Pontes": "ponte", "AREA": 554 }, "geometry": { "type": "MultiPolygon", "coordinates": [ [ [ [ 363059.321697767358273, 6873916.249049634672701 ], [ 363042.380139461252838, 6873935.011687498539686 ], [ 363058.65948701929301, 6873948.973297438584268 ], [ 363076.318440302624367, 6873930.596949177794158 ], [ 363059.321697767358273, 6873916.249049634672701 ] ] ] ] } },
{ "type": "Feature", "properties": { "id": 9, "Pontes": "ponte", "AREA": 173 }, "geometry": { "type": "MultiPolygon", "coordinates": [ [ [ [ 362919.595229913305957, 6874197.743801817297935 ], [ 362932.94981333380565, 6874208.946200306527317 ], [ 362938.633788921870291, 6874200.668565954081714 ], [ 362925.996600478480104, 6874189.686904381029308 ], [ 362919.595229913305957, 6874197.743801817297935 ] ] ] ] } },
{ "type": "Feature", "properties": { "id": 10, "Pontes": "ponte", "AREA": 330 }, "geometry": { "type": "MultiPolygon", "coordinates": [ [ [ [ 361165.730063507391606, 6875919.326194252818823 ], [ 361198.178390165499877, 6875924.458327550441027 ], [ 361199.668364348763134, 6875914.469982099719346 ], [ 361167.109669232682791, 6875909.448217259719968 ], [ 361165.730063507391606, 6875919.326194252818823 ] ] ] ] } },
{ "type": "Feature", "properties": { "id": 11, "Pontes": "ponte", "AREA": 61 }, "geometry": { "type": "MultiPolygon", "coordinates": [ [ [ [ 360265.730472578143235, 6876081.457459083758295 ], [ 360272.518132746394258, 6876088.90732999984175 ], [ 360276.988055296242237, 6876085.154802427627146 ], [ 360270.586684731009882, 6876077.373826136812568 ], [ 360265.730472578143235, 6876081.457459083758295 ] ] ] ] } }
]
}
