{
"type": "FeatureCollection",
"name": "Rio Passo Fundo",
"crs": { "type": "name", "properties": { "name": "urn:ogc:def:crs:EPSG::31982" } },
"features": [
{ "type": "Feature", "properties": { "Layer": "0", "PaperSpace": null, "SubClasses": "AcDbEntity:AcDbPolyline", "Linetype": null, "EntityHand": "2001E", "Text": null, "Distancia": null, "Nome": "Rio Passo Fundo", "Distância": 17681.338, "Comp_total": 2322.915 }, "geometry": { "type": "MultiLineString", "coordinates": [ [ [ 362128.459367596835364, 6875082.28587646689266 ], [ 362124.664072245941497, 6875094.743716169148684 ], [ 362120.665974853618536, 6875099.726852050051093 ], [ 362110.294099009770434, 6875106.042687060311437 ], [ 362091.599452868977096, 6875104.582724892534316 ], [ 362066.717026640137192, 6875097.030860122293234 ], [ 362050.2578341930639, 6875095.191303319297731 ], [ 361998.847062490647659, 6875091.802646050229669 ], [ 361945.887190322682727, 6875094.513571865856647 ], [ 361930.00891055027023, 6875098.579960586503148 ], [ 361902.512377285747789, 6875109.520482626743615 ], [ 361872.208099427283742, 6875119.492816873826087 ], [ 361846.294687665009405, 6875129.379671580158174 ], [ 361810.697129314998165, 6875138.457849100232124 ], [ 361776.067051780468319, 6875152.604839324951172 ], [ 361732.49860118527431, 6875168.967212992720306 ], [ 361706.357530828099698, 6875180.682285265997052 ], [ 361675.278702736890409, 6875197.044658933766186 ], [ 361606.246913238195702, 6875242.065391215495765 ], [ 361582.139037242159247, 6875251.069537671282887 ], [ 361539.490365048288368, 6875266.899408055469394 ], [ 361515.825620146992151, 6875275.298114730045199 ], [ 361510.009046812192537, 6875280.550855910405517 ], [ 361508.363127567456104, 6875292.556384518742561 ], [ 361511.72113681898918, 6875306.891184859909117 ], [ 361515.043623325356748, 6875338.351667031645775 ], [ 361505.942658089916222, 6875373.787340182811022 ], [ 361493.937129481404554, 6875388.503794605843723 ], [ 361468.957884473493323, 6875402.639336354099214 ], [ 361416.855976061022375, 6875432.348652389831841 ], [ 361385.306459330720827, 6875449.790081776678562 ], [ 361367.394985197170172, 6875478.351621611043811 ], [ 361356.260825600533281, 6875502.556316386908293 ], [ 361338.058895129594021, 6875536.733345409855247 ], [ 361326.731097974814475, 6875554.06390686891973 ], [ 361320.05060221691383, 6875569.070817628875375 ], [ 361317.085315459000412, 6875577.787345520220697 ], [ 361305.237329014576972, 6875596.276894555427134 ], [ 361287.214631289010867, 6875616.198790550231934 ], [ 361284.191281316976529, 6875635.148052100092173 ], [ 361281.287896563007962, 6875643.815392959862947 ], [ 361266.338586128025781, 6875664.207449899986386 ], [ 361256.634301906102337, 6875671.020992021076381 ], [ 361246.516739490092732, 6875676.781709377653897 ], [ 361236.592814632283989, 6875681.235373214818537 ], [ 361224.393648465629667, 6875689.174513100646436 ], [ 361202.318966830673162, 6875705.633705548942089 ], [ 361185.472499267198145, 6875718.801059505902231 ], [ 361177.533359380962793, 6875733.227057592943311 ], [ 361164.366005423304159, 6875751.816263180226088 ], [ 361159.398597968975082, 6875763.418205319903791 ], [ 361154.684127513261046, 6875772.438663126900792 ], [ 361152.844570710381959, 6875788.994674353860319 ], [ 361160.009160363813862, 6875808.552067732438445 ], [ 361162.720086178625934, 6875829.561742798425257 ], [ 361166.399199784384109, 6875861.705577460117638 ], [ 361171.046501181204803, 6875883.392983978614211 ], [ 361180.534741533047054, 6875889.395748282782733 ], [ 361181.987023219524417, 6875897.238069388084114 ], [ 361180.840409445983823, 6875906.844216070137918 ], [ 361180.791506959998515, 6875907.611023619771004 ], [ 361179.125253377016634, 6875933.719006770290434 ], [ 361162.700552737980615, 6875960.421902850270271 ], [ 361150.375691843277309, 6875978.904709561727941 ], [ 361130.721479685860686, 6876007.127383667975664 ], [ 361121.717333229491487, 6876027.701374229043722 ], [ 361116.392300378996879, 6876049.727646472863853 ], [ 361123.36325247422792, 6876067.92957694362849 ], [ 361132.657855267869309, 6876084.38876939099282 ], [ 361146.944676358718425, 6876094.046442627906799 ], [ 361164.323647207347676, 6876099.274656700901687 ], [ 361201.042169181106146, 6876103.897753401659429 ], [ 361263.296644142770674, 6876098.669539329595864 ], [ 361362.826349058072083, 6876096.539526189677417 ], [ 361406.588437211408745, 6876095.135653892531991 ], [ 361416.705999627534766, 6876097.217257644049823 ], [ 361421.35330102435546, 6876105.930947762914002 ], [ 361417.383731081266887, 6876122.390140210278332 ], [ 361417.867824976681732, 6876134.298850038088858 ], [ 361428.179024950892199, 6876151.000089433044195 ], [ 361437.860902860993519, 6876158.16467908769846 ], [ 361448.607787341170479, 6876160.875604902394116 ], [ 361464.970161009172443, 6876166.297456531785429 ], [ 361472.231569441675674, 6876174.430233975872397 ], [ 361472.231569441559259, 6876210.446819799952209 ], [ 361453.44872629607562, 6876233.489689225330949 ], [ 361445.41276763076894, 6876255.031867575831711 ], [ 361444.008895333798137, 6876278.316783948801458 ], [ 361443.718438996525947, 6876303.973760409280658 ], [ 361445.60640518902801, 6876315.592013902030885 ], [ 361454.683165729686152, 6876323.773200734518468 ], [ 361471.335995734960306, 6876335.754524649120867 ], [ 361476.176934690040071, 6876348.413580014370382 ], [ 361487.165866118040867, 6876367.970973392017186 ], [ 361507.836675455968361, 6876383.195726405829191 ], [ 361524.537914850807283, 6876395.298073791898787 ], [ 361534.800705435336567, 6876414.613420223817229 ], [ 361540.343580538872629, 6876430.07416901178658 ], [ 361535.405822804779746, 6876434.818289187736809 ] ] ] } },
{ "type": "Feature", "properties": { "Layer": "0", "PaperSpace": null, "SubClasses": "AcDbEntity:AcDbPolyline", "Linetype": null, "EntityHand": "20013", "Text": null, "Distancia": null, "Nome": "Rio Passo Fundo", "Distância": null, "Comp_total": 291.86 }, "geometry": { "type": "MultiLineString", "coordinates": [ [ [ 362313.125112369365525, 6874913.380747504532337 ], [ 362298.349535049987026, 6874908.977046028710902 ], [ 362281.603880754613783, 6874919.580695633776486 ], [ 362248.692006568599027, 6874934.588046714663506 ], [ 362220.99504202476237, 6874943.569279986433685 ], [ 362197.527948635106441, 6874952.840230461210012 ], [ 362173.423477400268894, 6874967.557864340022206 ], [ 362166.470264544070233, 6874973.583982149139047 ], [ 362155.287180533690844, 6874985.172670243307948 ], [ 362137.614431190828327, 6875009.566858680918813 ], [ 362132.689238750957884, 6875020.605084090493619 ], [ 362123.675617908011191, 6875050.336769879795611 ], [ 362128.459367596835364, 6875082.28587646689266 ] ] ] } },
{ "type": "Feature", "properties": { "Layer": "0", "PaperSpace": null, "SubClasses": "AcDbEntity:AcDbPolyline", "Linetype": null, "EntityHand": "20010", "Text": null, "Distancia": null, "Nome": "Rio Passo Fundo", "Distância": null, "Comp_total": 877.324 }, "geometry": { "type": "MultiLineString", "coordinates": [ [ [ 365763.669304517738055, 6874261.433715887367725 ], [ 365700.85861505009234, 6874261.78137653041631 ], [ 365684.547536558355205, 6874272.356054418720305 ], [ 365673.132678786409087, 6874287.160603459924459 ], [ 365662.413142299745232, 6874309.381912878714502 ], [ 365657.545893300382886, 6874326.764945019036531 ], [ 365657.545893300441094, 6874344.495637802407146 ], [ 365659.950546079897322, 6874355.823580414056778 ], [ 365662.934633264085278, 6874364.688926806673408 ], [ 365667.367306459927931, 6874373.32249943446368 ], [ 365666.90375893615419, 6874378.421522195450962 ], [ 365666.556098293338437, 6874385.548565372824669 ], [ 365669.395326876314357, 6874397.195196908898652 ], [ 365675.300488473789301, 6874403.731973940506577 ], [ 365685.614420877187513, 6874408.135675416328013 ], [ 365682.369588210945949, 6874412.191716249100864 ], [ 365676.111696640378796, 6874413.002924416214228 ], [ 365660.678331859584432, 6874410.351344523020089 ], [ 365640.365663201664574, 6874421.357611582614481 ], [ 365636.077848607033957, 6874424.834218011237681 ], [ 365632.659185619384516, 6874430.396788296289742 ], [ 365631.616203690937255, 6874440.131286294199526 ], [ 365625.532142441777978, 6874446.678895067423582 ], [ 365612.31895343697397, 6874452.464343260042369 ], [ 365600.558519600017462, 6874462.004935069940984 ], [ 365591.99502205918543, 6874473.99568741209805 ], [ 365591.751116648840252, 6874483.067375680431724 ], [ 365593.309535165433772, 6874488.345788821578026 ], [ 365605.348328801977914, 6874502.546124990098178 ], [ 365614.232202106213663, 6874513.431080598384142 ], [ 365605.193994837580249, 6874548.862152331508696 ], [ 365601.717388409480918, 6874553.092023485340178 ], [ 365590.47636095865164, 6874554.946213580667973 ], [ 365576.801709008112084, 6874556.800403675064445 ], [ 365562.315848891041242, 6874559.002254413440824 ], [ 365554.551427868194878, 6874563.521842770278454 ], [ 365545.740592133894097, 6874572.241849256679416 ], [ 365524.652612586563919, 6874571.054490031674504 ], [ 365493.707781679055188, 6874557.234491294249892 ], [ 365467.404493403912056, 6874558.886367532424629 ], [ 365435.999148670060094, 6874557.495724961161613 ], [ 365411.662903673364781, 6874556.452743032947183 ], [ 365384.822279380168766, 6874561.506658888421953 ], [ 365366.6381814108463, 6874580.238470652140677 ], [ 365363.569848084764089, 6874590.291712268255651 ], [ 365364.775954510318115, 6874597.217598273418844 ], [ 365355.023190615756903, 6874617.930733369663358 ], [ 365331.694041337061208, 6874633.257165937684476 ], [ 365323.806962699745782, 6874640.048816986382008 ], [ 365320.1991828942555, 6874661.851861244998872 ], [ 365323.386072119988967, 6874673.672323101200163 ], [ 365314.810442930611316, 6874692.040393729694188 ], [ 365290.648028255323879, 6874700.268362276256084 ], [ 365260.710333602153696, 6874710.265725410543382 ], [ 365251.36237561784219, 6874718.520546023733914 ], [ 365247.306334785069339, 6874731.383989807218313 ] ] ] } },
{ "type": "Feature", "properties": { "Layer": "0", "PaperSpace": null, "SubClasses": "AcDbEntity:AcDbPolyline", "Linetype": null, "EntityHand": "20024", "Text": null, "Distancia": null, "Nome": "Rio Passo Fundo", "Distância": null, "Comp_total": 620.881 }, "geometry": { "type": "MultiLineString", "coordinates": [ [ [ 359311.515681972028688, 6876678.128692460246384 ], [ 359328.769695696013514, 6876705.686977228149772 ], [ 359334.288366104708984, 6876726.599833513610065 ], [ 359336.176332296570763, 6876741.48572080489248 ], [ 359333.707453429524321, 6876755.572853163816035 ], [ 359313.665966155705974, 6876767.336334824562073 ], [ 359296.50268642778974, 6876779.507191229611635 ], [ 359293.779344725771807, 6876785.185648395679891 ], [ 359293.66345784481382, 6876792.254748133942485 ], [ 359314.928700496675447, 6876798.976187228225172 ], [ 359339.322888933878858, 6876806.856495130807161 ], [ 359345.233119861630257, 6876813.114386701956391 ], [ 359343.494816647609696, 6876819.024617630057037 ], [ 359338.283488086017314, 6876821.882171499542892 ], [ 359328.893069649580866, 6876826.67315177153796 ], [ 359317.441898540651891, 6876829.203534670174122 ], [ 359292.562532475916669, 6876823.312432224862278 ], [ 359273.292535270797089, 6876831.817641706205904 ], [ 359265.740670500963461, 6876840.531331825070083 ], [ 359264.288388814486098, 6876855.635061364620924 ], [ 359267.919093030737713, 6876877.419286662712693 ], [ 359272.711622596194502, 6876886.278204950504005 ], [ 359281.425312715233304, 6876897.606002105399966 ], [ 359293.257853761548176, 6876920.309751570224762 ], [ 359306.816618831071537, 6876929.696588926017284 ], [ 359325.474406661873218, 6876936.765688663348556 ], [ 359339.149058612412773, 6876935.259159211069345 ], [ 359354.098466253257357, 6876930.391910211183131 ], [ 359372.06093279842753, 6876925.408774331212044 ], [ 359387.473887962987646, 6876929.928362687118351 ], [ 359398.483141651959158, 6876935.490932974033058 ], [ 359416.561495077970903, 6876947.543168590404093 ], [ 359413.316662411787547, 6876959.479517326690257 ], [ 359404.50925946055213, 6876966.200956420972943 ], [ 359390.718720629112795, 6876973.501829919405282 ], [ 359383.997281534771901, 6876988.79889820329845 ], [ 359386.894453558081295, 6877009.426763010211289 ], [ 359391.182268152770121, 6877029.011645888909698 ], [ 359391.182268152770121, 6877042.802184720523655 ], [ 359381.042166070837993, 6877049.118019731715322 ], [ 359372.002989357803017, 6877053.405834326520562 ], [ 359370.902063988905866, 6877062.213237277232111 ], [ 359376.319775672396645, 6877068.789817764423788 ], [ 359382.027204558777157, 6877073.743981930427253 ], [ 359392.775712765404023, 6877063.806681884452701 ], [ 359406.682138477801345, 6877062.068378670141101 ], [ 359425.571700070460793, 6877067.746835836209357 ], [ 359441.795863401610404, 6877073.077632359229028 ], [ 359464.046144541411195, 6877077.713107596151531 ], [ 359477.31519240885973, 6877083.855112288147211 ], [ 359480.617968515551183, 6877088.722361288033426 ], [ 359480.733855396450963, 6877096.718556072562933 ], [ 359477.199305527901743, 6877103.497938606888056 ], [ 359469.000308701652102, 6877110.10349082108587 ], [ 359453.355579775176011, 6877113.78289929125458 ], [ 359432.380054325622041, 6877112.739917363040149 ], [ 359413.026945209188852, 6877114.825881219469011 ], [ 359400.279388306254987, 6877123.807114492170513 ], [ 359395.354195866500959, 6877133.483669051900506 ], [ 359391.616843956173398, 6877148.51999184768647 ], [ 359381.187024671875406, 6877155.589091585017741 ], [ 359364.383426936052274, 6877155.125544060952961 ], [ 359345.725639105250593, 6877150.837729466147721 ], [ 359319.18754337070277, 6877152.460145800374448 ], [ 359304.817570134589914, 6877164.04883389454335 ], [ 359294.619524612207897, 6877190.818703389726579 ], [ 359294.909241813991684, 6877197.076594951562583 ], [ 359294.040090207010508, 6877198.583124402910471 ], [ 359292.765334516763687, 6877201.712070187553763 ], [ 359291.084974743134808, 6877206.173715104348958 ] ] ] } },
{ "type": "Feature", "properties": { "Layer": "0", "PaperSpace": null, "SubClasses": "AcDbEntity:AcDbPolyline", "Linetype": null, "EntityHand": "2001F", "Text": null, "Distancia": null, "Nome": "Rio Passo Fundo", "Distância": null, "Comp_total": 227.404 }, "geometry": { "type": "MultiLineString", "coordinates": [ [ [ 361535.405822804779746, 6876434.818289187736809 ], [ 361521.17951345059555, 6876438.019360069185495 ], [ 361509.561259958543815, 6876434.340246463194489 ], [ 361501.138026176777203, 6876423.690180762670934 ], [ 361495.909812105295714, 6876412.652839945629239 ], [ 361484.872471287846565, 6876406.650075640529394 ], [ 361475.384230936004315, 6876406.843713198788464 ], [ 361466.670540816965513, 6876409.74827657174319 ], [ 361456.310931453190278, 6876423.690180763602257 ], [ 361452.922274184646085, 6876439.665279314853251 ], [ 361456.89184412767645, 6876448.040103706531227 ], [ 361486.741186064027715, 6876468.086145049892366 ], [ 361487.196121986198705, 6876491.076051017269492 ], [ 361476.642875064222608, 6876508.600250034593046 ], [ 361459.505951163475402, 6876539.582259346731007 ], [ 361446.629053543088958, 6876547.521399232558906 ], [ 361431.04123010794865, 6876545.585023650899529 ] ] ] } },
{ "type": "Feature", "properties": { "Layer": "0", "PaperSpace": null, "SubClasses": "AcDbEntity:AcDbPolyline", "Linetype": null, "EntityHand": "20009", "Text": null, "Distancia": null, "Nome": "Rio Passo Fundo", "Distância": null, "Comp_total": 352.616 }, "geometry": { "type": "MultiLineString", "coordinates": [ [ [ 366042.232394568040036, 6873772.44902175385505 ], [ 366044.785997371363919, 6873784.33858809992671 ], [ 366022.879285452829208, 6873818.311254906468093 ], [ 366004.685045145743061, 6873836.679325534030795 ], [ 365994.371112742403056, 6873840.9091966887936 ], [ 365986.548748279165011, 6873849.484825878404081 ], [ 365981.79738616081886, 6873861.015570531599224 ], [ 365979.247874780208804, 6873869.301482519134879 ], [ 365958.585968923231121, 6873887.224145608954132 ], [ 365955.746740340313409, 6873892.670829012989998 ], [ 365957.485043554392178, 6873897.016587047837675 ], [ 365959.628950851678383, 6873902.115609808824956 ], [ 365956.731778828194365, 6873908.199671057984233 ], [ 365949.894452852895483, 6873914.805223271250725 ], [ 365939.812294211471453, 6873917.238847770728171 ], [ 365931.931986307783518, 6873917.876225615851581 ], [ 365923.588130880321842, 6873921.468718925490975 ], [ 365920.864789178303909, 6873928.47987522277981 ], [ 365917.851730273978319, 6873945.515246720053256 ], [ 365919.126485964283347, 6873953.743215266615152 ], [ 365915.476049214834347, 6873964.057147669605911 ], [ 365903.249983276007697, 6873978.890668430365622 ], [ 365887.262663036701269, 6873995.531267583370209 ], [ 365884.944925418007188, 6874006.4825778324157 ], [ 365885.640246703638695, 6874014.362885735929012 ], [ 365882.105696835031267, 6874021.084324830211699 ], [ 365877.615080198738724, 6874026.386149632744491 ], [ 365869.300196491589304, 6874032.557126042433083 ], [ 365858.232999362167902, 6874037.424375042319298 ], [ 365854.988166695868131, 6874046.000004230998456 ], [ 365846.00693342339946, 6874056.198049754835665 ], [ 365836.446265746140853, 6874056.95131448097527 ], [ 365825.379068616544828, 6874053.648538373410702 ], [ 365817.266986950999126, 6874061.644733157940209 ] ] ] } },
{ "type": "Feature", "properties": { "Layer": "0", "PaperSpace": null, "SubClasses": "AcDbEntity:AcDbPolyline", "Linetype": null, "EntityHand": "2000E", "Text": null, "Distancia": null, "Nome": "Rio Passo Fundo", "Distância": null, "Comp_total": 230.774 }, "geometry": { "type": "MultiLineString", "coordinates": [ [ [ 365817.266986950999126, 6874061.644733157940209 ], [ 365810.487604416266549, 6874078.390387454070151 ], [ 365828.27117130998522, 6874105.902689935639501 ], [ 365854.524619172036182, 6874147.516911926679313 ], [ 365847.129223242984153, 6874202.059749100357294 ], [ 365793.389220148150343, 6874240.099698058329523 ], [ 365772.52958157955436, 6874261.886431674472988 ], [ 365763.669304517738055, 6874261.433715887367725 ] ] ] } },
{ "type": "Feature", "properties": { "Layer": "0", "PaperSpace": null, "SubClasses": "AcDbEntity:AcDbPolyline", "Linetype": null, "EntityHand": "20036", "Text": null, "Distancia": null, "Nome": "Rio Passo Fundo", "Distância": null, "Comp_total": 897.369 }, "geometry": { "type": "MultiLineString", "coordinates": [ [ [ 359304.064305408101063, 6877264.175099016167223 ], [ 359301.28302026563324, 6877277.849750966764987 ], [ 359308.699780645547435, 6877288.974891535937786 ], [ 359352.15736099681817, 6877314.470005341805518 ], [ 359367.686203042394482, 6877312.32609804533422 ], [ 359382.751497564197052, 6877311.341059557162225 ], [ 359385.764556468580849, 6877316.555969196371734 ], [ 359385.301008944865316, 6877327.2175622433424 ], [ 359380.665533707593568, 6877337.87915528845042 ], [ 359382.519723802572116, 6877354.450979265384376 ], [ 359390.168257944402285, 6877385.045115832239389 ], [ 359391.095352991833352, 6877394.547840068116784 ], [ 359390.400031706201844, 6877404.282338066957891 ], [ 359388.314067849365529, 6877413.553288541734219 ], [ 359380.201986183761619, 6877418.188763778656721 ], [ 359367.222655518911779, 6877416.450460564345121 ], [ 359355.518080544308759, 6877406.484188803471625 ], [ 359338.135048403812107, 6877399.299202186055481 ], [ 359330.602401142939925, 6877401.385166043415666 ], [ 359320.867903144215234, 6877404.745885589160025 ], [ 359314.957672216522042, 6877410.192568993195891 ], [ 359308.236233122181147, 6877419.463519467972219 ], [ 359299.892377694777679, 6877431.515755085274577 ], [ 359296.647545028477907, 6877439.280176112428308 ], [ 359294.561581171525177, 6877447.855805301107466 ], [ 359297.80641383776674, 6877459.79215403739363 ], [ 359309.626875693444163, 6877465.470611203461885 ], [ 359337.90327464195434, 6877476.363978011533618 ], [ 359372.437565161031671, 6877492.35636757966131 ], [ 359386.691651516302954, 6877496.296521531417966 ], [ 359387.502859682834242, 6877503.365621268749237 ], [ 359381.592628755082842, 6877510.202947244048119 ], [ 359373.190829887229484, 6877514.548705279827118 ], [ 359363.224558126647025, 6877520.111275563947856 ], [ 359340.974276986904442, 6877544.679294322617352 ], [ 359338.54065248707775, 6877582.574304388836026 ], [ 359341.090163867804222, 6877611.546024622395635 ], [ 359345.725639105250593, 6877631.5944550242275 ], [ 359337.845331201446243, 6877644.921446332708001 ], [ 359323.127697322634049, 6877652.222319830209017 ], [ 359309.221271610236727, 6877649.672808449715376 ], [ 359289.520501850987785, 6877632.058002547360957 ], [ 359265.995465020823758, 6877620.005766930058599 ], [ 359241.079785619396716, 6877620.469314454123378 ], [ 359222.190224026737269, 6877627.306640430353582 ], [ 359211.065083456865977, 6877638.895328523591161 ], [ 359200.171716648794245, 6877658.596098283305764 ], [ 359193.682051316369325, 6877672.966071519069374 ], [ 359191.827861221390776, 6877690.812651183456182 ], [ 359184.411100841418374, 6877697.534090277738869 ], [ 359170.272901367163286, 6877699.85182789620012 ], [ 359153.353416750382166, 6877695.679900182411075 ], [ 359142.228276180510875, 6877696.375221468508244 ], [ 359132.60966506274417, 6877704.31347281485796 ], [ 359129.364832396502607, 6877713.120875765569508 ], [ 359130.291927443991881, 6877722.855373764410615 ], [ 359131.914343777054455, 6877731.199229192920029 ], [ 359136.20215837174328, 6877740.006632143631577 ], [ 359141.996502418594901, 6877749.972903903573751 ], [ 359146.863751418015454, 6877769.441899900324643 ], [ 359150.572131607972551, 6877783.116551851853728 ], [ 359157.061796940455679, 6877799.572488944977522 ], [ 359160.306629606697243, 6877813.478914656676352 ], [ 359161.697272178018466, 6877825.99469780176878 ] ] ] } },
{ "type": "Feature", "properties": { "Layer": "0", "PaperSpace": null, "SubClasses": "AcDbEntity:AcDbPolyline", "Linetype": null, "EntityHand": "20005", "Text": null, "Distancia": null, "Nome": "Rio Passo Fundo", "Distância": null, "Comp_total": 369.265 }, "geometry": { "type": "MultiLineString", "coordinates": [ [ [ 366422.017605789005756, 6873727.126419596374035 ], [ 366412.746655314054806, 6873729.849761297926307 ], [ 366408.227066957508214, 6873731.53012107219547 ], [ 366402.89627043454675, 6873735.383359862491488 ], [ 366402.925242154800799, 6873740.395467462949455 ], [ 366402.379848799842875, 6873743.911877340637147 ], [ 366409.038275124155916, 6873746.566443873569369 ], [ 366412.572824992763344, 6873750.216880622319877 ], [ 366412.109277468989603, 6873753.693487050943077 ], [ 366407.879406314808875, 6873756.590659074485302 ], [ 366403.649535160628147, 6873758.155131966806948 ], [ 366395.653340375982225, 6873760.125208943150938 ], [ 366386.208559579681605, 6873766.614874275401235 ], [ 366375.489023093017749, 6873775.480220667086542 ], [ 366368.825527439126745, 6873775.422277226112783 ], [ 366365.233034130302258, 6873773.162483047693968 ], [ 366362.799409630591981, 6873768.932611893862486 ], [ 366362.683522749692202, 6873764.52891041804105 ], [ 366364.769486606528517, 6873760.588756466284394 ], [ 366369.289074963075109, 6873758.155131965875626 ], [ 366372.475964188808575, 6873754.736468978226185 ], [ 366374.851645247952547, 6873751.520608032122254 ], [ 366372.504935909004416, 6873748.044001604430377 ], [ 366362.688592079037335, 6873746.982879687100649 ], [ 366349.998978616495151, 6873751.0389205198735 ], [ 366340.090650296362583, 6873753.82020566239953 ], [ 366333.369211202079896, 6873751.850128686055541 ], [ 366334.701910332834814, 6873740.087610270828009 ], [ 366327.285149952862412, 6873733.771775259636343 ], [ 366318.477747001685202, 6873732.323189248330891 ], [ 366317.029160989972297, 6873736.495116962119937 ], [ 366315.580574978259392, 6873746.05578463897109 ], [ 366309.902117812365759, 6873750.40154267475009 ], [ 366301.210601742088329, 6873754.39964006934315 ], [ 366279.597698447469156, 6873760.715475078672171 ], [ 366264.706234247074462, 6873762.337891411967576 ], [ 366252.769885510730091, 6873755.181876515969634 ], [ 366241.644744940742385, 6873740.927790161222219 ], [ 366227.506545466487296, 6873744.752057231962681 ], [ 366219.42343552125385, 6873750.05388203356415 ], [ 366215.975800813292153, 6873756.688405967317522 ], [ 366208.559040433377959, 6873759.875295192934573 ], [ 366196.275031054101419, 6873754.776272431947291 ], [ 366186.598476495884825, 6873752.922082336619496 ], [ 366185.787268329411745, 6873756.10897156316787 ], [ 366191.176008292939514, 6873760.918277122080326 ], [ 366192.508707423694432, 6873771.579870168119669 ], [ 366185.903155210311525, 6873774.708815953694284 ], [ 366181.38356685382314, 6873772.506965215317905 ], [ 366177.327526021050289, 6873766.075243324041367 ], [ 366168.531737654993776, 6873754.811725069768727 ], [ 366161.740740535024088, 6873756.514575646258891 ], [ 366160.205239362490829, 6873766.828508050180972 ], [ 366163.913619552564342, 6873789.136732630431652 ], [ 366154.295008434855845, 6873796.292747527360916 ], [ 366131.431251840374898, 6873796.542661275714636 ], [ 366113.816445937962271, 6873795.6155662285164 ], [ 366099.596400631649885, 6873790.990922703407705 ], [ 366093.106735299224965, 6873774.998533134348691 ], [ 366095.308586037019268, 6873766.191130183637142 ], [ 366095.772133560734801, 6873762.019202469848096 ], [ 366093.686169703898486, 6873753.675347042270005 ], [ 366091.020771442330442, 6873750.430514375679195 ], [ 366086.964730609557591, 6873746.953907947987318 ], [ 366083.719897943316028, 6873745.795039138756692 ], [ 366078.852648944011889, 6873744.983830971643329 ], [ 366074.564834349323064, 6873744.520283448509872 ], [ 366069.929359111876693, 6873744.520283448509872 ], [ 366065.062110112572554, 6873745.331491614691913 ], [ 366061.23784304165747, 6873746.142699781805277 ], [ 366055.211725232948083, 6873750.430514375679195 ], [ 366050.808023757359479, 6873754.138894566334784 ], [ 366047.679077972075902, 6873757.036066589877009 ], [ 366045.4772272342816, 6873760.396786136552691 ], [ 366043.970697782060597, 6873763.873392564244568 ], [ 366043.391263377387077, 6873766.654677706770599 ], [ 366042.695942091755569, 6873770.015397254377604 ], [ 366042.232394568040036, 6873772.44902175385505 ] ] ] } },
{ "type": "Feature", "properties": { "Layer": "0", "PaperSpace": null, "SubClasses": "AcDbEntity:AcDbPolyline", "Linetype": null, "EntityHand": "20011", "Text": null, "Distancia": null, "Nome": "Rio Passo Fundo", "Distância": null, "Comp_total": 2510.085 }, "geometry": { "type": "MultiLineString", "coordinates": [ [ [ 363960.609226414933801, 6873803.930449928157032 ], [ 363945.312158131273463, 6873790.487571739591658 ], [ 363927.317229251028039, 6873776.616069849580526 ], [ 363914.48624780215323, 6873752.940222317352891 ], [ 363905.67884485097602, 6873738.570249080657959 ], [ 363886.90517013927456, 6873708.671433798968792 ], [ 363877.054785259650089, 6873692.910817990079522 ], [ 363865.234323404089082, 6873676.918428421020508 ], [ 363836.262603169889189, 6873655.711129209026694 ], [ 363812.274018816067837, 6873623.378689428791404 ], [ 363792.502687345957384, 6873605.64648921508342 ], [ 363787.126565652783029, 6873590.235041479580104 ], [ 363773.042112746741623, 6873571.499716060236096 ], [ 363754.162450822128449, 6873557.739347080700099 ], [ 363740.946687474963255, 6873544.668811903335154 ], [ 363719.743374851881526, 6873520.270479569211602 ], [ 363706.890681926335674, 6873511.121104944497347 ], [ 363672.762062293360941, 6873491.297459923662245 ], [ 363656.42389332014136, 6873477.573397986590862 ], [ 363643.498586310248356, 6873471.401200818829238 ], [ 363617.466437079710886, 6873476.121116299182177 ], [ 363596.244970935513265, 6873483.872669799253345 ], [ 363582.756904772191774, 6873491.62422330211848 ], [ 363573.643837189360056, 6873501.408971164375544 ], [ 363573.861679442285094, 6873507.072869742289186 ], [ 363567.181183684326243, 6873515.859173946082592 ], [ 363543.363764025561977, 6873534.012695027515292 ], [ 363527.388665473903529, 6873543.016841484233737 ], [ 363471.621048712171614, 6873568.794841418974102 ], [ 363447.295330463035498, 6873591.232593474909663 ], [ 363413.750760757015087, 6873608.295166520401835 ], [ 363387.170868641580455, 6873625.94212578330189 ], [ 363353.187477177358232, 6873646.419297561980784 ], [ 363324.432299784501083, 6873665.589415824972093 ], [ 363297.138480838679243, 6873690.713889001868665 ], [ 363286.391596358502284, 6873713.514711479656398 ], [ 363284.237378523801453, 6873729.877085144631565 ], [ 363285.883297768479679, 6873748.369471952319145 ], [ 363280.364627359784208, 6873762.311376143246889 ], [ 363269.756042941997293, 6873785.935065399855375 ], [ 363238.030616198142525, 6873821.782311203889549 ], [ 363189.306565615814179, 6873848.722136489115655 ], [ 363178.608090525201987, 6873854.240806898102164 ], [ 363171.61293373524677, 6873856.225591867230833 ], [ 363167.861206045083236, 6873860.219366505742073 ], [ 363167.377112149610184, 6873863.051315793767571 ], [ 363164.496753471205011, 6873863.753251945599914 ], [ 363157.961485881940462, 6873862.252560870721936 ], [ 363141.599112213996705, 6873873.144673518836498 ], [ 363121.751262498321012, 6873883.939967388287187 ], [ 363107.228445633256342, 6873894.202757973223925 ], [ 363076.149617541930638, 6873914.244245246984065 ], [ 363065.532650451117661, 6873928.20964861754328 ], [ 363047.086149310111068, 6873947.320068158209324 ], [ 363037.518924680829514, 6873972.916425383649766 ], [ 363037.615743459900841, 6873990.24698684271425 ], [ 363034.323904970486183, 6874000.025683531537652 ], [ 363032.581166946678422, 6874009.417105102911592 ], [ 363032.581166946678422, 6874016.388057198375463 ], [ 363030.16069746913854, 6874025.876297550275922 ], [ 363024.64202706044307, 6874032.653612086549401 ], [ 363012.351170092006214, 6874039.677903410047293 ], [ 362998.791413040598854, 6874044.659140694886446 ], [ 362986.932214556029066, 6874057.314428499899805 ], [ 362971.004423438746016, 6874074.382505880668759 ], [ 362962.871645994309802, 6874086.87212838511914 ], [ 362956.772062911011744, 6874099.07129454985261 ], [ 362957.546613143815193, 6874109.237266355194151 ], [ 362959.289351167681161, 6874116.305037229321897 ], [ 362958.030707039346453, 6874133.732417467981577 ], [ 362948.424301311024465, 6874157.065835610032082 ], [ 362938.818486388016026, 6874180.158143140375614 ], [ 362924.409844450012315, 6874214.796703860163689 ], [ 362914.171800106880255, 6874242.266268839128315 ], [ 362897.131694985146169, 6874267.729607742279768 ], [ 362881.931146666465793, 6874297.549791705794632 ], [ 362873.798369222029578, 6874331.339545612223446 ], [ 362860.115728120028507, 6874363.820769160054624 ], [ 362858.597820903232787, 6874371.809795276261866 ], [ 362842.913178688904736, 6874404.437723833136261 ], [ 362840.492709211423062, 6874419.444634593091905 ], [ 362831.149697028216906, 6874435.419733145274222 ], [ 362826.841261358174961, 6874444.133423263207078 ], [ 362825.098523334483616, 6874453.137569719925523 ], [ 362823.452604089747183, 6874462.916266409680247 ], [ 362803.943620100908447, 6874514.762722617946565 ], [ 362772.725928100990131, 6874571.640476159751415 ], [ 362755.485821161186323, 6874592.508202236145735 ], [ 362744.738936681009363, 6874598.123691423796117 ], [ 362732.927045630756766, 6874604.804187181405723 ], [ 362708.915988413849846, 6874613.759924246929586 ], [ 362691.972702071303502, 6874611.145817210897803 ], [ 362670.575751890079118, 6874607.079428488388658 ], [ 362643.07921862549847, 6874606.692153371870518 ], [ 362609.192645940231159, 6874609.88717308267951 ], [ 362568.14148360164836, 6874613.711514857597649 ], [ 362542.581325919134542, 6874615.35743410140276 ], [ 362531.458719280024525, 6874617.11912044044584 ], [ 362522.7230741190142, 6874626.756841350346804 ], [ 362521.689619841985404, 6874628.950486030429602 ], [ 362507.40320934902411, 6874659.274991179816425 ], [ 362495.916361113020685, 6874683.399921989999712 ], [ 362478.569982415996492, 6874729.605613149702549 ], [ 362469.774659486021847, 6874763.253994329832494 ], [ 362458.128758698992897, 6874801.088203069753945 ], [ 362443.76584183529485, 6874849.577776618301868 ], [ 362424.180958957003895, 6874873.102813448756933 ] ] ] } },
{ "type": "Feature", "properties": { "Layer": "0", "PaperSpace": null, "SubClasses": "AcDbEntity:AcDbPolyline", "Linetype": null, "EntityHand": "20003", "Text": null, "Distancia": null, "Nome": "Rio Passo Fundo", "Distância": null, "Comp_total": 612.744 }, "geometry": { "type": "MultiLineString", "coordinates": [ [ [ 366455.178114351991098, 6873282.116258029825985 ], [ 366409.496420948009472, 6873296.103939710184932 ], [ 366377.760997808014508, 6873315.521962819620967 ], [ 366341.193610918009654, 6873349.387295779772103 ], [ 366318.616911448014434, 6873384.728434270247817 ], [ 366305.466365600994322, 6873412.26560308970511 ], [ 366282.830141396028921, 6873452.879496599547565 ], [ 366280.243317204003688, 6873475.262276640161872 ], [ 366291.60306411300553, 6873503.075551140122116 ], [ 366302.003611407999415, 6873512.421143730171025 ], [ 366339.085661684977822, 6873536.569136709906161 ], [ 366388.93247858597897, 6873567.452390390448272 ], [ 366415.584487750020344, 6873584.890915970318019 ], [ 366427.063338464999106, 6873602.158635850064456 ], [ 366436.104007492016535, 6873628.627331510186195 ], [ 366445.779485710489098, 6873656.011678149923682 ], [ 366443.693521853652783, 6873690.893629310652614 ], [ 366437.783290925843176, 6873702.714091166853905 ], [ 366434.017219137982465, 6873710.341464060358703 ], [ 366422.017605789005756, 6873727.126419596374035 ] ] ] } },
{ "type": "Feature", "properties": { "Layer": "0", "PaperSpace": null, "SubClasses": "AcDbEntity:AcDbPolyline", "Linetype": null, "EntityHand": "2000F", "Text": null, "Distancia": null, "Nome": "Rio Passo Fundo", "Distância": null, "Comp_total": 3486.828 }, "geometry": { "type": "MultiLineString", "coordinates": [ [ [ 365247.306334785069339, 6874731.383989807218313 ], [ 365236.76062861981336, 6874754.329592234455049 ], [ 365227.605565025820397, 6874766.034167208708823 ], [ 365212.656157385034021, 6874768.236017947085202 ], [ 365195.852559649210889, 6874765.107072161510587 ], [ 365169.686026947223581, 6874759.504698415286839 ], [ 365152.650655449542683, 6874758.693490248173475 ], [ 365141.17785423679743, 6874739.572154894471169 ], [ 365128.662071095604915, 6874730.648865061812103 ], [ 365123.620991774951108, 6874724.680690694600344 ], [ 365126.576107238826808, 6874722.420896516181529 ], [ 365134.108754499698989, 6874720.508762980811298 ], [ 365145.581555712327827, 6874722.015292431227863 ], [ 365151.607673521037214, 6874716.916269669309258 ], [ 365148.36284085479565, 6874699.880898172035813 ], [ 365135.939042204932775, 6874681.204970361664891 ], [ 365123.19148530199891, 6874673.788209982216358 ], [ 365096.537502686551306, 6874664.922863591462374 ], [ 365115.253233957802877, 6874640.412788271903992 ], [ 365130.434415360505227, 6874626.042815036140382 ], [ 365147.319858926523011, 6874621.193706015124917 ], [ 365150.448804711864796, 6874616.094683254137635 ], [ 365144.369812793156598, 6874600.171068866737187 ], [ 365137.93809090112336, 6874576.617060316726565 ], [ 365138.053977782081347, 6874565.83958039060235 ], [ 365132.954955020861235, 6874552.280815321020782 ], [ 365131.100764925882686, 6874545.211715584620833 ], [ 365132.491407497145701, 6874538.606163369491696 ], [ 365141.994131733954418, 6874528.871665371581912 ], [ 365154.394027994188946, 6874525.510945823974907 ], [ 365155.924459836038295, 6874521.212299485690892 ], [ 365144.080095590790734, 6874492.483184756711125 ], [ 365130.289556759293191, 6874449.605038810521364 ], [ 365106.532746167387813, 6874413.216558194719255 ], [ 365104.502359480829909, 6874393.906237849034369 ], [ 365096.566474406747147, 6874384.244837961159647 ], [ 365083.934804384654853, 6874378.79815455712378 ], [ 365083.43721581005957, 6874374.789225422777236 ], [ 365081.467138834181242, 6874369.11076825670898 ], [ 365074.62981285888236, 6874365.170614304952323 ], [ 365064.779427979257889, 6874366.561256876215339 ], [ 365051.568323552492075, 6874370.3855239469558 ], [ 365045.310431981924921, 6874372.935035327449441 ], [ 365043.919789410720114, 6874378.555549053475261 ], [ 365024.94838198821526, 6874397.484914107248187 ], [ 365006.754141681187321, 6874403.800749118439853 ], [ 364988.270184171909932, 6874409.073602201417089 ], [ 364962.83301380625926, 6874414.346455284394324 ], [ 364952.345251081569586, 6874418.866043640300632 ], [ 364946.261189832410309, 6874424.834218009375036 ], [ 364940.553760946553666, 6874426.080001979134977 ], [ 364917.955819163878914, 6874409.508178004994988 ], [ 364905.440036022744607, 6874397.919489912688732 ], [ 364892.344818476878572, 6874391.429824580438435 ], [ 364876.700089550460689, 6874385.05604612827301 ], [ 364872.354331515205558, 6874375.321548129431903 ], [ 364870.38425453932723, 6874362.921651869080961 ], [ 364877.453354276425671, 6874350.985303132794797 ], [ 364890.941953915986232, 6874333.862703509628773 ], [ 364910.973634587600827, 6874324.186461915262043 ], [ 364924.358569333155174, 6874318.768750210292637 ], [ 364934.556614855595399, 6874318.073428925126791 ], [ 364942.08926211646758, 6874313.553840568289161 ], [ 364943.798593610350508, 6874309.961347259581089 ], [ 364940.553760944108944, 6874301.733378713019192 ], [ 364930.268800263584126, 6874287.682094418443739 ], [ 364919.6458031689981, 6874273.544947340153158 ], [ 364909.275576932996046, 6874261.561722990125418 ], [ 364896.661604791937862, 6874247.005799208767712 ], [ 364876.892894177988637, 6874234.826100129634142 ], [ 364859.983406975516118, 6874225.914386877790093 ], [ 364838.138729918922763, 6874222.206006688065827 ], [ 364815.743590177968144, 6874225.392895914614201 ], [ 364798.041869114909787, 6874226.001302040182054 ], [ 364785.004595009551849, 6874227.5657749325037 ], [ 364774.256086802692153, 6874233.099373498000205 ], [ 364759.306679161847569, 6874245.788986960425973 ], [ 364751.136654055851977, 6874247.614205335266888 ], [ 364738.302181992155965, 6874243.2394755827263 ], [ 364728.60831447201781, 6874237.092575119808316 ], [ 364708.900432966009248, 6874225.002768070437014 ], [ 364688.412879749026615, 6874213.659349223598838 ], [ 364652.777663860993925, 6874199.926753833889961 ], [ 364639.276842231862247, 6874200.911792321130633 ], [ 364624.617151793383528, 6874197.666959655471146 ], [ 364617.345250014623161, 6874190.25019927509129 ], [ 364614.390134550747462, 6874185.947898819111288 ], [ 364602.656587855890393, 6874177.227411028929055 ], [ 364596.311781124619301, 6874170.100367851555347 ], [ 364592.603400934603997, 6874160.771473935805261 ], [ 364591.618362446664833, 6874147.763171549886465 ], [ 364587.156717530626338, 6874121.601708180271089 ], [ 364584.781036471424159, 6874110.940115133300424 ], [ 364584.085715185850859, 6874103.928958836942911 ], [ 364584.201602066808846, 6874095.411273088306189 ], [ 364590.343606756418012, 6874094.947725565172732 ], [ 364614.506021431763656, 6874099.23554015904665 ], [ 364627.441894516232423, 6874099.641144243068993 ], [ 364645.476790362095926, 6874102.523830405436456 ], [ 364650.315067641320638, 6874099.0182522572577 ], [ 364651.879540533991531, 6874093.108021329157054 ], [ 364648.953396790311672, 6874086.763214597478509 ], [ 364647.5337824987364, 6874077.405348962172866 ], [ 364654.023447831219528, 6874064.426018297672272 ], [ 364676.077019266027492, 6874032.14843477960676 ], [ 364690.384195256978273, 6874005.944374290294945 ], [ 364691.512853814230766, 6873995.473324140533805 ], [ 364695.33712088514585, 6873985.970599901862442 ], [ 364699.523534459003713, 6873979.987939671613276 ], [ 364704.144523836264852, 6873973.80247740354389 ], [ 364707.896361606544815, 6873964.256295584142208 ], [ 364715.863584670936689, 6873957.824573691934347 ], [ 364722.81679752713535, 6873955.043288550339639 ], [ 364731.131681234401185, 6873943.164883255958557 ], [ 364740.634405471209902, 6873935.371490512043238 ], [ 364750.948337874549907, 6873930.938817315734923 ], [ 364763.116460372926667, 6873936.55933104082942 ], [ 364774.878978788037784, 6873946.467659360729158 ], [ 364781.194813799054828, 6873945.250847111456096 ], [ 364785.679503772000317, 6873941.112341299653053 ], [ 364794.058257583063096, 6873923.92766101937741 ], [ 364796.845024320995435, 6873883.231843929737806 ], [ 364794.579748547228519, 6873850.339491625316441 ], [ 364794.927409190044273, 6873832.579827124252915 ], [ 364794.521805106720421, 6873817.079956797882915 ], [ 364788.495687297952827, 6873799.262348854914308 ], [ 364787.684479131363332, 6873777.707389001734555 ], [ 364797.592807451495901, 6873766.002814027480781 ], [ 364799.794658189290203, 6873760.556130623444915 ], [ 364797.563835731241852, 6873755.544023022055626 ], [ 364791.885378565231804, 6873748.532866723835468 ], [ 364779.717256066913251, 6873742.651607516221702 ], [ 364774.676176746201236, 6873734.916158213280141 ], [ 364774.328516103385482, 6873725.355490536428988 ], [ 364777.051857805403415, 6873717.069578549824655 ], [ 364786.902242685027886, 6873714.346236847341061 ], [ 364797.447948850109242, 6873723.327470120973885 ], [ 364806.081521479936782, 6873728.368549441918731 ], [ 364829.707959331106395, 6873719.995722292922437 ], [ 364835.256043755798601, 6873712.810735675506294 ], [ 364838.442932981764898, 6873704.293049925006926 ], [ 364834.039231506118085, 6873696.470685463398695 ], [ 364828.389746060478501, 6873691.632408183068037 ], [ 364813.150621217384469, 6873682.129683947190642 ], [ 364808.225428777572233, 6873657.96726927254349 ], [ 364810.485222955991048, 6873644.58233452308923 ], [ 364805.270313313754741, 6873635.427270929329097 ], [ 364787.945224613707978, 6873637.513234786689281 ], [ 364776.64625372242881, 6873634.210458680056036 ], [ 364766.911755723704118, 6873628.242284310981631 ], [ 364764.767848426359706, 6873614.219971718266606 ], [ 364758.278183093934786, 6873603.732208993285894 ], [ 364750.687592392554507, 6873600.081772243604064 ], [ 364742.285793524642941, 6873598.691129672341049 ], [ 364738.11386581097031, 6873601.530358254909515 ], [ 364733.710164335381705, 6873622.389996823854744 ], [ 364729.827953823958524, 6873634.963723406195641 ], [ 364722.816797527309973, 6873642.206653464585543 ], [ 364705.781426029629074, 6873646.262694297358394 ], [ 364689.093715174705721, 6873646.436524618417025 ], [ 364672.000400236516725, 6873643.597296035848558 ], [ 364635.438089300994761, 6873637.223517583683133 ], [ 364618.604231299017556, 6873646.532524270005524 ], [ 364590.821640140376985, 6873654.374775962904096 ], [ 364559.416295406583231, 6873670.135391771793365 ], [ 364540.87439445668133, 6873686.359555102884769 ], [ 364530.448659584973939, 6873699.579506579786539 ], [ 364516.156492859008722, 6873724.465230610221624 ], [ 364504.30402357497951, 6873740.150178610347211 ], [ 364480.03378196497215, 6873754.385154210031033 ], [ 364462.41897606261773, 6873746.852506949566305 ], [ 364456.56958609900903, 6873729.058373929932714 ], [ 364443.935018553340342, 6873699.367857486009598 ], [ 364437.908900744630955, 6873688.735236159525812 ], [ 364433.215482066792902, 6873678.65307751763612 ], [ 364428.217815870011691, 6873656.224785390309989 ], [ 364421.974454615963623, 6873628.879662157967687 ], [ 364413.862372950417921, 6873617.928351908922195 ], [ 364398.333530904958025, 6873611.670460338704288 ], [ 364398.277604671020526, 6873620.287088859826326 ], [ 364392.568158578418661, 6873624.070356598123908 ], [ 364378.690704586391803, 6873633.746911155059934 ], [ 364324.021068504545838, 6873678.595134075731039 ], [ 364310.056699351698626, 6873698.81739480048418 ], [ 364290.703590235265438, 6873712.028499227948487 ], [ 364268.90237075893674, 6873721.574681044556201 ], [ 364248.361421113251708, 6873722.878408459015191 ], [ 364235.903581412567291, 6873722.704578137025237 ], [ 364224.283241300028749, 6873727.721967030316591 ], [ 364219.737361521983985, 6873752.69030857924372 ], [ 364228.892425115976948, 6873767.523829339072108 ], [ 364242.161472983192652, 6873777.953648623079062 ], [ 364260.955104683991522, 6873787.467635150067508 ], [ 364288.863886000646744, 6873795.39462420437485 ], [ 364298.250723356555682, 6873796.843210217542946 ], [ 364322.934628996124957, 6873795.133878722786903 ], [ 364344.055013046774548, 6873801.391770293936133 ], [ 364360.626837020798121, 6873820.31030360609293 ], [ 364367.319304394943174, 6873841.488631096668541 ], [ 364380.993956345366314, 6873868.635132955387235 ], [ 364368.854805567360017, 6873889.842432167381048 ], [ 364359.512623174930923, 6873909.607197755947709 ], [ 364356.223135544627439, 6873927.650527073070407 ], [ 364363.408122163091321, 6873952.218545832671225 ], [ 364357.961438758706208, 6873979.799623494967818 ], [ 364358.714703484904021, 6873999.036845732480288 ], [ 364363.779685193498153, 6874027.823903899639845 ], [ 364338.748118911171332, 6874035.240664279088378 ], [ 364309.776398677029647, 6874043.816293468698859 ], [ 364275.242108157952316, 6874044.511614753864706 ], [ 364246.449135004018899, 6874035.153451849706471 ], [ 364223.164994868973736, 6874029.613751290366054 ], [ 364181.41645071702078, 6874005.405642280355096 ], [ 364171.167846834985539, 6873982.876274810172617 ], [ 364166.755409253004473, 6873960.413676610216498 ], [ 364156.386202135006897, 6873948.429749060422182 ], [ 364143.66746437700931, 6873937.737360379658639 ], [ 364131.860227515979204, 6873930.890694069676101 ], [ 364129.751490781025495, 6873929.667908060364425 ], [ 364105.405953899025917, 6873914.887301390059292 ], [ 364085.035521889105439, 6873899.283624138683081 ], [ 364060.699276892410126, 6873880.973496950231493 ], [ 364043.779792275687214, 6873871.35488583240658 ], [ 364026.744420778006315, 6873858.723215809091926 ], [ 364007.623085423430894, 6873842.846713121049106 ], [ 363989.681662698974833, 6873826.550092340447009 ], [ 363973.356783317925874, 6873816.678006831556559 ], [ 363960.609226414933801, 6873803.930449928157032 ] ] ] } },
{ "type": "Feature", "properties": { "Layer": "0", "PaperSpace": null, "SubClasses": "AcDbEntity:AcDbPolyline", "Linetype": null, "EntityHand": "20021", "Text": null, "Distancia": null, "Nome": "Rio Passo Fundo", "Distância": null, "Comp_total": 319.397 }, "geometry": { "type": "MultiLineString", "coordinates": [ [ [ 361431.04123010794865, 6876545.585023650899529 ], [ 361424.844828245521057, 6876539.582259346731007 ], [ 361425.232103361922782, 6876529.997200215235353 ], [ 361429.879404758743476, 6876521.573966433294117 ], [ 361430.266679875145201, 6876513.634826547466218 ], [ 361422.52117754711071, 6876504.243404974229634 ], [ 361417.777057371160481, 6876499.886559913866222 ], [ 361408.676092135661747, 6876499.450875408016145 ], [ 361398.752167277911212, 6876503.275217182002962 ], [ 361381.470015208469704, 6876498.192231279797852 ], [ 361370.52949317015009, 6876490.011044443584979 ], [ 361368.205842471914366, 6876477.473012547940016 ], [ 361371.013587065797765, 6876456.463337481021881 ], [ 361382.147746662376449, 6876439.423232359811664 ], [ 361383.551618959114421, 6876429.886582619510591 ], [ 361380.647055586101487, 6876419.430154476314783 ], [ 361363.800588022684678, 6876391.159070979803801 ], [ 361355.837243441783357, 6876388.641782724298537 ], [ 361340.975560849881731, 6876402.12379771284759 ], [ 361317.932691423920915, 6876428.458505627699196 ], [ 361296.172670820902567, 6876455.446740305051208 ], [ 361279.519840815628413, 6876475.391408799216151 ], [ 361265.771574183367193, 6876465.225436993874609 ], [ 361255.896058715123218, 6876457.964028561487794 ], [ 361251.732851213775575, 6876447.217144081369042 ], [ 361235.467296324903145, 6876434.533884019590914 ], [ 361211.262601549737155, 6876437.244809834286571 ], [ 361202.064817535167094, 6876445.474406057968736 ], [ 361195.190684219065588, 6876456.802203212864697 ], [ 361201.967998756095767, 6876463.482698970474303 ], [ 361213.8767085854779, 6876468.904550600796938 ], [ 361229.174075683346018, 6876475.2945900214836 ], [ 361238.371859697916079, 6876480.813260428607464 ], [ 361234.208652196568437, 6876517.99167160410434 ], [ 361230.239082253421657, 6876535.999964516609907 ], [ 361228.496344229613896, 6876553.717801092192531 ], [ 361221.525392134382855, 6876577.34158319234848 ] ] ] } },
{ "type": "Feature", "properties": { "Layer": "0", "PaperSpace": null, "SubClasses": "AcDbEntity:AcDbPolyline", "Linetype": null, "EntityHand": "2001D", "Text": null, "Distancia": null, "Nome": "Rio Passo Fundo", "Distância": null, "Comp_total": 823.344 }, "geometry": { "type": "MultiLineString", "coordinates": [ [ [ 360679.763811330369208, 6876323.627972555346787 ], [ 360675.842650776787195, 6876321.304321857169271 ], [ 360663.353028272860684, 6876312.687450516968966 ], [ 360646.956378419999965, 6876288.577097070403397 ], [ 360638.131736317183822, 6876269.748321985825896 ], [ 360625.642113813199103, 6876256.580968027003109 ], [ 360599.016949560551438, 6876238.669493893161416 ], [ 360591.949178686190862, 6876234.312648835591972 ], [ 360587.301877289370168, 6876223.178489238955081 ], [ 360586.914602172968443, 6876210.10795405972749 ], [ 360592.917366477195174, 6876202.846545627340674 ], [ 360603.76106973644346, 6876198.005606671795249 ], [ 360604.971304475271609, 6876192.777392599731684 ], [ 360601.969922323187348, 6876185.806440504267812 ], [ 360593.546688541420735, 6876176.318200152367353 ], [ 360589.189843481930438, 6876168.088603929616511 ], [ 360589.189843481930438, 6876160.536739159375429 ], [ 360591.126219063939061, 6876155.502162646502256 ], [ 360598.678083833772689, 6876151.435773923993111 ], [ 360613.781813373439945, 6876145.917103513143957 ], [ 360634.113756984530482, 6876139.720701650716364 ], [ 360659.770733446173836, 6876129.36109228990972 ], [ 360686.008622582419775, 6876120.93785850610584 ], [ 360695.980956829735078, 6876113.870087631046772 ], [ 360699.466432877408806, 6876103.026384372264147 ], [ 360695.109587817860302, 6876093.247687683440745 ], [ 360691.043199095642194, 6876084.533997563645244 ], [ 360675.649013218644541, 6876082.888078318908811 ], [ 360666.257591645873617, 6876073.206200408749282 ], [ 360660.061189783446025, 6876057.521558194421232 ], [ 360641.641417059581727, 6876029.419907559640706 ], [ 360628.425653712300118, 6876023.296119781211019 ], [ 360615.839212429244071, 6876008.095571462996304 ], [ 360605.576421844598372, 6876005.868739543482661 ], [ 360590.763148642203305, 6876011.96832262724638 ], [ 360582.727189976896625, 6876015.647436230443418 ], [ 360573.723043520527426, 6876006.5464709950611 ], [ 360571.108936484844889, 6875996.18686163239181 ], [ 360574.013499857857823, 6875988.441359303891659 ], [ 360593.667712015274446, 6875969.658516158349812 ], [ 360601.703670680522919, 6875963.849389410577714 ], [ 360605.576421844598372, 6875956.781618536449969 ], [ 360600.445026552246418, 6875950.004303999245167 ], [ 360590.375873525859788, 6875942.646076788194478 ], [ 360569.608245408686344, 6875928.655763209797442 ], [ 360547.533563773788046, 6875908.178591429255903 ], [ 360529.186405134329107, 6875904.402659040875733 ], [ 360520.56953379441984, 6875907.016766076907516 ], [ 360519.117252107884269, 6875920.37775759305805 ], [ 360518.149064316938166, 6875931.511917190626264 ], [ 360513.211306582787074, 6875947.583834521472454 ], [ 360504.497616463748273, 6875956.491162198595703 ], [ 360490.652531052415725, 6875957.556168767623603 ], [ 360469.739674766722601, 6875951.747042021714151 ], [ 360458.218240053742193, 6875939.547875855118036 ], [ 360443.017691734945402, 6875924.928240210749209 ], [ 360434.497639174049255, 6875912.535436485894024 ], [ 360437.014927430660464, 6875904.596296600066125 ], [ 360448.245905806310475, 6875901.982189564034343 ], [ 360459.476884182018694, 6875902.079008342698216 ], [ 360468.190574301057495, 6875902.079008342698216 ], [ 360472.160144244146068, 6875899.7553576445207 ], [ 360474.871070058958139, 6875891.428942641243339 ], [ 360473.418788372422569, 6875879.90750792901963 ], [ 360471.095137674012221, 6875872.162005601450801 ], [ 360463.736910462379456, 6875867.901979320682585 ], [ 360453.183663540403359, 6875867.321066645905375 ] ] ] } },
{ "type": "Feature", "properties": { "Layer": "0", "PaperSpace": null, "SubClasses": "AcDbEntity:AcDbPolyline", "Linetype": null, "EntityHand": "20004", "Text": null, "Distancia": null, "Nome": "Rio Passo Fundo", "Distância": null, "Comp_total": 755.812 }, "geometry": { "type": "MultiLineString", "coordinates": [ [ [ 366918.412769382994156, 6873745.77195899002254 ], [ 366897.758157545991708, 6873713.899997649714351 ], [ 366859.507333209970966, 6873689.74084027018398 ], [ 366817.66638230899116, 6873673.451255200430751 ], [ 366797.27853968902491, 6873617.851906560361385 ], [ 366808.404272386978846, 6873562.606293139979243 ], [ 366826.355515317991376, 6873523.257231109775603 ], [ 366823.342114345985465, 6873479.717989250086248 ], [ 366785.314142560004257, 6873435.78578971978277 ], [ 366729.690356705978047, 6873399.565985609777272 ], [ 366680.847696017008275, 6873383.197228119708598 ], [ 366635.417835613014176, 6873374.776829579845071 ], [ 366562.243088287999853, 6873342.31391020026058 ], [ 366513.534298567974474, 6873314.080889940261841 ], [ 366455.178114351991098, 6873282.116258029825985 ] ] ] } },
{ "type": "Feature", "properties": { "Layer": "0", "PaperSpace": null, "SubClasses": "AcDbEntity:AcDbPolyline", "Linetype": null, "EntityHand": "20043", "Text": null, "Distancia": null, "Nome": "Rio Passo Fundo", "Distância": null, "Comp_total": 126.095 }, "geometry": { "type": "MultiLineString", "coordinates": [ [ [ 359291.084974743134808, 6877206.173715104348958 ], [ 359290.273766576545313, 6877216.835308149456978 ], [ 359291.72235258820001, 6877225.468880779109895 ], [ 359299.023226087272633, 6877230.857620744965971 ], [ 359302.383945634472184, 6877233.870679649524391 ], [ 359308.062402800482232, 6877237.05756887793541 ], [ 359314.262350930541288, 6877237.289342638105154 ], [ 359316.464201668393798, 6877242.851912924088538 ], [ 359317.159522954025306, 6877248.414483209140599 ], [ 359310.322196978784632, 6877252.818184683099389 ], [ 359307.540911836200394, 6877260.003171302378178 ], [ 359304.064305408101063, 6877264.175099016167223 ] ] ] } },
{ "type": "Feature", "properties": { "Layer": "0", "PaperSpace": null, "SubClasses": "AcDbEntity:AcDbPolyline", "Linetype": null, "EntityHand": "2001C", "Text": null, "Distancia": null, "Nome": "Rio Passo Fundo", "Distância": null, "Comp_total": 1174.63 }, "geometry": { "type": "MultiLineString", "coordinates": [ [ [ 360453.183663540403359, 6875867.321066645905375 ], [ 360430.431250451831147, 6875875.163387753069401 ], [ 360414.068876783829182, 6875883.296165198087692 ], [ 360401.772891838045325, 6875907.210403635166585 ], [ 360388.799175438587554, 6875916.698643987067044 ], [ 360375.438183922728058, 6875913.213167939335108 ], [ 360359.753541708458215, 6875893.462137002497911 ], [ 360356.655340777244419, 6875877.583857229910791 ], [ 360360.334454383060802, 6875862.86740280687809 ], [ 360356.655340777302627, 6875858.994651643559337 ], [ 360348.909838449326344, 6875857.058276060968637 ], [ 360341.067517342162319, 6875860.64057088829577 ], [ 360333.709290130529553, 6875869.741536123678088 ], [ 360322.187855417607352, 6875872.065186821855605 ], [ 360308.778454512008466, 6875875.502253479324281 ], [ 360295.707919333479367, 6875881.79547412134707 ], [ 360289.656745639804285, 6875887.701419646851718 ], [ 360289.463108081603423, 6875897.189659998752177 ], [ 360300.597267678182106, 6875916.456597039476037 ], [ 360316.766003787983209, 6875925.751199833117425 ], [ 360331.192001873976551, 6875938.821735012345016 ], [ 360330.030176524771377, 6875948.697250480763614 ], [ 360324.414687336888164, 6875969.513287986628711 ], [ 360325.576512686093338, 6875981.131541478447616 ], [ 360332.87869836302707, 6875989.572379070334136 ], [ 360342.665027197217569, 6876000.398478520102799 ], [ 360357.671937957813498, 6876007.563068172894418 ], [ 360368.515641217119992, 6876015.69584561791271 ], [ 360373.162942613940686, 6876024.603173295035958 ], [ 360372.872486276610289, 6876034.38186998385936 ], [ 360372.339982991572469, 6876037.334842745214701 ], [ 360369.387010228994768, 6876037.383252136409283 ], [ 360364.352433715772349, 6876035.73733289167285 ], [ 360356.510112608666532, 6876034.57550754211843 ], [ 360332.837921118596569, 6876041.449640856124461 ], [ 360294.594503373955376, 6876066.525704643689096 ], [ 360273.391190750873648, 6876081.290568456053734 ], [ 360253.785387983021792, 6876100.412277328781784 ], [ 360238.439611495647114, 6876120.405355214141309 ], [ 360228.175265717844013, 6876127.006108114495873 ], [ 360216.00714321952546, 6876142.534950159490108 ], [ 360207.431514030206017, 6876150.994692468084395 ], [ 360198.50822419807082, 6876154.818959538824856 ], [ 360189.237273723178077, 6876148.329294206574559 ], [ 360184.744521723245271, 6876140.095874419435859 ], [ 360179.386888843553606, 6876118.894026448018849 ], [ 360181.125192057632376, 6876103.133410640992224 ], [ 360178.923341319838073, 6876088.995211166329682 ], [ 360172.254899219260551, 6876074.162285852245986 ], [ 360147.054449062328786, 6876072.655160954222083 ], [ 360112.983706066966988, 6876076.595314905978739 ], [ 360063.84766854980262, 6876096.06431090272963 ], [ 360015.406952318327967, 6876099.30914356932044 ], [ 359996.633277606568299, 6876101.858654949814081 ], [ 359973.687675181136001, 6876103.944618806242943 ], [ 359947.72901385120349, 6876101.800711507909 ], [ 359931.041302996338345, 6876093.572742963209748 ], [ 359927.796470330096781, 6876083.838244964368641 ], [ 359925.478732711519115, 6876075.204672333784401 ], [ 359920.147936188441236, 6876067.324364430271089 ], [ 359912.2676282847533, 6876065.470174335874617 ], [ 359895.116369906114414, 6876071.496292144060135 ], [ 359859.30732369661564, 6876091.834439747966826 ], [ 359830.509433783881832, 6876092.355930713005364 ], [ 359820.832879225665238, 6876093.167138879187405 ], [ 359818.283367844996974, 6876100.815673020668328 ], [ 359817.008612154691946, 6876111.245492304675281 ], [ 359821.644087392138317, 6876120.284669018350542 ], [ 359830.683264105231501, 6876129.903280135244131 ], [ 359834.623418057046365, 6876135.929397944360971 ], [ 359835.608456545043737, 6876141.781685432419181 ], [ 359834.855191818962339, 6876147.286312276497483 ], [ 359826.974883915216196, 6876155.108676739968359 ], [ 359812.77874100045301, 6876161.830115835182369 ], [ 359802.001261073339265, 6876165.306722262874246 ], [ 359781.779000349866692, 6876161.424511752091348 ], [ 359774.362239969952498, 6876161.018907668069005 ], [ 359768.278178720793221, 6876166.349704191088676 ], [ 359764.685685411794111, 6876175.678598107770085 ], [ 359763.295042840531096, 6876193.699008092284203 ], [ 359750.31571217556484, 6876247.992011812515557 ] ] ] } },
{ "type": "Feature", "properties": { "Layer": "0", "PaperSpace": null, "SubClasses": "AcDbEntity:AcDbPolyline", "Linetype": null, "EntityHand": "20012", "Text": null, "Distancia": null, "Nome": "Rio Passo Fundo", "Distância": null, "Comp_total": 114.891 }, "geometry": { "type": "MultiLineString", "coordinates": [ [ [ 362424.180958957003895, 6874873.102813448756933 ], [ 362409.832714511023369, 6874884.872574794106185 ], [ 362380.918937717331573, 6874895.360337518155575 ], [ 362347.022025043319445, 6874903.24064542260021 ], [ 362331.435239557351451, 6874912.685426218435168 ], [ 362321.237194034969434, 6874915.292881039902568 ], [ 362313.125112369365525, 6874913.380747504532337 ] ] ] } },
{ "type": "Feature", "properties": { "Layer": "0", "PaperSpace": null, "SubClasses": "AcDbEntity:AcDbPolyline", "Linetype": null, "EntityHand": "20023", "Text": null, "Distancia": null, "Nome": "Rio Passo Fundo", "Distância": null, "Comp_total": 291.572 }, "geometry": { "type": "MultiLineString", "coordinates": [ [ [ 359457.296624951879494, 6876531.848859353922307 ], [ 359434.350574305048212, 6876539.691180461086333 ], [ 359417.213650404242799, 6876551.091591699980199 ], [ 359412.78419126040535, 6876566.122707155533135 ], [ 359418.302861669100821, 6876579.193242333829403 ], [ 359415.398298296146095, 6876587.180791611783206 ], [ 359397.825689889374189, 6876596.620622574351728 ], [ 359376.477149097714573, 6876607.657963392324746 ], [ 359356.871346329862718, 6876610.126842259429395 ], [ 359324.485464720753953, 6876611.869580282829702 ], [ 359310.107876024325378, 6876616.371653511188924 ], [ 359298.053938026307151, 6876626.610239399597049 ], [ 359289.122405654401518, 6876635.251315432600677 ], [ 359288.541492979798932, 6876648.321850611828268 ], [ 359293.914935219858307, 6876658.342594248242676 ], [ 359302.338169001624919, 6876665.023090006783605 ], [ 359306.788434709014837, 6876673.923751410096884 ], [ 359311.515681972028688, 6876678.128692460246384 ] ] ] } },
{ "type": "Feature", "properties": { "Layer": "0", "PaperSpace": null, "SubClasses": "AcDbEntity:AcDbPolyline", "Linetype": null, "EntityHand": "20020", "Text": null, "Distancia": null, "Nome": "Rio Passo Fundo", "Distância": null, "Comp_total": 401.647 }, "geometry": { "type": "MultiLineString", "coordinates": [ [ [ 359750.31571217556484, 6876247.992011812515557 ], [ 359723.645086257194635, 6876258.311603701673448 ], [ 359702.732229971501511, 6876270.655998035334051 ], [ 359690.387835636211094, 6876289.390431791543961 ], [ 359680.802776505239308, 6876305.510758511722088 ], [ 359641.736399138171691, 6876343.270082360133529 ], [ 359596.134754181897733, 6876396.278363918885589 ], [ 359575.740276522003114, 6876430.215823509730399 ], [ 359565.030426757992245, 6876447.228229979984462 ], [ 359547.192861346586142, 6876469.76381725538522 ], [ 359533.541413493396249, 6876485.012774963863194 ], [ 359506.964658630313352, 6876506.65177209302783 ], [ 359487.504084031272214, 6876518.124797416850924 ], [ 359468.479193937964737, 6876527.637242463417351 ], [ 359457.296624951879494, 6876531.848859353922307 ] ] ] } },
{ "type": "Feature", "properties": { "Layer": "0", "PaperSpace": null, "SubClasses": "AcDbEntity:AcDbPolyline", "Linetype": null, "EntityHand": "20022", "Text": null, "Distancia": null, "Nome": "Rio Passo Fundo", "Distância": null, "Comp_total": 873.885 }, "geometry": { "type": "MultiLineString", "coordinates": [ [ [ 361221.525392134382855, 6876577.34158319234848 ], [ 361217.65264097036561, 6876582.472978484816849 ], [ 361208.164400618523359, 6876582.569797263480723 ], [ 361193.73840253247181, 6876570.176993537694216 ], [ 361188.510188461048529, 6876576.567032958380878 ], [ 361182.313786598620936, 6876587.604373775422573 ], [ 361179.360813836043235, 6876594.96260098554194 ], [ 361161.788205429329537, 6876599.803539942018688 ], [ 361139.519886236230377, 6876616.650007505901158 ], [ 361117.977707886369899, 6876616.262732388451695 ], [ 361095.903026251413394, 6876614.326356805860996 ], [ 361076.442451652255841, 6876614.713631923310459 ], [ 361066.760573742212728, 6876620.038664774037898 ], [ 361059.111890193249565, 6876629.333267567679286 ], [ 361049.236374724947382, 6876632.141012161970139 ], [ 361027.936243322852533, 6876630.398274138569832 ], [ 361007.425660697976127, 6876615.800991370342672 ], [ 360987.732469883980229, 6876602.386894670315087 ], [ 360966.810270618007053, 6876594.231966810300946 ], [ 360949.367804082867224, 6876588.136877060867846 ], [ 360944.865730854740832, 6876581.093310881406069 ], [ 360953.361578720796388, 6876575.792482725344598 ], [ 360958.930930087983143, 6876569.090639090165496 ], [ 360963.164480104635004, 6876552.05977949872613 ], [ 360962.075268839776982, 6876542.135854639112949 ], [ 360956.701826599775814, 6876533.930463110096753 ], [ 360937.58011772739701, 6876522.384823702275753 ], [ 360923.340546364022885, 6876517.257522369734943 ], [ 360896.534803360991646, 6876512.988619269803166 ], [ 360870.049019304802641, 6876504.158688536845148 ], [ 360881.764091575925704, 6876487.312220973894 ], [ 360888.928681229357608, 6876478.501712075434625 ], [ 360900.280683078919537, 6876471.167689558118582 ], [ 360922.912072693638038, 6876459.331593814305961 ], [ 360928.140286765061319, 6876454.611678333953023 ], [ 360928.721199439663906, 6876448.754142197780311 ], [ 360912.560682907002047, 6876440.665574779734015 ], [ 360901.12784739601193, 6876431.907674634829164 ], [ 360889.219137566629797, 6876422.371024894528091 ], [ 360881.376816459465772, 6876416.513488761149347 ], [ 360850.830491653236095, 6876410.365496288053691 ], [ 360832.434923624212388, 6876400.925665324553847 ], [ 360812.490255129581783, 6876390.420827788300812 ], [ 360802.324283323949203, 6876385.047385550104082 ], [ 360799.371310561371502, 6876378.415299181826413 ], [ 360803.631336841790471, 6876372.896628773771226 ], [ 360818.686656992009375, 6876363.795663536526263 ], [ 360823.237139609758742, 6876357.98653679061681 ], [ 360824.011689842562191, 6876347.046014752238989 ], [ 360814.450835406372789, 6876345.472709592431784 ], [ 360800.073246709944215, 6876344.21406546421349 ], [ 360786.688050499302335, 6876345.811575319617987 ], [ 360779.934940657112747, 6876353.411849479191005 ], [ 360774.319451469287742, 6876372.53355835005641 ], [ 360765.363714402425103, 6876387.153193994425237 ], [ 360755.730245881946757, 6876395.915293502621353 ], [ 360740.965382069232874, 6876373.985840036533773 ], [ 360732.544911028002389, 6876358.13618266955018 ], [ 360725.958471308636945, 6876340.68018002435565 ], [ 360725.57119619223522, 6876327.996919962577522 ], [ 360726.539383983239532, 6876316.765941587276757 ], [ 360716.663868514995556, 6876317.153216702863574 ], [ 360693.52418031002162, 6876325.673269263468683 ], [ 360679.763811330369208, 6876323.627972555346787 ] ] ] } }
]
}
