{
"type": "FeatureCollection",
"name": "Rodovia Estadual",
"crs": { "type": "name", "properties": { "name": "urn:ogc:def:crs:EPSG::31982" } },
"features": [
{ "type": "Feature", "properties": { "codTrechoR": "135ERS0010", "concession": null, "nrFaixas": 0, "nome": "ERS-135", "d_geometri": null, "d_tipoTrec": "Rodovia", "d_jurisdic": "Estadual", "d_administ": null, "d_revestim": "Pavimentado", "d_situacao": null, "d_trafego": null }, "geometry": { "type": "MultiLineString", "coordinates": [ [ [ 366324.950131190242246, 6872536.638978397473693 ], [ 366542.385149733861908, 6872808.260759795084596 ], [ 366592.680561602814123, 6872874.505184181965888 ], [ 366759.34392304928042, 6873094.01138255186379 ], [ 366920.740030178334564, 6873340.074373193085194 ], [ 367013.344442673958838, 6873480.303830755874515 ], [ 367047.740375712979585, 6873620.533243902027607 ], [ 367043.492179615655914, 6873663.546801306307316 ], [ 367026.573573002649937, 6873834.846220785751939 ], [ 367015.554746404464822, 6873935.120307140052319 ], [ 366973.656807885156013, 6874316.388788566924632 ] ] ] } },
{ "type": "Feature", "properties": { "codTrechoR": "324ERS0130", "concession": null, "nrFaixas": 0, "nome": "ERS-324", "d_geometri": null, "d_tipoTrec": "Rodovia", "d_jurisdic": "Estadual", "d_administ": null, "d_revestim": "Pavimentado", "d_situacao": null, "d_trafego": null }, "geometry": { "type": "MultiLineString", "coordinates": [ [ [ 356956.720022563240491, 6874066.093993817456067 ], [ 356952.432004736620001, 6874088.207919539883733 ], [ 356925.927683482412249, 6874137.084731170907617 ], [ 356771.326456350914668, 6874269.499570768326521 ], [ 356709.320462589384988, 6874321.225428141653538 ], [ 356665.160882156458683, 6874358.063204014673829 ], [ 356505.107099494314753, 6874547.039233818650246 ], [ 356387.307718366850168, 6874736.792935670353472 ], [ 356254.68520809803158, 6874962.640426194295287 ], [ 356167.858233078150079, 6875110.495887637138367 ], [ 356099.093709498876706, 6875270.966471947729588 ], [ 355988.26105026435107, 6875586.625836001709104 ], [ 355928.658504493301734, 6875709.260572876781225 ], [ 355916.13137269706931, 6875735.035250609740615 ], [ 355825.936840042471886, 6875874.618145236745477 ], [ 355741.78294873109553, 6875945.774828852154315 ], [ 355614.252237366396002, 6876012.135042091831565 ], [ 355512.285523053782526, 6876042.757991948164999 ], [ 355342.892333233379759, 6876100.432026790454984 ], [ 355250.85986219678307, 6876141.34786647092551 ], [ 355111.688280951289926, 6876238.719750830903649 ] ] ] } },
{ "type": "Feature", "properties": { "codTrechoR": "153RSC1690", "concession": null, "nrFaixas": 0, "nome": null, "d_geometri": null, "d_tipoTrec": "Acesso", "d_jurisdic": "Estadual", "d_administ": null, "d_revestim": "Pavimentado", "d_situacao": null, "d_trafego": null }, "geometry": { "type": "MultiLineString", "coordinates": [ [ [ 356784.131807779602241, 6869231.393245283514261 ], [ 356530.682322362379637, 6868983.685086909681559 ], [ 356433.837015325785615, 6868890.051753556355834 ], [ 356368.706767235300504, 6868812.517462378367782 ], [ 356353.556689590564929, 6868794.107169384136796 ], [ 356272.732426307513379, 6868685.373577007092535 ], [ 356196.446305807796307, 6868561.042487074621022 ], [ 356133.446767021436244, 6868424.684118276461959 ], [ 355998.971430591540411, 6868163.048741139471531 ], [ 355839.701447911327705, 6867953.298799538984895 ], [ 355799.15873134881258, 6867918.972043721005321 ], [ 355736.213217361364514, 6867865.676498482935131 ], [ 355717.139603552175686, 6867844.605396529659629 ], [ 355649.122071525896899, 6867768.963616156950593 ], [ 355594.754452971334103, 6867699.539873607456684 ], [ 355524.560247042041738, 6867534.367444379255176 ], [ 355414.718094897572882, 6867226.545813189819455 ], [ 355305.951761333504692, 6867022.023648377507925 ], [ 355251.012599036097527, 6866920.869895312935114 ], [ 355246.300660410895944, 6866904.716426014900208 ] ] ] } },
{ "type": "Feature", "properties": { "codTrechoR": "324ERS0110", "concession": null, "nrFaixas": 0, "nome": "ERS-324", "d_geometri": null, "d_tipoTrec": "Rodovia", "d_jurisdic": "Estadual", "d_administ": null, "d_revestim": "Pavimentado", "d_situacao": null, "d_trafego": null }, "geometry": { "type": "MultiLineString", "coordinates": [ [ [ 349163.836227328749374, 6884513.923236414790154 ], [ 349047.41928017011378, 6884637.748410815373063 ], [ 348964.680861512431875, 6884727.606622856110334 ], [ 348912.366586250020191, 6884784.421589372679591 ], [ 348890.518465795146767, 6884830.771431852132082 ], [ 348862.516430190880783, 6884938.000512173399329 ], [ 348850.61828477011295, 6884991.641695287078619 ], [ 348849.930957698030397, 6885045.851441770792007 ], [ 348849.735799939429853, 6885061.243765777908266 ], [ 348850.536187736666761, 6885108.717475746758282 ], [ 348821.971571405883878, 6885260.238725397735834 ], [ 348795.749182477709837, 6885448.178272998891771 ], [ 348785.212380779790692, 6885505.000840364024043 ], [ 348770.669751252862625, 6885545.951484793797135 ], [ 348739.161319089704193, 6885597.761804653331637 ], [ 348703.406175203621387, 6885652.68223767913878 ], [ 348671.817466964712366, 6885721.827267025597394 ], [ 348602.587697631446645, 6885843.192549208179116 ], [ 348508.660389387281612, 6886027.078337248414755 ], [ 348484.501795973163098, 6886073.313230024650693 ], [ 348431.931121804693248, 6886173.922371020540595 ], [ 348397.118122372077778, 6886271.918893963098526 ], [ 348390.95116702944506, 6886297.601537914015353 ], [ 348377.220538804773241, 6886348.054874019697309 ], [ 348362.152878194581717, 6886430.133553102612495 ], [ 348363.298456656630151, 6886487.104349846020341 ], [ 348348.994826711597852, 6886509.072203887626529 ], [ 348318.910919641610235, 6886565.086402159184217 ], [ 348283.205249443068169, 6886609.491241386160254 ], [ 348242.565233538392931, 6886643.780929056927562 ], [ 348210.217767346242908, 6886687.668667448684573 ], [ 348181.730040602851659, 6886722.112797277979553 ], [ 348146.671578749432229, 6886758.582753890193999 ], [ 348108.90235200105235, 6886787.634752860292792 ], [ 348061.663741181255318, 6886826.05891946144402 ], [ 348028.746849948249292, 6886870.701285559684038 ] ] ] } },
{ "type": "Feature", "properties": { "codTrechoR": "324ERS0150", "concession": null, "nrFaixas": 0, "nome": "ERS-324", "d_geometri": null, "d_tipoTrec": "Rodovia", "d_jurisdic": "Estadual", "d_administ": null, "d_revestim": "Pavimentado", "d_situacao": null, "d_trafego": null }, "geometry": { "type": "MultiLineString", "coordinates": [ [ [ 358667.351383529487066, 6871973.676280496641994 ], [ 358788.164284460130148, 6871826.757104637101293 ], [ 358866.271490160841495, 6871728.942235296592116 ], [ 359025.688867792254314, 6871529.295040667057037 ], [ 359121.349703756393865, 6871430.345558336004615 ], [ 359393.815086083021015, 6871236.872349045239389 ], [ 359485.782261419750284, 6871171.565179569646716 ], [ 359503.707924983231351, 6871154.087600176222622 ], [ 359519.026683812611736, 6871145.408915568143129 ], [ 359530.199875607388094, 6871139.078465528786182 ] ] ] } },
{ "type": "Feature", "properties": { "codTrechoR": "324ERS0170", "concession": null, "nrFaixas": 0, "nome": "ERS-324", "d_geometri": null, "d_tipoTrec": "Rodovia", "d_jurisdic": "Estadual", "d_administ": null, "d_revestim": "Pavimentado", "d_situacao": null, "d_trafego": null }, "geometry": { "type": "MultiLineString", "coordinates": [ [ [ 368168.966799798887223, 6869353.372772689908743 ], [ 368079.06598852208117, 6869434.148188350722194 ], [ 367944.878250498033594, 6869554.711999725550413 ], [ 367858.974636095343158, 6869623.324623063206673 ], [ 367824.330625935399439, 6869650.994783997535706 ], [ 367795.046921233006287, 6869664.787324460223317 ], [ 367748.832719023455866, 6869687.237012527883053 ], [ 367728.162309189676307, 6869693.322660314850509 ], [ 367489.749595680856146, 6869747.119801345281303 ], [ 367342.167741387267597, 6869796.09348130133003 ], [ 366984.116803644574247, 6869882.25592677667737 ], [ 366880.889806110062636, 6869906.557973151095212 ], [ 366541.069960774679203, 6870013.070870502851903 ], [ 366462.75293501385022, 6870032.580088752321899 ] ] ] } },
{ "type": "Feature", "properties": { "codTrechoR": "324ERS0170", "concession": null, "nrFaixas": 0, "nome": "ERS-324", "d_geometri": null, "d_tipoTrec": "Rodovia", "d_jurisdic": "Estadual", "d_administ": null, "d_revestim": "Pavimentado", "d_situacao": null, "d_trafego": null }, "geometry": { "type": "MultiLineString", "coordinates": [ [ [ 377397.213775910146069, 6859665.714584832079709 ], [ 377359.373990390158724, 6859709.440543817356229 ], [ 377339.809936170931906, 6859729.366899093613029 ] ] ] } },
{ "type": "Feature", "properties": { "codTrechoR": "153RSC1690", "concession": null, "nrFaixas": 0, "nome": "RSC-153", "d_geometri": null, "d_tipoTrec": "Acesso", "d_jurisdic": "Estadual", "d_administ": null, "d_revestim": "Pavimentado", "d_situacao": null, "d_trafego": null }, "geometry": { "type": "MultiLineString", "coordinates": [ [ [ 352701.760853240499273, 6861529.077638451009989 ], [ 352652.516592328785919, 6861448.691905295476317 ], [ 352622.538984066573903, 6861401.183893740177155 ], [ 352527.065164873143658, 6861280.110279647633433 ], [ 352296.462697485752869, 6861069.821622282266617 ], [ 351997.955916404200252, 6860802.435245094820857 ], [ 351988.609436978469603, 6860794.062840895727277 ] ] ] } },
{ "type": "Feature", "properties": { "codTrechoR": "324ERS0170", "concession": null, "nrFaixas": 0, "nome": null, "d_geometri": null, "d_tipoTrec": "Rodovia", "d_jurisdic": "Estadual", "d_administ": null, "d_revestim": "Pavimentado", "d_situacao": null, "d_trafego": null }, "geometry": { "type": "MultiLineString", "coordinates": [ [ [ 377339.809936170931906, 6859729.366899093613029 ], [ 377302.223854603769723, 6859767.648996647447348 ], [ 377287.131777817034163, 6859809.28235793672502 ], [ 377271.532123811310157, 6859852.315803345292807 ], [ 377273.648794833919965, 6859924.282594166696072 ], [ 377254.598732524318621, 6860013.182765904814005 ], [ 377220.732013657223433, 6860131.716351795941591 ], [ 377196.39036380086327, 6860220.616604541428387 ], [ 377168.873585277120583, 6860291.5250478181988 ], [ 377137.123533380916342, 6860349.733475165441632 ], [ 377061.981749170925468, 6860418.52525238879025 ], [ 376928.631479494564701, 6860497.900449324399233 ], [ 376813.272887236671522, 6860565.633901870809495 ], [ 376707.439384659286588, 6860624.90069811232388 ], [ 376610.072452809487004, 6860694.750889988616109 ], [ 376588.905731399194337, 6860725.442542038857937 ], [ 376579.380786973051727, 6860760.367674253880978 ], [ 376583.614085847802926, 6860905.359574758447707 ], [ 376586.789150911499746, 6861064.109941877424717 ], [ 376594.197467925609089, 6861108.559954609721899 ], [ 376606.89743205049308, 6861168.885063763707876 ], [ 376625.947540516674053, 6861229.21020173560828 ], [ 376639.705893034057226, 6861274.718649647198617 ], [ 376649.230868498852942, 6861333.98544442281127 ], [ 376666.164295513532124, 6861398.543960648588836 ], [ 376672.514323941199109, 6861448.285656583495438 ], [ 376662.989215911482461, 6861500.144167682155967 ], [ 376643.939179601438809, 6861556.235932399518788 ], [ 376641.733360110083595, 6861559.471147599630058 ] ], [ [ 376430.40445290110074, 6861967.96395081654191 ], [ 376417.455389840411954, 6861997.561733051203191 ], [ 376389.938698350393679, 6862026.13686253875494 ], [ 376343.371987635327969, 6862049.42021294683218 ], [ 376302.572060399223119, 6862068.87866922467947 ] ] ] } },
{ "type": "Feature", "properties": { "codTrechoR": "153RSC1690", "concession": null, "nrFaixas": 0, "nome": null, "d_geometri": null, "d_tipoTrec": "Acesso", "d_jurisdic": "Estadual", "d_administ": null, "d_revestim": "Pavimentado", "d_situacao": null, "d_trafego": null }, "geometry": { "type": "MultiLineString", "coordinates": [ [ [ 353814.077711570716929, 6863353.915817480534315 ], [ 353182.69204667408485, 6862317.156927116215229 ], [ 352878.071896806242876, 6861816.877559737302363 ], [ 352701.760853240499273, 6861529.077638451009989 ] ] ] } },
{ "type": "Feature", "properties": { "codTrechoR": "153RSC1690", "concession": null, "nrFaixas": 0, "nome": "RSC-153", "d_geometri": null, "d_tipoTrec": "Acesso", "d_jurisdic": "Estadual", "d_administ": null, "d_revestim": "Pavimentado", "d_situacao": null, "d_trafego": null }, "geometry": { "type": "MultiLineString", "coordinates": [ [ [ 354092.546406654815655, 6863926.604755540378392 ], [ 354073.222823985735886, 6863805.10181718505919 ], [ 353814.077711570716929, 6863353.915817480534315 ] ] ] } },
{ "type": "Feature", "properties": { "codTrechoR": "153RSC1690", "concession": null, "nrFaixas": 0, "nome": null, "d_geometri": null, "d_tipoTrec": "Acesso", "d_jurisdic": "Estadual", "d_administ": null, "d_revestim": "Pavimentado", "d_situacao": null, "d_trafego": null }, "geometry": { "type": "MultiLineString", "coordinates": [ [ [ 354043.814005428459495, 6864464.456237865611911 ], [ 354076.527530417079106, 6864121.016424085944891 ], [ 354089.240353778528515, 6863993.179236572235823 ], [ 354093.107814985094592, 6863952.677567644976079 ], [ 354092.546406654815655, 6863926.604755540378392 ] ] ] } },
{ "type": "Feature", "properties": { "codTrechoR": "153RSC1690", "concession": null, "nrFaixas": 0, "nome": "RSC-153", "d_geometri": null, "d_tipoTrec": "Acesso", "d_jurisdic": "Estadual", "d_administ": null, "d_revestim": "Pavimentado", "d_situacao": null, "d_trafego": null }, "geometry": { "type": "MultiLineString", "coordinates": [ [ [ 354067.373685018857941, 6864686.657238560728729 ], [ 354034.761244549183175, 6864577.181136092171073 ], [ 354043.814005428459495, 6864464.456237865611911 ] ] ] } },
{ "type": "Feature", "properties": { "codTrechoR": "324ERS0170", "concession": null, "nrFaixas": 0, "nome": null, "d_geometri": null, "d_tipoTrec": "Rodovia", "d_jurisdic": "Estadual", "d_administ": null, "d_revestim": "Pavimentado", "d_situacao": null, "d_trafego": null }, "geometry": { "type": "MultiLineString", "coordinates": [ [ [ 375796.857325598481111, 6863130.45618855766952 ], [ 375796.710790029144846, 6863130.757877604104578 ], [ 375795.963232074049301, 6863131.156578698195517 ] ], [ [ 375343.499535908340476, 6864175.141662858426571 ], [ 375337.657814820762724, 6864199.676731893792748 ], [ 375321.782797430409119, 6864218.197620460763574 ], [ 375211.980444176879246, 6864273.760197877883911 ], [ 375103.501073255436495, 6864310.801997902803123 ], [ 375034.70929926156532, 6864326.6769979018718 ], [ 374968.316045389568899, 6864334.173071385361254 ] ], [ [ 374798.743806584679987, 6864692.66442939825356 ], [ 374794.376518076402135, 6864707.414718854241073 ], [ 374780.079803306725807, 6864729.164862137287855 ], [ 374759.357001956435852, 6864747.291565552353859 ], [ 374737.578796479152516, 6864760.080396231263876 ], [ 374671.416254371637478, 6864775.28272547852248 ], [ 374576.256628570146859, 6864789.040399597026408 ], [ 374487.661273178469855, 6864815.753091456368566 ], [ 374453.739640485320706, 6864851.879823004826903 ] ], [ [ 374332.143089392047841, 6865023.417754534631968 ], [ 374328.476262759417295, 6865028.408584931865335 ], [ 374298.824909768940415, 6865053.358010688796639 ], [ 374277.837020925304387, 6865063.543790908530354 ], [ 374259.924145420431159, 6865070.633097816258669 ], [ 374239.26962397468742, 6865080.284491329453886 ] ] ] } },
{ "type": "Feature", "properties": { "codTrechoR": "324ERS0170", "concession": null, "nrFaixas": 0, "nome": null, "d_geometri": null, "d_tipoTrec": "Rodovia", "d_jurisdic": "Estadual", "d_administ": null, "d_revestim": "Pavimentado", "d_situacao": null, "d_trafego": null }, "geometry": { "type": "MultiLineString", "coordinates": [ [ [ 374239.26962397468742, 6865080.284491329453886 ], [ 374225.867308896558825, 6865086.627529259771109 ], [ 374125.598382872354705, 6865134.081767345778644 ], [ 374101.011080997588579, 6865149.110619797371328 ], [ 374083.067453509080224, 6865157.592204850167036 ], [ 373956.937687038094737, 6865196.234569504857063 ], [ 373819.010698187397793, 6865232.968019944615662 ], [ 373698.088564285251778, 6865310.61069920938462 ], [ 373663.988479760824703, 6865329.107945665717125 ] ] ] } },
{ "type": "Feature", "properties": { "codTrechoR": "153RSC1690", "concession": null, "nrFaixas": 0, "nome": "RSC-153", "d_geometri": null, "d_tipoTrec": "Acesso", "d_jurisdic": "Estadual", "d_administ": null, "d_revestim": "Pavimentado", "d_situacao": null, "d_trafego": null }, "geometry": { "type": "MultiLineString", "coordinates": [ [ [ 355127.552649076562375, 6866729.37734243273735 ], [ 355096.533589450875297, 6866683.424450822174549 ], [ 355019.870649671705905, 6866580.239372892305255 ], [ 354934.734586519829463, 6866451.361479192972183 ], [ 354926.604616500786506, 6866437.745005594566464 ], [ 354757.316599531564862, 6866212.271338529884815 ], [ 354720.319044064905029, 6866132.581086583435535 ], [ 354316.494887065608054, 6865262.689101208001375 ], [ 354173.431400818226393, 6864977.429225304163992 ], [ 354093.97295551141724, 6864789.489635029807687 ], [ 354067.373685018857941, 6864686.657238560728729 ] ] ] } },
{ "type": "Feature", "properties": { "codTrechoR": "153RSC1690", "concession": null, "nrFaixas": 0, "nome": null, "d_geometri": null, "d_tipoTrec": "Acesso", "d_jurisdic": "Estadual", "d_administ": null, "d_revestim": "Pavimentado", "d_situacao": null, "d_trafego": null }, "geometry": { "type": "MultiLineString", "coordinates": [ [ [ 355246.300660410895944, 6866904.716426014900208 ], [ 355204.864021464250982, 6866849.005605084821582 ], [ 355127.552649076562375, 6866729.37734243273735 ] ] ] } },
{ "type": "Feature", "properties": { "codTrechoR": "324ERS0170", "concession": null, "nrFaixas": 0, "nome": "ERS-324", "d_geometri": null, "d_tipoTrec": "Rodovia", "d_jurisdic": "Estadual", "d_administ": null, "d_revestim": "Pavimentado", "d_situacao": null, "d_trafego": null }, "geometry": { "type": "MultiLineString", "coordinates": [ [ [ 373663.988479760824703, 6865329.107945665717125 ], [ 373641.630297683179379, 6865348.522224197164178 ], [ 373350.077001480618492, 6865560.960642744787037 ], [ 373334.05385273322463, 6865584.310402785427868 ], [ 373325.01334244874306, 6865597.822717284783721 ], [ 373317.5826979939593, 6865621.413583988323808 ], [ 373321.756429809902329, 6865652.044027829542756 ], [ 373322.798327589407563, 6865695.134074783883989 ], [ 373328.099610983452294, 6865736.925823423080146 ], [ 373355.080276122724172, 6865851.566522576846182 ], [ 373347.502854792459402, 6865877.954307703301311 ], [ 373302.315464744344354, 6865989.339347521774471 ], [ 373234.704391548817512, 6866089.145370011217892 ], [ 373118.296993962838314, 6866257.259795939549804 ], [ 372755.015759134315886, 6866786.209158856421709 ], [ 372724.382926509948447, 6866844.144823329523206 ], [ 372699.493082234635949, 6866945.971052617765963 ], [ 372694.632331506698392, 6867045.641299948096275 ], [ 372675.436915713420603, 6867221.333686312660575 ], [ 372651.722920752945356, 6867273.00721634272486 ], [ 372624.311322390509304, 6867292.784284951165318 ], [ 372083.928871832671575, 6867424.44710080139339 ], [ 371999.742396990419365, 6867447.442687675356865 ], [ 371823.957794855930842, 6867492.260089588351548 ], [ 371639.292856942280196, 6867539.338485598564148 ], [ 371537.876051677274518, 6867585.823810416273773 ], [ 371411.749164744163863, 6867650.899989556521177 ], [ 371314.483312282362022, 6867693.628126598894596 ] ] ] } },
{ "type": "Feature", "properties": { "codTrechoR": "324ERS0170", "concession": null, "nrFaixas": 0, "nome": null, "d_geometri": null, "d_tipoTrec": "Rodovia", "d_jurisdic": "Estadual", "d_administ": null, "d_revestim": "Pavimentado", "d_situacao": null, "d_trafego": null }, "geometry": { "type": "MultiLineString", "coordinates": [ [ [ 371314.483312282362022, 6867693.628126598894596 ], [ 371286.380018160387408, 6867704.051172314211726 ], [ 371097.711320785514545, 6867756.502983373589814 ], [ 370989.653291712980717, 6867780.094955142587423 ], [ 370715.765974862733856, 6867845.74609281308949 ], [ 370641.011133281921502, 6867882.195665152743459 ], [ 370516.702090577979106, 6867947.892324708402157 ], [ 370448.959384807327297, 6867988.589160887524486 ], [ 370418.657495129387826, 6868029.481550397351384 ], [ 370353.76843822846422, 6868117.048140587285161 ], [ 370192.58847712649731, 6868339.478284595534205 ], [ 370089.371658680727705, 6868416.797117701731622 ], [ 369717.804330340062734, 6868575.903763473033905 ], [ 369703.156346893403679, 6868582.447112591005862 ], [ 369688.272990355093498, 6868587.883080197498202 ], [ 369193.828274549217895, 6868805.098422430455685 ], [ 369155.576384690706618, 6868827.53872659150511 ] ] ] } },
{ "type": "Feature", "properties": { "codTrechoR": "324ERS0170", "concession": null, "nrFaixas": 0, "nome": null, "d_geometri": null, "d_tipoTrec": "Rodovia", "d_jurisdic": "Estadual", "d_administ": null, "d_revestim": "Pavimentado", "d_situacao": null, "d_trafego": null }, "geometry": { "type": "MultiLineString", "coordinates": [ [ [ 369155.576384690706618, 6868827.53872659150511 ], [ 369139.430171312880702, 6868850.523937441408634 ], [ 369088.133183882862795, 6868905.582305368036032 ], [ 368959.314239044091664, 6869024.707735400646925 ], [ 368914.241059688152745, 6869054.179239057004452 ], [ 368842.804652061371598, 6869082.339233841747046 ], [ 368672.775062930712011, 6869126.736796151846647 ], [ 368656.952206906978972, 6869141.398591397330165 ], [ 368571.814406514924485, 6869150.093098239973187 ], [ 368531.955096205114387, 6869160.253824857994914 ], [ 368470.710849666444119, 6869175.865521650761366 ], [ 368406.345563173876144, 6869193.604937641881406 ], [ 368392.724217958981171, 6869197.610161250457168 ], [ 368310.276200896711089, 6869248.438348235562444 ], [ 368227.258962873835117, 6869303.996148157864809 ], [ 368168.966799798887223, 6869353.372772689908743 ] ] ] } },
{ "type": "Feature", "properties": { "codTrechoR": "153RSC1690", "concession": null, "nrFaixas": 0, "nome": null, "d_geometri": null, "d_tipoTrec": "Acesso", "d_jurisdic": "Estadual", "d_administ": null, "d_revestim": "Pavimentado", "d_situacao": null, "d_trafego": null }, "geometry": { "type": "MultiLineString", "coordinates": [ [ [ 357312.755963693954982, 6869832.603094039484859 ], [ 357241.156277444446459, 6869738.726873598061502 ], [ 357019.715671823127195, 6869485.857217846438289 ] ] ] } },
{ "type": "Feature", "properties": { "codTrechoR": "153RSC1690", "concession": null, "nrFaixas": 0, "nome": "RSC-153", "d_geometri": null, "d_tipoTrec": "Acesso", "d_jurisdic": "Estadual", "d_administ": null, "d_revestim": "Pavimentado", "d_situacao": null, "d_trafego": null }, "geometry": { "type": "MultiLineString", "coordinates": [ [ [ 357019.715671823127195, 6869485.857217846438289 ], [ 356945.838789099885616, 6869406.061430441215634 ], [ 356815.258983054198325, 6869265.015863955952227 ], [ 356784.131807779602241, 6869231.393245283514261 ] ] ] } },
{ "type": "Feature", "properties": { "codTrechoR": "324ERS0150", "concession": null, "nrFaixas": 0, "nome": "ERS-324", "d_geometri": null, "d_tipoTrec": "Rodovia", "d_jurisdic": "Estadual", "d_administ": null, "d_revestim": "Pavimentado", "d_situacao": null, "d_trafego": null }, "geometry": { "type": "MultiLineString", "coordinates": [ [ [ 365906.646626952977385, 6869833.305189802311361 ], [ 366064.35426913847914, 6869893.460267523303628 ], [ 366239.207976221223362, 6869954.520845376886427 ], [ 366462.75293501385022, 6870032.580088752321899 ] ] ] } },
{ "type": "Feature", "properties": { "codTrechoR": "324ERS0150", "concession": null, "nrFaixas": 0, "nome": null, "d_geometri": null, "d_tipoTrec": "Rodovia", "d_jurisdic": "Estadual", "d_administ": null, "d_revestim": "Pavimentado", "d_situacao": null, "d_trafego": null }, "geometry": { "type": "MultiLineString", "coordinates": [ [ [ 364053.565991621813737, 6870063.73251304961741 ], [ 364182.042697838041931, 6870022.912436411716044 ], [ 364218.491333047975786, 6870010.559005973860621 ], [ 364247.274795788456686, 6870000.803440134972334 ], [ 364465.018338619614951, 6869927.000998316332698 ], [ 364612.215706473914906, 6869877.106726730242372 ], [ 364732.148954242817126, 6869851.009502959437668 ], [ 364908.798520957585424, 6869812.568610278889537 ], [ 365033.452321595628746, 6869825.112017519772053 ], [ 365228.275628497824073, 6869893.476677272468805 ], [ 365384.330224931181874, 6869912.339103044942021 ], [ 365649.592656315246131, 6869878.575916243717074 ], [ 365803.142827025440056, 6869840.713341744616628 ], [ 365906.646626952977385, 6869833.305189802311361 ] ] ] } },
{ "type": "Feature", "properties": { "codTrechoR": "324ERS0150", "concession": null, "nrFaixas": 0, "nome": null, "d_geometri": null, "d_tipoTrec": "Rodovia", "d_jurisdic": "Estadual", "d_administ": null, "d_revestim": "Pavimentado", "d_situacao": null, "d_trafego": null }, "geometry": { "type": "MultiLineString", "coordinates": [ [ [ 362487.503313616500236, 6870297.421024290844798 ], [ 362526.8571572820656, 6870272.47466994728893 ], [ 362565.205897630774416, 6870252.748245473951101 ], [ 362671.402565467287786, 6870198.120005190372467 ], [ 362808.432236661203206, 6870172.99065853189677 ], [ 362848.193004256114364, 6870162.922306922264397 ], [ 363030.715738925675396, 6870140.98584995046258 ], [ 363306.28778358240379, 6870130.954361053183675 ], [ 363343.691761117312126, 6870129.592231312766671 ], [ 363744.331585303181782, 6870134.974298862740397 ], [ 363899.379809322941583, 6870122.65194389782846 ], [ 364053.565991621813737, 6870063.73251304961741 ] ] ] } },
{ "type": "Feature", "properties": { "codTrechoR": "324ERS0150", "concession": null, "nrFaixas": 0, "nome": "ERS-324", "d_geometri": null, "d_tipoTrec": "Rodovia", "d_jurisdic": "Estadual", "d_administ": null, "d_revestim": "Pavimentado", "d_situacao": null, "d_trafego": null }, "geometry": { "type": "MultiLineString", "coordinates": [ [ [ 362092.191777349042241, 6870535.618843832984567 ], [ 362127.724500849260949, 6870514.519829979166389 ], [ 362401.248931767710019, 6870352.097561102360487 ], [ 362487.503313616500236, 6870297.421024290844798 ] ] ] } },
{ "type": "Feature", "properties": { "codTrechoR": "324ERS0150", "concession": null, "nrFaixas": 0, "nome": null, "d_geometri": null, "d_tipoTrec": "Rodovia", "d_jurisdic": "Estadual", "d_administ": null, "d_revestim": "Pavimentado", "d_situacao": null, "d_trafego": null }, "geometry": { "type": "MultiLineString", "coordinates": [ [ [ 360540.87780347088119, 6870885.697372808121145 ], [ 360777.429142433742527, 6870992.250192787498236 ], [ 360823.187094871478621, 6871012.860815211199224 ], [ 360910.458483532071114, 6871029.649708230979741 ], [ 360994.098644155543298, 6871041.446330305188894 ], [ 361216.255973726743832, 6871038.747700771316886 ], [ 361301.268432633078191, 6871021.930520709604025 ], [ 361331.573310118867084, 6871015.935442092828453 ], [ 361473.025046524824575, 6870955.939340367913246 ], [ 361501.137267256272025, 6870944.015414952300489 ], [ 361833.487725288956426, 6870702.573256015777588 ], [ 362056.536538249347359, 6870560.601443929597735 ], [ 362092.191777349042241, 6870535.618843832984567 ] ] ] } },
{ "type": "Feature", "properties": { "codTrechoR": "324ERS0150", "concession": null, "nrFaixas": 0, "nome": "ERS-324", "d_geometri": null, "d_tipoTrec": "Rodovia", "d_jurisdic": "Estadual", "d_administ": null, "d_revestim": "Pavimentado", "d_situacao": null, "d_trafego": null }, "geometry": { "type": "MultiLineString", "coordinates": [ [ [ 359867.291845088941045, 6870898.127631824463606 ], [ 359908.683911918255035, 6870890.058881741017103 ], [ 359977.685491820448078, 6870865.756093667820096 ], [ 360045.736360335140489, 6870852.294615834951401 ], [ 360105.818205163697712, 6870840.409039915539324 ], [ 360248.296314479201101, 6870824.233473295345902 ], [ 360343.530216065002605, 6870822.625194299966097 ], [ 360370.689790399279445, 6870823.975625220686197 ], [ 360540.87780347088119, 6870885.697372808121145 ] ] ] } },
{ "type": "Feature", "properties": { "codTrechoR": "153RSC1680", "concession": null, "nrFaixas": 0, "nome": "RSC-153", "d_geometri": null, "d_tipoTrec": "Rodovia", "d_jurisdic": "Estadual", "d_administ": null, "d_revestim": "Pavimentado", "d_situacao": null, "d_trafego": null }, "geometry": { "type": "MultiLineString", "coordinates": [ [ [ 357312.755963693954982, 6869832.603094039484859 ], [ 357333.174171370454133, 6869897.236659721471369 ], [ 357340.453504303353839, 6869925.726105522364378 ], [ 357407.735377224511467, 6870189.04222808778286 ], [ 357428.035836856928654, 6870268.488500547595322 ], [ 357486.084631664911285, 6870419.398587412200868 ], [ 357530.87689950002823, 6870520.173873114399612 ], [ 357575.47168768447591, 6870620.502746979705989 ], [ 357698.417417448654305, 6870887.834449257701635 ] ] ] } },
{ "type": "Feature", "properties": { "codTrechoR": "153RSC1680", "concession": null, "nrFaixas": 0, "nome": "RSC-153", "d_geometri": null, "d_tipoTrec": "Rodovia", "d_jurisdic": "Estadual", "d_administ": null, "d_revestim": "Pavimentado", "d_situacao": null, "d_trafego": null }, "geometry": { "type": "MultiLineString", "coordinates": [ [ [ 357698.417417448654305, 6870887.834449257701635 ], [ 357748.712886477063876, 6871070.224663127213717 ] ] ] } },
{ "type": "Feature", "properties": { "codTrechoR": "324ERS0150", "concession": null, "nrFaixas": 0, "nome": null, "d_geometri": null, "d_tipoTrec": "Rodovia", "d_jurisdic": "Estadual", "d_administ": null, "d_revestim": "Pavimentado", "d_situacao": null, "d_trafego": null }, "geometry": { "type": "MultiLineString", "coordinates": [ [ [ 359530.199875607388094, 6871139.078465528786182 ], [ 359661.358921912265942, 6871059.312159585766494 ], [ 359826.947754131979309, 6870931.268390323966742 ], [ 359867.291845088941045, 6870898.127631824463606 ] ] ] } },
{ "type": "Feature", "properties": { "codTrechoR": "153RSC1680", "concession": null, "nrFaixas": 0, "nome": "RSC-153", "d_geometri": null, "d_tipoTrec": "Rodovia", "d_jurisdic": "Estadual", "d_administ": null, "d_revestim": "Pavimentado", "d_situacao": null, "d_trafego": null }, "geometry": { "type": "MultiLineString", "coordinates": [ [ [ 357748.712886477063876, 6871070.224663127213717 ], [ 357775.685463403933682, 6871120.054024333134294 ], [ 357813.690537234768271, 6871248.819957444444299 ], [ 357883.022085555014201, 6871385.486813135445118 ], [ 357898.488254113937728, 6871406.920498995110393 ], [ 357954.241282192640938, 6871484.184461651369929 ], [ 358052.346165368217044, 6871552.499322853982449 ], [ 358151.080006931442767, 6871608.157777394168079 ], [ 358262.155466723779682, 6871670.773309057578444 ], [ 358361.518241121841129, 6871713.775153266265988 ], [ 358485.878849036991596, 6871764.363124705851078 ], [ 358564.998857681406662, 6871831.733501125127077 ], [ 358667.351383529487066, 6871973.676280496641994 ] ] ] } },
{ "type": "Feature", "properties": { "codTrechoR": "135ERS0010", "concession": null, "nrFaixas": 0, "nome": "ERS-135", "d_geometri": null, "d_tipoTrec": "Rodovia", "d_jurisdic": "Estadual", "d_administ": null, "d_revestim": "Pavimentado", "d_situacao": null, "d_trafego": null }, "geometry": { "type": "MultiLineString", "coordinates": [ [ [ 366462.75293501385022, 6870032.580088752321899 ], [ 366469.617060291813686, 6870055.574725989252329 ], [ 366504.625103416037746, 6870172.849797741509974 ], [ 366431.492625593789853, 6870572.062554522417486 ], [ 366383.158568378945347, 6870835.893946051597595 ], [ 366248.607828395208344, 6871488.26232716999948 ], [ 366243.458298150915653, 6871513.228611700236797 ], [ 366213.824908643960953, 6871671.978997772559524 ], [ 366194.774892393499613, 6871743.945783702656627 ], [ 366156.75870890088845, 6871833.984260573983192 ], [ 366124.924701477750205, 6871909.046034660190344 ], [ 366118.574746153317392, 6871936.562782639637589 ], [ 366126.954236723249778, 6872057.396552187390625 ], [ 366153.499773656949401, 6872156.696573339402676 ], [ 366181.016507436754182, 6872278.405130142346025 ], [ 366227.583312053757254, 6872411.755436081439257 ], [ 366260.391621787508484, 6872467.847155982628465 ], [ 366290.025017207604833, 6872507.005649629049003 ], [ 366324.950131190242246, 6872536.638978397473693 ] ] ] } },
{ "type": "Feature", "properties": { "codTrechoR": "324ERS0130", "concession": null, "nrFaixas": 0, "nome": "ERS-324", "d_geometri": null, "d_tipoTrec": "Rodovia", "d_jurisdic": "Estadual", "d_administ": null, "d_revestim": "Pavimentado", "d_situacao": null, "d_trafego": null }, "geometry": { "type": "MultiLineString", "coordinates": [ [ [ 358667.351383529487066, 6871973.676280496641994 ], [ 358551.922813779267017, 6872168.824284700676799 ], [ 358462.387352795223705, 6872321.646384354680777 ], [ 358435.642967164632864, 6872381.111512864008546 ], [ 358387.882484476780519, 6872496.167976201511919 ], [ 358348.563982209656388, 6872590.885838815942407 ], [ 358225.00517436559312, 6872923.079952025786042 ], [ 358179.598655562731437, 6873012.942176574841142 ], [ 358148.785687874420546, 6873073.922067643143237 ], [ 358079.080908569856547, 6873118.736173963174224 ], [ 357980.86200102744624, 6873181.881007671356201 ], [ 357687.367122667958029, 6873338.052566347643733 ], [ 357511.039532419294119, 6873446.419882472604513 ] ] ] } },
{ "type": "Feature", "properties": { "codTrechoR": "324ERS0130", "concession": null, "nrFaixas": 0, "nome": "ERS-324", "d_geometri": null, "d_tipoTrec": "Rodovia", "d_jurisdic": "Estadual", "d_administ": null, "d_revestim": "Pavimentado", "d_situacao": null, "d_trafego": null }, "geometry": { "type": "MultiLineString", "coordinates": [ [ [ 357511.039532419294119, 6873446.419882472604513 ], [ 357348.799531827447936, 6873544.851596620865166 ] ] ] } },
{ "type": "Feature", "properties": { "codTrechoR": "324ERS0130", "concession": null, "nrFaixas": 0, "nome": "ERS-324", "d_geometri": null, "d_tipoTrec": "Rodovia", "d_jurisdic": "Estadual", "d_administ": null, "d_revestim": "Pavimentado", "d_situacao": null, "d_trafego": null }, "geometry": { "type": "MultiLineString", "coordinates": [ [ [ 357348.799531827447936, 6873544.851596620865166 ], [ 357337.929638712666929, 6873557.308773821219802 ], [ 357304.826943264808506, 6873595.245022726245224 ], [ 357160.448291231412441, 6873760.701178602874279 ], [ 356985.719021002470981, 6874030.915236294269562 ], [ 356956.720022563240491, 6874066.093993817456067 ] ] ] } },
{ "type": "Feature", "properties": { "codTrechoR": "135ERS0010", "concession": null, "nrFaixas": 0, "nome": "ERS-135", "d_geometri": null, "d_tipoTrec": "Rodovia", "d_jurisdic": "Estadual", "d_administ": null, "d_revestim": "Pavimentado", "d_situacao": null, "d_trafego": null }, "geometry": { "type": "MultiLineString", "coordinates": [ [ [ 366973.656807885156013, 6874316.388788566924632 ], [ 366901.16088839340955, 6875142.340258071199059 ], [ 366853.42262490245048, 6875633.945383688434958 ] ] ] } },
{ "type": "Feature", "properties": { "codTrechoR": "324ERS0130", "concession": null, "nrFaixas": 0, "nome": "ERS-324", "d_geometri": null, "d_tipoTrec": "Rodovia", "d_jurisdic": "Estadual", "d_administ": null, "d_revestim": "Pavimentado", "d_situacao": null, "d_trafego": null }, "geometry": { "type": "MultiLineString", "coordinates": [ [ [ 355111.688280951289926, 6876238.719750830903649 ], [ 355098.770060003385879, 6876247.757822336629033 ], [ 355081.785156210884452, 6876259.641012124717236 ], [ 355025.529246148304082, 6876298.999155955389142 ], [ 354934.370034996420145, 6876381.238047103397548 ], [ 354858.169303803588264, 6876501.601281810551882 ], [ 354819.585177779430524, 6876601.329247165471315 ], [ 354769.366748196014669, 6876712.197765555232763 ] ] ] } },
{ "type": "Feature", "properties": { "codTrechoR": "135ERS0050", "concession": null, "nrFaixas": 0, "nome": "ERS-135", "d_geometri": null, "d_tipoTrec": "Rodovia", "d_jurisdic": "Estadual", "d_administ": null, "d_revestim": "Pavimentado", "d_situacao": null, "d_trafego": null }, "geometry": { "type": "MultiLineString", "coordinates": [ [ [ 365176.30340745387366, 6875768.839621463790536 ], [ 365317.17887977627106, 6876165.593390206806362 ], [ 365389.942310087673832, 6876373.489338520914316 ] ] ] } },
{ "type": "Feature", "properties": { "codTrechoR": "324ERS0110", "concession": null, "nrFaixas": 0, "nome": "ERS-324", "d_geometri": null, "d_tipoTrec": "Rodovia", "d_jurisdic": "Estadual", "d_administ": null, "d_revestim": "Pavimentado", "d_situacao": null, "d_trafego": null }, "geometry": { "type": "MultiLineString", "coordinates": [ [ [ 354769.366748196014669, 6876712.197765555232763 ], [ 354685.545893912436441, 6876902.333160985261202 ], [ 354610.518457213649526, 6877069.512949660420418 ], [ 354555.819602929754183, 6877211.143710860982537 ], [ 354542.290590121760033, 6877415.047271689400077 ], [ 354546.749920751200989, 6877559.10956294182688 ], [ 354548.405649612424895, 6877612.5976084433496 ], [ 354552.463819313095883, 6877868.15930706821382 ], [ 354555.001900841598399, 6878027.977495847269893 ], [ 354551.168379447888583, 6878341.368796273134649 ], [ 354549.801714900822844, 6878453.100926375947893 ], [ 354514.950135457445867, 6878570.023735485970974 ], [ 354456.804525132640265, 6878656.316500466316938 ], [ 354372.269798723165877, 6878712.076854921877384 ], [ 354353.781780180055648, 6878724.271687624044716 ], [ 354298.080912698933389, 6878746.889993645250797 ], [ 354243.726283464115113, 6878768.961382821202278 ], [ 354228.66567615873646, 6878780.884317158721387 ] ] ] } },
{ "type": "Feature", "properties": { "codTrechoR": "324ERS0110", "concession": null, "nrFaixas": 0, "nome": "ERS-324", "d_geometri": null, "d_tipoTrec": "Rodovia", "d_jurisdic": "Estadual", "d_administ": null, "d_revestim": "Pavimentado", "d_situacao": null, "d_trafego": null }, "geometry": { "type": "MultiLineString", "coordinates": [ [ [ 354228.66567615873646, 6878780.884317158721387 ], [ 354190.548213806119747, 6878801.836992406286299 ], [ 354153.3632213777164, 6878850.03621441591531 ], [ 354100.851016158878338, 6878916.599128747358918 ], [ 354029.413343913154677, 6879007.086798860691488 ], [ 353830.975479973712936, 6879253.149765493348241 ], [ 353780.175390631193295, 6879321.412434672936797 ], [ 353724.697079765319359, 6879374.626525522209704 ], [ 353702.387717571866233, 6879396.025139542296529 ], [ 353659.426940431061666, 6879423.510026125237346 ], [ 353446.799733453721274, 6879559.537880092859268 ], [ 353415.049661871627904, 6879594.462938739918172 ], [ 353394.412138357874937, 6879656.375627553090453 ], [ 353392.824597727507353, 6879708.76324955932796 ], [ 353405.042683858773671, 6879837.594409770332277 ], [ 353419.802276522503234, 6879993.292614603415132 ] ] ] } },
{ "type": "Feature", "properties": { "codTrechoR": "135ERS0050", "concession": null, "nrFaixas": 0, "nome": "ERS-135", "d_geometri": null, "d_tipoTrec": "Rodovia", "d_jurisdic": "Estadual", "d_administ": null, "d_revestim": "Pavimentado", "d_situacao": null, "d_trafego": null }, "geometry": { "type": "MultiLineString", "coordinates": [ [ [ 365389.942310087673832, 6876373.489338520914316 ], [ 365409.78322633751668, 6876430.177273109555244 ], [ 365597.63784129708074, 6876787.365485433489084 ], [ 365798.721518626436591, 6877118.095327576622367 ], [ 365856.520434390055016, 6877208.874589821323752 ], [ 365966.52275821112562, 6877381.640147212892771 ], [ 366211.472341808723286, 6877766.32577876932919 ], [ 366761.806826726999134, 6878501.868879762478173 ], [ 367301.557860155939125, 6879337.953957142308354 ], [ 367386.147121034911834, 6879468.20108899846673 ], [ 367733.94307318283245, 6880003.684590054675937 ], [ 367774.234056004323065, 6880064.945666151121259 ], [ 367854.494573155534454, 6880186.976424057036638 ] ] ] } },
{ "type": "Feature", "properties": { "codTrechoR": "324ERS0110", "concession": null, "nrFaixas": 0, "nome": "ERS-324", "d_geometri": null, "d_tipoTrec": "Rodovia", "d_jurisdic": "Estadual", "d_administ": null, "d_revestim": "Pavimentado", "d_situacao": null, "d_trafego": null }, "geometry": { "type": "MultiLineString", "coordinates": [ [ [ 353419.802276522503234, 6879993.292614603415132 ], [ 353423.046054439735599, 6880127.62706222012639 ], [ 353413.175887370947748, 6880246.16268596611917 ], [ 353406.703895153128542, 6880258.634763201698661 ], [ 353341.38771067361813, 6880384.502505298703909 ], [ 353245.792101497412659, 6880520.966391918249428 ], [ 353101.586698285071179, 6880734.352392124012113 ], [ 353004.024016609881073, 6880889.78153860475868 ], [ 352886.813295784639195, 6881062.763820663094521 ], [ 352824.435975467320532, 6881147.689711318351328 ], [ 352744.766207137377933, 6881207.354501213878393 ], [ 352732.586790781468153, 6881215.496547043323517 ], [ 352660.793452308513224, 6881239.921705893240869 ], [ 352601.791952604427934, 6881247.664527074433863 ], [ 352513.644987847248558, 6881259.510237574577332 ] ] ] } },
{ "type": "Feature", "properties": { "codTrechoR": "324ERS0110", "concession": null, "nrFaixas": 0, "nome": "ERS-324", "d_geometri": null, "d_tipoTrec": "Rodovia", "d_jurisdic": "Estadual", "d_administ": null, "d_revestim": "Pavimentado", "d_situacao": null, "d_trafego": null }, "geometry": { "type": "MultiLineString", "coordinates": [ [ [ 352513.644987847248558, 6881259.510237574577332 ], [ 352429.043482133245561, 6881276.603640133515 ], [ 352308.154414970602375, 6881303.582161316648126 ], [ 352238.854774252627976, 6881337.569778899662197 ], [ 352226.352119695278816, 6881343.70165217295289 ], [ 352211.294562546885572, 6881357.176635703071952 ], [ 352029.309594772814307, 6881520.031768279150128 ], [ 351799.511839680955745, 6881737.085838498547673 ], [ 351753.133528322679922, 6881774.247985508292913 ], [ 351579.258694724645466, 6881927.939086114987731 ], [ 351543.145135832484812, 6881969.197109087370336 ] ] ] } },
{ "type": "Feature", "properties": { "codTrechoR": "135ERS0050", "concession": null, "nrFaixas": 0, "nome": "ERS-135", "d_geometri": null, "d_tipoTrec": "Rodovia", "d_jurisdic": "Estadual", "d_administ": null, "d_revestim": "Pavimentado", "d_situacao": null, "d_trafego": null }, "geometry": { "type": "MultiLineString", "coordinates": [ [ [ 367854.494573155534454, 6880186.976424057036638 ], [ 367900.556707136565819, 6880266.169644105248153 ] ] ] } },
{ "type": "Feature", "properties": { "codTrechoR": "324ERS0110", "concession": null, "nrFaixas": 0, "nome": "ERS-324", "d_geometri": null, "d_tipoTrec": "Rodovia", "d_jurisdic": "Estadual", "d_administ": null, "d_revestim": "Pavimentado", "d_situacao": null, "d_trafego": null }, "geometry": { "type": "MultiLineString", "coordinates": [ [ [ 351543.145135832484812, 6881969.197109087370336 ], [ 351469.286203194409609, 6882042.027952025644481 ] ] ] } },
{ "type": "Feature", "properties": { "codTrechoR": "324ERS0110", "concession": null, "nrFaixas": 0, "nome": "ERS-324", "d_geometri": null, "d_tipoTrec": "Rodovia", "d_jurisdic": "Estadual", "d_administ": null, "d_revestim": "Pavimentado", "d_situacao": null, "d_trafego": null }, "geometry": { "type": "MultiLineString", "coordinates": [ [ [ 351469.286203194409609, 6882042.027952025644481 ], [ 351451.926043408573605, 6882059.026901707053185 ], [ 351358.357696807710454, 6882135.116588270291686 ], [ 351343.345187089638785, 6882147.324607716873288 ], [ 351310.412420265434776, 6882187.956801338121295 ], [ 351235.034305296372622, 6882282.424858523532748 ] ] ] } },
{ "type": "Feature", "properties": { "codTrechoR": "324ERS0110", "concession": null, "nrFaixas": 0, "nome": "ERS-324", "d_geometri": null, "d_tipoTrec": "Rodovia", "d_jurisdic": "Estadual", "d_administ": null, "d_revestim": "Pavimentado", "d_situacao": null, "d_trafego": null }, "geometry": { "type": "MultiLineString", "coordinates": [ [ [ 351235.034305296372622, 6882282.424858523532748 ], [ 351210.321538761432748, 6882330.938392575830221 ], [ 351046.114921512780711, 6882681.695751318708062 ] ] ] } },
{ "type": "Feature", "properties": { "codTrechoR": "324ERS0110", "concession": null, "nrFaixas": 0, "nome": "ERS-324", "d_geometri": null, "d_tipoTrec": "Rodovia", "d_jurisdic": "Estadual", "d_administ": null, "d_revestim": "Pavimentado", "d_situacao": null, "d_trafego": null }, "geometry": { "type": "MultiLineString", "coordinates": [ [ [ 351046.114921512780711, 6882681.695751318708062 ], [ 351013.734604050638154, 6882748.530382387340069 ], [ 350980.831115156935994, 6882801.119303274899721 ], [ 350912.112909618706908, 6882858.79745326936245 ], [ 350851.047942766570486, 6882893.293294440954924 ], [ 350700.235108289809432, 6882921.868354510515928 ], [ 350516.084774879855104, 6882958.380844997242093 ], [ 350385.909526229021139, 6882982.193399175070226 ], [ 350263.671699129394256, 6882972.668432371690869 ], [ 350108.096402969677001, 6882931.393347328528762 ], [ 349985.858697840245441, 6882928.218323644250631 ], [ 349877.908450004761107, 6882969.493374766781926 ], [ 349806.470784949255176, 6883036.168503902852535 ], [ 349769.958268100745045, 6883093.318692535161972 ], [ 349747.733221296337433, 6883164.756291167810559 ], [ 349739.79571440781001, 6883231.431389287114143 ], [ 349733.445699563482776, 6883337.794191165827215 ], [ 349716.268662654096261, 6883536.558351330459118 ], [ 349707.909600437385961, 6883692.254104686900973 ], [ 349698.703107829671353, 6883760.731557503342628 ], [ 349688.791771873715334, 6883805.433088592253625 ], [ 349662.308738128747791, 6883867.065243504941463 ], [ 349634.281321541639045, 6883919.409309549257159 ], [ 349572.567062718444504, 6883995.099253851920366 ], [ 349431.880841928999871, 6884217.455665981397033 ], [ 349391.816400498559233, 6884268.702774036675692 ], [ 349301.236021865159273, 6884384.563509998843074 ], [ 349201.86140514514409, 6884490.686980864033103 ] ] ] } },
{ "type": "Feature", "properties": { "codTrechoR": "324ERS0110", "concession": null, "nrFaixas": 0, "nome": "ERS-324", "d_geometri": null, "d_tipoTrec": "Rodovia", "d_jurisdic": "Estadual", "d_administ": null, "d_revestim": "Pavimentado", "d_situacao": null, "d_trafego": null }, "geometry": { "type": "MultiLineString", "coordinates": [ [ [ 349201.86140514514409, 6884490.686980864033103 ], [ 349176.473228303482756, 6884506.201137766242027 ], [ 349163.836227328749374, 6884513.923236414790154 ] ] ] } },
{ "type": "Feature", "properties": { "codTrechoR": "324ERS0110", "concession": null, "nrFaixas": 0, "nome": "ERS-324", "d_geometri": null, "d_tipoTrec": "Rodovia", "d_jurisdic": "Estadual", "d_administ": null, "d_revestim": "Pavimentado", "d_situacao": null, "d_trafego": null }, "geometry": { "type": "MultiLineString", "coordinates": [ [ [ 347999.355894681590144, 6886940.448301292955875 ], [ 348005.95106561051216, 6887049.694919466972351 ], [ 348015.211499064753298, 6887123.778384177014232 ], [ 348019.428136433241889, 6887186.185200002044439 ], [ 348028.440699742699508, 6887319.570515108294785 ], [ 348040.705446684209164, 6887475.115555223077536 ] ] ] } },
{ "type": "Feature", "properties": { "codTrechoR": "324ERS0110", "concession": null, "nrFaixas": 0, "nome": "ERS-324", "d_geometri": null, "d_tipoTrec": "Rodovia", "d_jurisdic": "Estadual", "d_administ": null, "d_revestim": "Pavimentado", "d_situacao": null, "d_trafego": null }, "geometry": { "type": "MultiLineString", "coordinates": [ [ [ 348028.746849948249292, 6886870.701285559684038 ], [ 348007.030503718997352, 6886915.581804187968373 ], [ 348010.052332370309159, 6886933.108917460776865 ], [ 347999.355894681590144, 6886940.448301292955875 ] ] ] } }
]
}
