{
"type": "FeatureCollection",
"name": "Rodovia Federal",
"crs": { "type": "name", "properties": { "name": "urn:ogc:def:crs:EPSG::31982" } },
"features": [
{ "type": "Feature", "properties": { "codTrechoR": "285BRS0191", "concession": null, "nrFaixas": 0, "nome": null, "d_geometri": null, "d_tipoTrec": "Rodovia", "d_jurisdic": "Federal", "d_administ": null, "d_revestim": "Pavimentado", "d_situacao": null, "d_trafego": null }, "geometry": { "type": "MultiLineString", "coordinates": [ [ [ 354769.366748196014669, 6876712.197765555232763 ], [ 354812.767931290785782, 6876724.54760476667434 ], [ 354907.130305287311785, 6876751.652156187221408 ], [ 355067.920960896532051, 6876826.91050997748971 ], [ 355160.436650150688365, 6876881.52582576777786 ], [ 355244.133804735552985, 6876931.68566710781306 ], [ 355285.408869801554829, 6876953.910738822072744 ], [ 355410.737598999985494, 6877021.831057262606919 ], [ 355531.471823872765526, 6877087.260949711315334 ], [ 355818.487800060189329, 6877250.444493885152042 ], [ 356146.393103151989635, 6877449.681561428122222 ] ] ] } },
{ "type": "Feature", "properties": { "codTrechoR": "285BRS0183", "concession": null, "nrFaixas": 0, "nome": null, "d_geometri": null, "d_tipoTrec": "Rodovia", "d_jurisdic": "Federal", "d_administ": null, "d_revestim": "Pavimentado", "d_situacao": null, "d_trafego": null }, "geometry": { "type": "MultiLineString", "coordinates": [ [ [ 375833.653295161842834, 6874539.930091704241931 ], [ 375831.427082120790146, 6874540.730059007182717 ], [ 375744.978118451370392, 6874578.716494450345635 ], [ 375632.430437030445319, 6874610.121449586935341 ], [ 375611.065785400336608, 6874616.207744421437383 ], [ 375484.232551567838527, 6874652.338478617370129 ], [ 375434.186244697368238, 6874651.471725364215672 ], [ 375370.599800806958228, 6874659.241626620292664 ], [ 375297.404674288991373, 6874658.473143076524138 ], [ 375226.795515301986597, 6874657.73138221167028 ], [ 374844.695611740462482, 6874670.584274033084512 ], [ 374633.423863213858567, 6874690.503044595941901 ], [ 374094.831643769692164, 6874739.359344312921166 ], [ 373631.554813813185319, 6874781.363880192860961 ], [ 373141.139469071873464, 6874820.992728551849723 ], [ 372744.263670945074409, 6874855.388620087876916 ], [ 372249.491843281779438, 6874903.013712599873543 ], [ 372082.803978798212484, 6874926.826274547725916 ], [ 371423.866696786135435, 6875163.019237885251641 ], [ 371204.385599679721054, 6875241.681107648648322 ], [ 370731.394098786637187, 6875438.372197094373405 ], [ 370669.926181415270548, 6875463.931529104709625 ], [ 370490.524282980826683, 6875549.027384683489799 ] ] ] } },
{ "type": "Feature", "properties": { "codTrechoR": "285BRS0185", "concession": null, "nrFaixas": 0, "nome": null, "d_geometri": null, "d_tipoTrec": "Rodovia", "d_jurisdic": "Federal", "d_administ": null, "d_revestim": "Pavimentado", "d_situacao": null, "d_trafego": null }, "geometry": { "type": "MultiLineString", "coordinates": [ [ [ 365176.30340745387366, 6875768.839621463790536 ], [ 365250.91603415098507, 6875748.202076120302081 ], [ 365514.482969353441149, 6875688.02717680297792 ], [ 365598.579232189571485, 6875668.826924653723836 ], [ 365970.054973292746581, 6875573.576743489131331 ], [ 366125.630235046031885, 6875554.526716751046479 ] ] ] } },
{ "type": "Feature", "properties": { "codTrechoR": "285BRS0190", "concession": null, "nrFaixas": 0, "nome": "BRS-285", "d_geometri": null, "d_tipoTrec": "Rodovia", "d_jurisdic": "Federal", "d_administ": null, "d_revestim": "Pavimentado", "d_situacao": null, "d_trafego": null }, "geometry": { "type": "MultiLineString", "coordinates": [ [ [ 364898.761261975043453, 6875838.956565025262535 ], [ 364886.716408394742757, 6875842.726332776248455 ], [ 364686.049635624163784, 6875893.111433500424027 ], [ 364559.293270052527077, 6875923.058233976364136 ], [ 364160.125571972690523, 6876017.353544214740396 ], [ 364102.092892995337024, 6876030.248409662395716 ], [ 363961.990311868721619, 6876064.120051568374038 ], [ 363799.049751660902984, 6876108.137593679130077 ], [ 363712.449496659566648, 6876136.448729950003326 ], [ 363640.658796557690948, 6876166.815470837056637 ], [ 363582.865462239133194, 6876193.2448152564466 ], [ 363351.383383145614062, 6876319.786347015760839 ], [ 363271.164089986821637, 6876363.637213121168315 ], [ 363134.92542650224641, 6876432.732842078432441 ], [ 363120.125319631071761, 6876438.858021693304181 ], [ 363064.561606357689016, 6876459.34409551974386 ], [ 362983.135786206345074, 6876473.171127552166581 ], [ 362908.393486556480639, 6876474.418449699878693 ], [ 362882.125639488280285, 6876473.107857100665569 ], [ 362815.020442313863896, 6876471.231388356536627 ], [ 362683.646904366149101, 6876442.291934726759791 ], [ 362654.027697968762368, 6876432.625215050764382 ], [ 362620.423295635380782, 6876424.478450663387775 ], [ 362608.568623196042608, 6876419.84041831549257 ], [ 362501.935147363226861, 6876386.936072555370629 ], [ 362455.140617355471477, 6876374.529265166260302 ], [ 362414.004824726958759, 6876357.441598050296307 ], [ 362152.372189760964829, 6876182.52671535871923 ], [ 361915.749197016470134, 6876045.245580595918 ], [ 361329.25403168424964, 6875932.352412442676723 ], [ 361180.791506959532853, 6875907.611023622564971 ], [ 360821.252957253018394, 6875847.685626354068518 ], [ 360643.277372152660973, 6875820.366146061569452 ], [ 360456.804562373785302, 6875791.739385891705751 ], [ 360419.907928418950178, 6875786.07475664652884 ], [ 360325.731536656967364, 6875779.158335378393531 ], [ 360193.968693827278912, 6875763.283309829421341 ], [ 360074.906020863214508, 6875763.283379290252924 ] ] ] } },
{ "type": "Feature", "properties": { "codTrechoR": "285BRS0210", "concession": null, "nrFaixas": 0, "nome": "BRS-285", "d_geometri": null, "d_tipoTrec": "Rodovia", "d_jurisdic": "Federal", "d_administ": null, "d_revestim": "Pavimentado", "d_situacao": null, "d_trafego": null }, "geometry": { "type": "MultiLineString", "coordinates": [ [ [ 350342.156466580578126, 6875731.747354372404516 ], [ 350362.504172120301519, 6875766.301846960559487 ], [ 350517.337670642649755, 6875957.352631436660886 ], [ 350618.802211636852007, 6876098.916234164498746 ], [ 350703.907804427901283, 6876189.708850687369704 ], [ 350750.938658822618891, 6876238.290818465873599 ], [ 350786.086154883494601, 6876266.155741414055228 ], [ 350805.928692992252763, 6876285.390367702580988 ], [ 350870.441030534217134, 6876324.402302917093039 ], [ 350970.22502939903643, 6876379.588346266187727 ], [ 351158.490333069057669, 6876478.084344256669283 ], [ 351231.38129536586348, 6876513.276405157521367 ], [ 351429.659732019761577, 6876606.465244613587856 ], [ 351556.290848517848644, 6876677.133444795385003 ], [ 351611.43754385469947, 6876712.10137156676501 ], [ 351670.425951059092768, 6876738.679106716997921 ], [ 351730.532863482716493, 6876750.503948508761823 ], [ 351750.094955036067404, 6876754.966929467394948 ], [ 351792.604920425161254, 6876759.953678980469704 ], [ 351829.32735257607419, 6876771.035993079654872 ], [ 351839.137095142388716, 6876779.734235752373934 ] ] ] } },
{ "type": "Feature", "properties": { "codTrechoR": "285BRS0210", "concession": null, "nrFaixas": 0, "nome": "BRS-285", "d_geometri": null, "d_tipoTrec": "Rodovia", "d_jurisdic": "Federal", "d_administ": null, "d_revestim": "Pavimentado", "d_situacao": null, "d_trafego": null }, "geometry": { "type": "MultiLineString", "coordinates": [ [ [ 335785.84554638818372, 6871783.118371184915304 ], [ 335848.453231519379187, 6871801.248895732685924 ], [ 335953.523802109062672, 6871834.347364507615566 ], [ 336081.648104298627004, 6871861.76483640819788 ], [ 336112.299389830091968, 6871868.174760852009058 ], [ 336203.007873423339333, 6871893.161256339401007 ], [ 336298.330739663681015, 6871922.166448654606938 ], [ 336411.215678040403873, 6871947.45730490423739 ], [ 336485.567169972928241, 6871973.534607108682394 ], [ 336542.666190900024958, 6871980.914233785122633 ], [ 336584.665074718242977, 6871982.811352031305432 ], [ 336608.080493551911786, 6871977.859758186154068 ], [ 336776.656423908076249, 6871943.261348558589816 ], [ 336902.821285680984147, 6871918.22129468806088 ], [ 337012.961332536244299, 6871893.860344227403402 ], [ 337097.589248476084322, 6871877.222657766193151 ], [ 337226.05454410094535, 6871856.043544186279178 ], [ 337404.859828070795629, 6871815.775379993021488 ], [ 337456.950868378859013, 6871796.711259895935655 ], [ 337552.911568044219166, 6871770.732227805070579 ], [ 337618.225985751487315, 6871757.781908521428704 ], [ 337703.084511582565028, 6871724.134057581424713 ], [ 337785.600268024601974, 6871692.524481831118464 ], [ 337849.787343850010075, 6871662.627870722673833 ], [ 338040.643398183630779, 6871586.00307509303093 ], [ 338052.133488013234455, 6871580.436588399112225 ] ] ] } },
{ "type": "Feature", "properties": { "codTrechoR": "285BRS0210", "concession": null, "nrFaixas": 0, "nome": "BRS-285", "d_geometri": null, "d_tipoTrec": "Rodovia", "d_jurisdic": "Federal", "d_administ": null, "d_revestim": "Pavimentado", "d_situacao": null, "d_trafego": null }, "geometry": { "type": "MultiLineString", "coordinates": [ [ [ 338389.229508472257294, 6871445.317933019250631 ], [ 338491.401593393646181, 6871404.361701690591872 ], [ 338556.68393262475729, 6871388.876815034076571 ], [ 338667.914440192223992, 6871364.019905430264771 ], [ 338770.032983191427775, 6871365.408562391996384 ], [ 338848.407109186984599, 6871396.140448424965143 ], [ 338914.931831095600501, 6871439.896186565980315 ], [ 338990.16541307605803, 6871487.066019799560308 ], [ 339042.326244550698902, 6871514.144394505769014 ], [ 339126.358550832374021, 6871558.136316035874188 ], [ 339196.01375558442669, 6871589.724321144632995 ], [ 339216.271726353035774, 6871598.911051612347364 ], [ 339297.476818250492215, 6871636.270821928046644 ], [ 339352.512028366443701, 6871666.682955989614129 ], [ 339497.685480816289783, 6871721.389017006382346 ], [ 339686.359400567656849, 6871796.458766393363476 ] ] ] } },
{ "type": "Feature", "properties": { "codTrechoR": "285BRS0210", "concession": null, "nrFaixas": 0, "nome": "BRS-285", "d_geometri": null, "d_tipoTrec": "Rodovia", "d_jurisdic": "Federal", "d_administ": null, "d_revestim": "Pavimentado", "d_situacao": null, "d_trafego": null }, "geometry": { "type": "MultiLineString", "coordinates": [ [ [ 338052.133488013234455, 6871580.436588399112225 ], [ 338389.229508472257294, 6871445.317933019250631 ] ] ] } },
{ "type": "Feature", "properties": { "codTrechoR": "285BRS0210", "concession": null, "nrFaixas": 0, "nome": "BRS-285", "d_geometri": null, "d_tipoTrec": "Rodovia", "d_jurisdic": "Federal", "d_administ": null, "d_revestim": "Pavimentado", "d_situacao": null, "d_trafego": null }, "geometry": { "type": "MultiLineString", "coordinates": [ [ [ 339686.359400567656849, 6871796.458766393363476 ], [ 339913.216085061605554, 6871885.214769491925836 ] ] ] } },
{ "type": "Feature", "properties": { "codTrechoR": "285BRS0210", "concession": null, "nrFaixas": 0, "nome": "BRS-285", "d_geometri": null, "d_tipoTrec": "Rodovia", "d_jurisdic": "Federal", "d_administ": null, "d_revestim": "Pavimentado", "d_situacao": null, "d_trafego": null }, "geometry": { "type": "MultiLineString", "coordinates": [ [ [ 339913.216085061605554, 6871885.214769491925836 ], [ 339976.076557478634641, 6871909.807415902614594 ] ] ] } },
{ "type": "Feature", "properties": { "codTrechoR": "285BRS0210", "concession": null, "nrFaixas": 0, "nome": "BRS-285", "d_geometri": null, "d_tipoTrec": "Rodovia", "d_jurisdic": "Federal", "d_administ": null, "d_revestim": "Pavimentado", "d_situacao": null, "d_trafego": null }, "geometry": { "type": "MultiLineString", "coordinates": [ [ [ 340727.161339472397231, 6872091.713953845202923 ], [ 340775.634426399541553, 6872088.280542524531484 ], [ 340921.490359070943668, 6872075.46994660794735 ], [ 341366.821291667525657, 6872014.980540970340371 ], [ 341586.993936951213982, 6871994.675284124910831 ], [ 341746.436558815417811, 6871979.968243917450309 ], [ 341833.366293784987647, 6871966.4803735204041 ], [ 342109.523326915921643, 6871923.62795789167285 ], [ 342403.205296917294618, 6871889.560510395094752 ], [ 342614.49750689585926, 6871871.269760605879128 ], [ 342760.011856004886795, 6871883.747412776574492 ], [ 342836.238468973431736, 6871910.072648948058486 ], [ 342867.732179086771794, 6871929.476272376254201 ], [ 342934.426885475753807, 6871970.441738199442625 ], [ 343002.682303798850626, 6872034.632879550568759 ], [ 343128.649732085759751, 6872215.852817957289517 ], [ 343166.368554167915136, 6872269.434268863871694 ] ] ] } },
{ "type": "Feature", "properties": { "codTrechoR": "285BRS0210", "concession": null, "nrFaixas": 0, "nome": "BRS-285", "d_geometri": null, "d_tipoTrec": "Rodovia", "d_jurisdic": "Federal", "d_administ": null, "d_revestim": "Pavimentado", "d_situacao": null, "d_trafego": null }, "geometry": { "type": "MultiLineString", "coordinates": [ [ [ 339976.076557478634641, 6871909.807415902614594 ], [ 340087.68885596934706, 6871958.277505218982697 ], [ 340309.684713691473007, 6872033.634613942354918 ], [ 340410.710477578220889, 6872073.230920543894172 ], [ 340486.272683509916533, 6872096.661817382089794 ], [ 340543.950900182127953, 6872104.689435066655278 ], [ 340653.033161966886837, 6872096.964228812605143 ], [ 340727.161339472397231, 6872091.713953845202923 ] ] ] } },
{ "type": "Feature", "properties": { "codTrechoR": "285BRS0210", "concession": null, "nrFaixas": 0, "nome": "BRS-285", "d_geometri": null, "d_tipoTrec": "Rodovia", "d_jurisdic": "Federal", "d_administ": null, "d_revestim": "Pavimentado", "d_situacao": null, "d_trafego": null }, "geometry": { "type": "MultiLineString", "coordinates": [ [ [ 343166.368554167915136, 6872269.434268863871694 ], [ 343351.028201177367009, 6872531.743189338594675 ] ] ] } },
{ "type": "Feature", "properties": { "codTrechoR": "285BRS0210", "concession": null, "nrFaixas": 0, "nome": "BRS-285", "d_geometri": null, "d_tipoTrec": "Rodovia", "d_jurisdic": "Federal", "d_administ": null, "d_revestim": "Pavimentado", "d_situacao": null, "d_trafego": null }, "geometry": { "type": "MultiLineString", "coordinates": [ [ [ 343351.028201177367009, 6872531.743189338594675 ], [ 343380.319136894773692, 6872573.349547246471047 ], [ 343554.308111467282288, 6872835.123484417796135 ], [ 343632.83213668235112, 6872971.171612284146249 ], [ 343663.57984887692146, 6873047.521619909442961 ], [ 343737.344074584543705, 6873261.560517588630319 ], [ 343786.436061455518939, 6873363.466498271562159 ], [ 343828.280417672765907, 6873448.400294500403106 ] ] ] } },
{ "type": "Feature", "properties": { "codTrechoR": "285BRS0210", "concession": null, "nrFaixas": 0, "nome": null, "d_geometri": null, "d_tipoTrec": "Rodovia", "d_jurisdic": "Federal", "d_administ": null, "d_revestim": "Pavimentado", "d_situacao": null, "d_trafego": null }, "geometry": { "type": "MultiLineString", "coordinates": [ [ [ 343828.280417672765907, 6873448.400294500403106 ], [ 343885.565812032786198, 6873495.564553345553577 ], [ 343926.181707112467848, 6873531.961504274047911 ], [ 343952.078776643029414, 6873551.288150257430971 ], [ 344014.801617111545056, 6873611.180635930970311 ], [ 344108.776318267162424, 6873709.455602113157511 ], [ 344167.322520159475971, 6873803.045483142137527 ], [ 344204.011290022812318, 6873854.156828278675675 ], [ 344244.463363842223771, 6873903.207697235047817 ], [ 344290.574131506145932, 6873948.113637978211045 ], [ 344329.435848448483739, 6873976.047708347439766 ], [ 344416.332279086345807, 6874044.69304974284023 ], [ 344554.071922120056115, 6874082.359906610101461 ], [ 344650.971331505803391, 6874100.504827247932553 ], [ 344751.661519031855278, 6874114.479310680180788 ], [ 344852.512803655699827, 6874127.118413590826094 ], [ 344995.972095524892211, 6874145.095837440341711 ], [ 345019.765835633443203, 6874148.53683203831315 ], [ 345156.319393166457303, 6874168.283831588923931 ], [ 345247.589537701336667, 6874188.459857142530382 ], [ 345318.122742740728427, 6874223.13194939494133 ], [ 345406.976513090252411, 6874285.466418646275997 ], [ 345638.083512393175624, 6874469.895038269460201 ], [ 345772.895037522423081, 6874589.781890937127173 ], [ 345911.636494668433443, 6874694.951038795523345 ], [ 346000.250652691815048, 6874776.263583248481154 ], [ 346107.735434959700797, 6874843.052964488044381 ], [ 346203.771514875406865, 6874869.534168140031397 ], [ 346236.176934445800725, 6874878.469473283737898 ], [ 346363.024245438457001, 6874892.768446468748152 ], [ 346456.332916330778971, 6874900.303842812776566 ], [ 346512.285502379061654, 6874907.355755359865725 ], [ 346553.295590193476528, 6874914.214339998550713 ], [ 346590.570127394224983, 6874921.024526240304112 ], [ 346693.136504289344884, 6874935.006248951889575 ], [ 346770.494905384373851, 6874943.678484607487917 ] ] ] } },
{ "type": "Feature", "properties": { "codTrechoR": "285BRS0210", "concession": null, "nrFaixas": 0, "nome": null, "d_geometri": null, "d_tipoTrec": "Rodovia", "d_jurisdic": "Federal", "d_administ": null, "d_revestim": "Pavimentado", "d_situacao": null, "d_trafego": null }, "geometry": { "type": "MultiLineString", "coordinates": [ [ [ 346770.494905384373851, 6874943.678484607487917 ], [ 346799.465875916241203, 6874946.926150167360902 ], [ 346827.401473955367692, 6874953.615103974938393 ], [ 346866.259481139830314, 6874957.77783015370369 ], [ 346916.975110506929923, 6874961.098666537553072 ], [ 346981.274969311896712, 6874959.725431742146611 ], [ 347079.204576613847166, 6874942.649614966474473 ], [ 347178.329404892341699, 6874942.85184206161648 ], [ 347255.359804071951658, 6874945.161255666986108 ], [ 347275.448578930576332, 6874955.260771160013974 ], [ 347321.875602497777436, 6874978.601553669199347 ] ] ] } },
{ "type": "Feature", "properties": { "codTrechoR": "285BRS0210", "concession": null, "nrFaixas": 0, "nome": null, "d_geometri": null, "d_tipoTrec": "Rodovia", "d_jurisdic": "Federal", "d_administ": null, "d_revestim": "Pavimentado", "d_situacao": null, "d_trafego": null }, "geometry": { "type": "MultiLineString", "coordinates": [ [ [ 347321.875602497777436, 6874978.601553669199347 ], [ 347356.261256247002166, 6874997.878538636490703 ], [ 347392.230114580830559, 6875015.480768676847219 ], [ 347427.048550786916167, 6875031.749678499996662 ], [ 347514.501296458474826, 6875040.783613035455346 ], [ 347579.6890873699449, 6875056.123407392762601 ], [ 347634.438107330119237, 6875066.055110668763518 ], [ 347679.898816502420232, 6875071.912162974476814 ], [ 347721.891177057172172, 6875075.087499992921948 ], [ 347788.415673233859707, 6875077.258696023374796 ], [ 347915.390667602710892, 6875078.159917643293738 ], [ 347958.956385729543399, 6875071.532496883533895 ], [ 348003.452196818892844, 6875061.554331223480403 ], [ 348056.069468718604185, 6875059.261083647608757 ] ] ] } },
{ "type": "Feature", "properties": { "codTrechoR": "285BRS0183", "concession": null, "nrFaixas": 0, "nome": null, "d_geometri": null, "d_tipoTrec": "Rodovia", "d_jurisdic": "Federal", "d_administ": null, "d_revestim": "Pavimentado", "d_situacao": null, "d_trafego": null }, "geometry": { "type": "MultiLineString", "coordinates": [ [ [ 370490.524282980826683, 6875549.027384683489799 ], [ 370478.563995325181168, 6875545.001609714701772 ], [ 370157.888415282359347, 6875687.87691053468734 ], [ 370002.501118021842558, 6875752.484569502994418 ], [ 369889.058989608951379, 6875799.650381790474057 ], [ 369681.053349843074102, 6875870.035650691017509 ], [ 369613.374759638507385, 6875881.552360593341291 ], [ 369497.487083303276449, 6875886.314834456890821 ], [ 369256.186528141901363, 6875875.202321755699813 ], [ 369040.28616177738877, 6875878.377297379076481 ], [ 368941.860969992645551, 6875859.3272505979985 ], [ 368705.322993291076273, 6875799.002199553884566 ], [ 368414.809863870963454, 6875727.564496049657464 ], [ 368224.309477659757249, 6875683.114427363499999 ], [ 368113.184312518453225, 6875670.414351187646389 ], [ 367882.996295477729291, 6875691.051956452429295 ], [ 367787.746077171061188, 6875703.751990858465433 ], [ 367628.995822342578322, 6875716.452022196725011 ], [ 367428.970385735621676, 6875700.576911387033761 ], [ 366987.644540877081454, 6875648.189401497133076 ], [ 366853.42262490245048, 6875633.945383688434958 ] ] ] } },
{ "type": "Feature", "properties": { "codTrechoR": "285BRS0185", "concession": null, "nrFaixas": 0, "nome": "BRS-285", "d_geometri": null, "d_tipoTrec": "Rodovia", "d_jurisdic": "Federal", "d_administ": null, "d_revestim": "Pavimentado", "d_situacao": null, "d_trafego": null }, "geometry": { "type": "MultiLineString", "coordinates": [ [ [ 366125.630235046031885, 6875554.526716751046479 ], [ 366314.543129700701684, 6875568.81415824405849 ], [ 366347.160096115549095, 6875573.187778100371361 ], [ 366598.706218533101492, 6875606.914267376996577 ], [ 366853.42262490245048, 6875633.945383688434958 ] ] ] } },
{ "type": "Feature", "properties": { "codTrechoR": "285BRS0190", "concession": null, "nrFaixas": 0, "nome": "BRS-285", "d_geometri": null, "d_tipoTrec": "Rodovia", "d_jurisdic": "Federal", "d_administ": null, "d_revestim": "Pavimentado", "d_situacao": null, "d_trafego": null }, "geometry": { "type": "MultiLineString", "coordinates": [ [ [ 360074.906020863214508, 6875763.283379290252924 ], [ 360006.643384678813163, 6875772.808378235436976 ], [ 359873.293102429131977, 6875812.495897425338626 ], [ 359719.305285782553256, 6875872.82110495865345 ], [ 359654.582959535473492, 6875899.914429478347301 ], [ 359580.020031066902447, 6875930.925276558846235 ], [ 359454.192192543763667, 6875974.421281691640615 ], [ 359344.654472741414793, 6876034.74633795581758 ], [ 359261.566204110626131, 6876082.226645084097981 ], [ 359055.728960632812232, 6876199.846697576344013 ], [ 358844.784111100365408, 6876331.011766950599849 ], [ 358814.147822627564892, 6876350.060824552550912 ], [ 358712.55109912349144, 6876412.680045669898391 ], [ 358609.640522943402175, 6876476.072256125509739 ], [ 358557.67062016390264, 6876505.600826116278768 ], [ 358471.271109447465278, 6876554.691295417025685 ], [ 358363.54028994392138, 6876619.036818342283368 ], [ 358201.652220226067584, 6876715.785210784524679 ], [ 358027.026912333094515, 6876814.210464088246226 ], [ 357971.46424884640146, 6876847.548036815598607 ], [ 357958.816602266742848, 6876855.904534531757236 ], [ 357921.470071508199908, 6876877.954854290932417 ], [ 357754.003106499672867, 6876976.344328317791224 ], [ 357396.63730389502598, 6877191.74148278310895 ], [ 357355.512982402578928, 6877215.848727475851774 ], [ 357321.337222439353354, 6877234.704305111430585 ], [ 357075.007835432013962, 6877379.238927490077913 ], [ 356985.201425973908044, 6877426.105282792821527 ], [ 356763.668472297838889, 6877514.143668966367841 ], [ 356737.745567535050213, 6877523.36512148194015 ], [ 356611.673954156751279, 6877568.211231274530292 ], [ 356517.01361265470041, 6877593.437124802730978 ], [ 356501.096048558247276, 6877596.409087955951691 ], [ 356473.994852179428563, 6877597.136647250503302 ], [ 356451.640548965893686, 6877591.593158168718219 ], [ 356426.894131725770421, 6877582.604642753489316 ] ] ] } },
{ "type": "Feature", "properties": { "codTrechoR": "285BRS0190", "concession": null, "nrFaixas": 0, "nome": "BRS-285", "d_geometri": null, "d_tipoTrec": "Rodovia", "d_jurisdic": "Federal", "d_administ": null, "d_revestim": "Pavimentado", "d_situacao": null, "d_trafego": null }, "geometry": { "type": "MultiLineString", "coordinates": [ [ [ 365176.30340745387366, 6875768.839621463790536 ], [ 365164.020897642360069, 6875771.438020307570696 ], [ 364915.747741054045036, 6875833.640207452699542 ], [ 364898.761261975043453, 6875838.956565025262535 ] ] ] } },
{ "type": "Feature", "properties": { "codTrechoR": "285BRS0210", "concession": null, "nrFaixas": 0, "nome": "BRS-285", "d_geometri": null, "d_tipoTrec": "Rodovia", "d_jurisdic": "Federal", "d_administ": null, "d_revestim": "Pavimentado", "d_situacao": null, "d_trafego": null }, "geometry": { "type": "MultiLineString", "coordinates": [ [ [ 348056.069468718604185, 6875059.261083647608757 ], [ 348236.99300279666204, 6875063.920765542425215 ], [ 348387.030946518993005, 6875109.346130001358688 ], [ 348453.118207100196742, 6875145.787788884714246 ], [ 348515.449982743826695, 6875162.276993006467819 ], [ 348624.423167391680181, 6875171.704453630372882 ], [ 348865.319850703235716, 6875234.102594966068864 ], [ 348949.12147595413262, 6875254.945441346615553 ], [ 349018.86426811752608, 6875279.564223393797874 ], [ 349095.561464045778848, 6875308.226291716098785 ], [ 349168.806977538391948, 6875332.888769398443401 ], [ 349231.495818281895481, 6875361.372024431824684 ], [ 349278.921112629352137, 6875372.241623915731907 ], [ 349468.996966049773619, 6875415.803725589066744 ], [ 350003.493767405278049, 6875529.359270250424743 ], [ 350060.053002667264082, 6875555.378530688583851 ], [ 350118.42044345207978, 6875582.2291868198663 ], [ 350188.266885909251869, 6875598.931606635451317 ], [ 350271.474760023877025, 6875667.221106326207519 ], [ 350333.790769301354885, 6875721.303160201758146 ] ] ] } },
{ "type": "Feature", "properties": { "codTrechoR": "285BRS0210", "concession": null, "nrFaixas": 0, "nome": "BRS-285", "d_geometri": null, "d_tipoTrec": "Rodovia", "d_jurisdic": "Federal", "d_administ": null, "d_revestim": "Pavimentado", "d_situacao": null, "d_trafego": null }, "geometry": { "type": "MultiLineString", "coordinates": [ [ [ 350333.790769301354885, 6875721.303160201758146 ], [ 350342.156466580578126, 6875731.747354372404516 ] ] ] } },
{ "type": "Feature", "properties": { "codTrechoR": "285BRS0210", "concession": null, "nrFaixas": 0, "nome": "BRS-285", "d_geometri": null, "d_tipoTrec": "Rodovia", "d_jurisdic": "Federal", "d_administ": null, "d_revestim": "Pavimentado", "d_situacao": null, "d_trafego": null }, "geometry": { "type": "MultiLineString", "coordinates": [ [ [ 352481.635971723473631, 6876696.34500671364367 ], [ 352782.375179206603207, 6876620.044532084837556 ], [ 352851.056861171149649, 6876604.182901006191969 ], [ 352938.18215902405791, 6876584.06106473505497 ], [ 353049.007821623701602, 6876542.125976793467999 ], [ 353130.935209838557057, 6876525.475982789881527 ], [ 353191.224956530262716, 6876513.036789570003748 ], [ 353257.8301328769885, 6876509.245079337619245 ], [ 353302.154794398520608, 6876513.088386937044561 ], [ 353508.789756840735208, 6876518.860669076442719 ], [ 353524.964675205643289, 6876519.772057887166739 ], [ 353607.983527221367694, 6876523.992605580948293 ], [ 353648.195287585724145, 6876526.036700469441712 ], [ 353809.360373594216071, 6876524.065282957628369 ], [ 353882.183819206431508, 6876527.334112146869302 ], [ 353960.543277910852339, 6876536.207914315164089 ], [ 354008.041653431835584, 6876547.866219349205494 ], [ 354062.448067174525931, 6876567.51968140527606 ], [ 354159.994914045906626, 6876611.433939466252923 ], [ 354216.435435945517384, 6876636.649004967883229 ], [ 354263.876214154297486, 6876653.051912683993578 ], [ 354304.370246992562898, 6876664.623089221306145 ], [ 354329.254301104287151, 6876672.197689475491643 ], [ 354560.133287137141451, 6876698.757081239484251 ], [ 354769.366748196014669, 6876712.197765555232763 ] ] ] } },
{ "type": "Feature", "properties": { "codTrechoR": "285BRS0210", "concession": null, "nrFaixas": 0, "nome": "BRS-285", "d_geometri": null, "d_tipoTrec": "Rodovia", "d_jurisdic": "Federal", "d_administ": null, "d_revestim": "Pavimentado", "d_situacao": null, "d_trafego": null }, "geometry": { "type": "MultiLineString", "coordinates": [ [ [ 352348.173191456706263, 6876714.599588003009558 ], [ 352360.574560075474437, 6876712.863234222866595 ], [ 352481.635971723473631, 6876696.34500671364367 ] ] ] } },
{ "type": "Feature", "properties": { "codTrechoR": "285BRS0210", "concession": null, "nrFaixas": 0, "nome": "BRS-285", "d_geometri": null, "d_tipoTrec": "Rodovia", "d_jurisdic": "Federal", "d_administ": null, "d_revestim": "Pavimentado", "d_situacao": null, "d_trafego": null }, "geometry": { "type": "MultiLineString", "coordinates": [ [ [ 351839.137095142388716, 6876779.734235752373934 ], [ 352003.02596838073805, 6876762.920764258131385 ], [ 352025.095900964399334, 6876759.831287406384945 ], [ 352348.173191456706263, 6876714.599588003009558 ] ] ] } },
{ "type": "Feature", "properties": { "codTrechoR": "285BRS0191", "concession": null, "nrFaixas": 0, "nome": "BRS-285", "d_geometri": null, "d_tipoTrec": "Rodovia", "d_jurisdic": "Federal", "d_administ": null, "d_revestim": "Pavimentado", "d_situacao": null, "d_trafego": null }, "geometry": { "type": "MultiLineString", "coordinates": [ [ [ 356146.393103151989635, 6877449.681561428122222 ], [ 356181.27105798444245, 6877489.823270695284009 ], [ 356326.075862837722525, 6877666.141539005562663 ], [ 356336.242390850093216, 6877674.303698694333434 ] ] ] } },
{ "type": "Feature", "properties": { "codTrechoR": "153BRS1666", "concession": null, "nrFaixas": 0, "nome": "BRS-153", "d_geometri": null, "d_tipoTrec": "Rodovia", "d_jurisdic": "Federal", "d_administ": null, "d_revestim": "Leito natural", "d_situacao": null, "d_trafego": null }, "geometry": { "type": "MultiLineString", "coordinates": [ [ [ 356426.894131725770421, 6877582.604642753489316 ], [ 356383.16893846396124, 6877579.154941503889859 ], [ 356350.283099257736467, 6877582.865393815562129 ], [ 356331.410259335534647, 6877598.458154488354921 ], [ 356328.34041012939997, 6877620.570200707763433 ], [ 356329.940968792303465, 6877642.738580236211419 ], [ 356336.242390850093216, 6877674.303698694333434 ] ] ] } },
{ "type": "Feature", "properties": { "codTrechoR": "153BRS1666", "concession": null, "nrFaixas": 0, "nome": "BRS-153", "d_geometri": null, "d_tipoTrec": "Rodovia", "d_jurisdic": "Federal", "d_administ": null, "d_revestim": "Leito natural", "d_situacao": null, "d_trafego": null }, "geometry": { "type": "MultiLineString", "coordinates": [ [ [ 356336.242390850093216, 6877674.303698694333434 ], [ 356360.536976051516831, 6877712.567130945622921 ], [ 356388.655233311932534, 6877821.015569002367556 ], [ 356407.667685709544457, 6877914.967710646800697 ], [ 356434.489122124679852, 6878004.621609322726727 ], [ 356456.684858373657335, 6878044.24262204580009 ], [ 356485.793246843095403, 6878093.778627148829401 ], [ 356592.84706187422853, 6878206.472637992352247 ], [ 356645.763807010662276, 6878253.039348443038762 ], [ 356669.047178926120978, 6878269.972715878859162 ], [ 356684.594360493472777, 6878278.718111790716648 ], [ 356736.780639617354609, 6878308.072811648249626 ], [ 356798.164126132498495, 6878339.822808960452676 ], [ 356895.530978538445197, 6878388.506306461058557 ], [ 357001.36452901805751, 6878407.55635897256434 ], [ 357221.037519515492022, 6878432.860777098685503 ], [ 357405.648698043194599, 6878454.123059879988432 ], [ 357460.691561630461365, 6878459.181854190304875 ], [ 357797.232803997816518, 6878490.106468251906335 ], [ 357934.816402228083462, 6878504.923176621086895 ], [ 357974.696291443135124, 6878509.670866539701819 ], [ 358072.790709758875892, 6878526.962470227852464 ], [ 358223.444169729424175, 6878585.713909868150949 ], [ 358319.792246360739227, 6878654.363548213616014 ], [ 358424.955770548374858, 6878767.414982810616493 ], [ 358473.538102573831566, 6878846.04166416823864 ], [ 358499.042610026546754, 6878901.189947389066219 ], [ 358564.867542819702066, 6879101.3125129211694 ], [ 358617.728834769339301, 6879291.788175040856004 ], [ 358662.92923142912332, 6879433.093457603827119 ], [ 358679.937803389737383, 6879521.398606756702065 ], [ 358686.452510829141829, 6879661.224583752453327 ], [ 358675.654808802879415, 6879772.994688043370843 ], [ 358672.549740887945518, 6879813.862942235544324 ], [ 358665.960349316708744, 6879911.473735456354916 ], [ 358669.393806626147125, 6879977.89178971759975 ], [ 358672.859141922555864, 6879998.445077393203974 ] ] ] } },
{ "type": "Feature", "properties": { "codTrechoR": "153BRS1666", "concession": null, "nrFaixas": 0, "nome": null, "d_geometri": null, "d_tipoTrec": "Rodovia", "d_jurisdic": "Federal", "d_administ": null, "d_revestim": "Leito natural", "d_situacao": null, "d_trafego": null }, "geometry": { "type": "MultiLineString", "coordinates": [ [ [ 358672.859141922555864, 6879998.445077393203974 ], [ 358677.538360419683158, 6880023.300153266638517 ], [ 358679.681783354375511, 6880038.731894852593541 ], [ 358694.63089874770958, 6880107.019699325785041 ], [ 358762.099655788391829, 6880343.557702541351318 ], [ 358833.226503697340377, 6880591.172729907557368 ], [ 358843.482247124891728, 6880637.43769246712327 ], [ 358840.235227828845382, 6880674.841103155165911 ], [ 358830.542699620476924, 6881048.882207855582237 ], [ 358834.57701130019268, 6881092.832034558989108 ], [ 358870.382428694749251, 6881176.314421612769365 ], [ 358879.370893992600031, 6881215.120492905378342 ] ] ] } },
{ "type": "Feature", "properties": { "codTrechoR": "153BRS1666", "concession": null, "nrFaixas": 0, "nome": "BRS-153", "d_geometri": null, "d_tipoTrec": "Rodovia", "d_jurisdic": "Federal", "d_administ": null, "d_revestim": "Leito natural", "d_situacao": null, "d_trafego": null }, "geometry": { "type": "MultiLineString", "coordinates": [ [ [ 358879.370893992600031, 6881215.120492905378342 ], [ 358940.22607042978052, 6881260.114621270447969 ], [ 359111.676446438650601, 6881444.26493033580482 ], [ 359143.426515640574507, 6881522.581736552529037 ], [ 359147.843271600664593, 6881546.874224046245217 ], [ 359151.265753120533191, 6881571.910911459475756 ], [ 359152.542091874172911, 6881612.136496399529278 ], [ 359147.518397704232484, 6881691.179575906135142 ], [ 359139.800818939635064, 6881751.074433822184801 ], [ 359137.170049563632347, 6881817.13138323277235 ], [ 359147.056026707985438, 6881878.383507132530212 ], [ 359154.009846862987615, 6881905.699153216555715 ], [ 359217.510016384185292, 6882017.882792195305228 ], [ 359266.193376438692212, 6882079.266170212067664 ], [ 359281.010105689405464, 6882134.299615635536611 ], [ 359323.657761761569418, 6882566.473016653209925 ] ] ] } }
]
}
