{
"type": "FeatureCollection",
"name": "Abrangência das Infraestruturas Verdes",
"crs": { "type": "name", "properties": { "name": "urn:ogc:def:crs:EPSG::31982" } },
"features": [
{ "type": "Feature", "properties": { "FID": 0, "NOME": null, "NOME_2": "Logradouro Cecy Leite Costa\n", "FID_2": 2, "FID_3": null, "FID_4": 0 }, "geometry": { "type": "MultiPolygon", "coordinates": [ [ [ [ 358099.361250211775769, 6871297.94717123452574 ], [ 357604.934059211867861, 6871376.256745162419975 ], [ 357158.904846543795429, 6871603.519980235025287 ], [ 356804.934059211867861, 6871957.490767566487193 ], [ 356577.670824139553588, 6872403.519980235025287 ], [ 356499.361250211775769, 6872897.94717123452574 ], [ 356577.670824139553588, 6873392.374362234026194 ], [ 356804.934059211867861, 6873838.403574902564287 ], [ 357158.904846543795429, 6874192.374362234026194 ], [ 357604.934059211867861, 6874419.637597306631505 ], [ 358099.361250211775769, 6874497.94717123452574 ], [ 358593.788441211683676, 6874419.637597306631505 ], [ 359039.817653879756108, 6874192.374362234026194 ], [ 359347.151956917776261, 6873885.040059196762741 ], [ 359356.325858032621909, 6873886.493062390014529 ], [ 359479.932655782613438, 6873866.915668908506632 ], [ 359581.322452924505342, 6873815.254986945539713 ], [ 359658.819236224226188, 6874304.550419885665178 ], [ 359763.176797572872601, 6874509.363666117191315 ], [ 359708.869237626728136, 6874455.056106171570718 ], [ 359597.361934459710028, 6874398.24029740318656 ], [ 359473.755136709718499, 6874378.662903921678662 ], [ 359350.148338959726971, 6874398.24029740318656 ], [ 359238.641035792708863, 6874455.056106171570718 ], [ 359150.148338959726971, 6874543.548803004436195 ], [ 359093.33253019163385, 6874655.056106171570718 ], [ 359073.755136709718499, 6874778.662903921678662 ], [ 359093.33253019163385, 6874902.269701671786606 ], [ 359150.148338959726971, 6875013.77700483892113 ], [ 359238.641035792708863, 6875102.269701671786606 ], [ 359350.148338959726971, 6875159.085510440170765 ], [ 359473.755136709718499, 6875178.662903921678662 ], [ 359597.361934459710028, 6875159.085510440170765 ], [ 359708.869237626728136, 6875102.269701671786606 ], [ 359797.361934459710028, 6875013.77700483892113 ], [ 359854.177743227803148, 6874902.269701671786606 ], [ 359873.755136709718499, 6874778.662903921678662 ], [ 359861.740580614598002, 6874702.805982178077102 ], [ 359886.082471296540461, 6874750.579632554203272 ], [ 360240.053258628468029, 6875104.550419885665178 ], [ 360404.762086861068383, 6875188.473759626969695 ], [ 360416.398921685526147, 6875261.9458431256935 ], [ 360473.214730453619268, 6875373.453146292828023 ], [ 360561.70742728660116, 6875461.9458431256935 ], [ 360673.214730453619268, 6875518.761651894077659 ], [ 360796.821528203610796, 6875538.339045375585556 ], [ 360920.428325953602325, 6875518.761651894077659 ], [ 361031.935629120620433, 6875461.9458431256935 ], [ 361096.986942577350419, 6875396.894529668614268 ], [ 361180.509662296448369, 6875410.123228886164725 ], [ 361674.936853296356276, 6875331.81365495827049 ], [ 362009.764956750557758, 6875161.210215042345226 ], [ 361822.505647495621815, 6875528.727302639745176 ], [ 361744.196073567843996, 6876023.154493639245629 ], [ 361822.505647495621815, 6876517.581684638746083 ], [ 362049.768882567936089, 6876963.610897307284176 ], [ 362403.739669899863657, 6877317.581684638746083 ], [ 362849.768882567936089, 6877544.844919711351395 ], [ 363344.196073567843996, 6877623.154493639245629 ], [ 363838.623264567751903, 6877544.844919711351395 ], [ 364284.652477235824335, 6877317.581684638746083 ], [ 364638.623264567751903, 6876963.610897307284176 ], [ 364865.886499640066177, 6876517.581684638746083 ], [ 364915.775257865083404, 6876202.596461830660701 ], [ 364992.931234506133478, 6876214.816768008284271 ], [ 365116.538032256125007, 6876195.239374526776373 ], [ 365228.045335423143115, 6876138.423565758392215 ], [ 365305.128977719286922, 6876061.339923462830484 ], [ 365311.209096414037049, 6876058.933278295211494 ], [ 365407.644263551104814, 6875979.170045382343233 ], [ 365474.711363160284236, 6875873.51059745810926 ], [ 365505.845400247897487, 6875752.297617459669709 ], [ 365497.998758340196218, 6875627.396276408806443 ], [ 365474.477401486306917, 6875567.972210291773081 ], [ 365550.88083613110939, 6875555.871095056645572 ], [ 365662.388139298127498, 6875499.055286288261414 ], [ 365750.88083613110939, 6875410.562589455395937 ], [ 365807.696644899202511, 6875299.055286288261414 ], [ 365827.274038381117862, 6875175.44848853815347 ], [ 365807.696644899202511, 6875051.841690788045526 ], [ 365750.88083613110939, 6874940.334387620911002 ], [ 365662.388139298127498, 6874851.841690788045526 ], [ 365550.88083613110939, 6874795.025882019661367 ], [ 365427.274038381117862, 6874775.44848853815347 ], [ 365303.667240631126333, 6874795.025882019661367 ], [ 365192.159937464108225, 6874851.841690788045526 ], [ 365173.992658301198389, 6874870.0089699504897 ], [ 365097.017009864444844, 6874384.003853040747344 ], [ 364869.753774792130571, 6873937.974640372209251 ], [ 364515.782987460203003, 6873584.003853040747344 ], [ 364222.340017193928361, 6873434.487191714346409 ], [ 364407.226291392522398, 6873405.204082651995122 ], [ 364761.955085649213288, 6873224.460734309628606 ], [ 364749.585920790210366, 6873212.091569450683892 ], [ 364670.120050288096536, 6873199.505412026308477 ], [ 364749.585920790384989, 6873212.091569450683892 ], [ 364761.955085649329703, 6873224.460734309628606 ], [ 364767.971436291118152, 6873230.477084951475263 ], [ 364734.419885326409712, 6873264.028635916300118 ], [ 364677.604076558316592, 6873375.535939083434641 ], [ 364658.026683076401241, 6873499.142736833542585 ], [ 364677.604076558316592, 6873622.749534583650529 ], [ 364734.419885326409712, 6873734.256837750785053 ], [ 364822.912582159391604, 6873822.749534583650529 ], [ 364910.684448527114, 6873867.471534247510135 ], [ 364912.854437986970879, 6873881.172308486886322 ], [ 364969.670246755063999, 6873992.679611654020846 ], [ 365058.162943588045891, 6874081.172308486886322 ], [ 365169.670246755063999, 6874137.988117255270481 ], [ 365293.277044505055528, 6874157.565510736778378 ], [ 365416.883842255047057, 6874137.988117255270481 ], [ 365528.391145422065165, 6874081.172308486886322 ], [ 365616.883842255047057, 6873992.679611654020846 ], [ 365673.699651023140177, 6873881.172308486886322 ], [ 365693.277044505055528, 6873757.565510736778378 ], [ 365673.699651023140177, 6873633.958712986670434 ], [ 365616.883842255047057, 6873522.451409819535911 ], [ 365528.391145422065165, 6873433.958712986670434 ], [ 365440.619279054342769, 6873389.236713322810829 ], [ 365438.44928959448589, 6873375.535939083434641 ], [ 365381.63348082639277, 6873264.028635916300118 ], [ 365329.946998359635472, 6873212.34215344954282 ], [ 365363.498549324518535, 6873178.790602484717965 ], [ 365372.732503160252236, 6873160.667947679758072 ], [ 365387.613251463335473, 6873189.873060628771782 ], [ 365476.105948296317365, 6873278.365757461637259 ], [ 365587.613251463335473, 6873335.181566230021417 ], [ 365711.220049213327002, 6873354.758959711529315 ], [ 365834.82684696331853, 6873335.181566230021417 ], [ 365946.334150130336639, 6873278.365757461637259 ], [ 366034.82684696331853, 6873189.873060628771782 ], [ 366091.642655731411651, 6873078.365757461637259 ], [ 366111.220049213327002, 6872954.758959711529315 ], [ 366091.642655731411651, 6872831.152161961421371 ], [ 366034.82684696331853, 6872719.644858794286847 ], [ 365946.334150130336639, 6872631.152161961421371 ], [ 365834.82684696331853, 6872574.336353193037212 ], [ 365711.220049213327002, 6872554.758959711529315 ], [ 365587.613251463335473, 6872574.336353193037212 ], [ 365476.105948296317365, 6872631.152161961421371 ], [ 365387.613251463335473, 6872719.644858794286847 ], [ 365378.379297627601773, 6872737.76751359924674 ], [ 365363.498549324518535, 6872708.56240065023303 ], [ 365298.929172019124962, 6872643.993023345246911 ], [ 365434.489526464836672, 6872377.940847579389811 ], [ 365512.799100392614491, 6871883.513656579889357 ], [ 365434.489526464836672, 6871389.086465580388904 ], [ 365323.650779477495234, 6871171.553176325745881 ], [ 365429.377455694251694, 6871095.770069247111678 ], [ 365546.5699656427023, 6871013.536680909805 ], [ 365601.701444978185464, 6870974.904403420165181 ], [ 365609.489641996507999, 6870969.306569733656943 ], [ 365691.539411564182956, 6870908.827624106779695 ], [ 365694.504928142938297, 6870906.620518621057272 ], [ 365759.088663253001869, 6870858.08829662296921 ], [ 365801.628869546111673, 6870827.900830645114183 ], [ 365829.985206916637253, 6870856.25716801546514 ], [ 365787.758104478474706, 6870877.772951366379857 ], [ 365699.265407645492814, 6870966.265648199245334 ], [ 365642.449598877399694, 6871077.772951366379857 ], [ 365622.872205395484343, 6871201.379749116487801 ], [ 365642.449598877399694, 6871324.986546866595745 ], [ 365699.265407645492814, 6871436.493850033730268 ], [ 365787.758104478474706, 6871524.986546866595745 ], [ 365899.265407645492814, 6871581.802355634979904 ], [ 366022.872205395484343, 6871601.379749116487801 ], [ 366146.479003145475872, 6871581.802355634979904 ], [ 366257.98630631249398, 6871524.986546866595745 ], [ 366346.479003145475872, 6871436.493850033730268 ], [ 366403.294811913568992, 6871324.986546866595745 ], [ 366422.872205395484343, 6871201.379749116487801 ], [ 366403.294811913568992, 6871077.772951366379857 ], [ 366346.479003145475872, 6870966.265648199245334 ], [ 366317.852151589351706, 6870937.638796643353999 ], [ 366360.079254027456045, 6870916.123013292439282 ], [ 366448.571950860437937, 6870827.630316459573805 ], [ 366495.048039266606793, 6870736.415857098996639 ], [ 366541.376315642439295, 6870760.021292943507433 ], [ 366664.983113392430823, 6870779.59868642501533 ], [ 366788.589911142422352, 6870760.021292943507433 ], [ 366900.09721430944046, 6870703.205484175123274 ], [ 366988.589911142422352, 6870614.712787342257798 ], [ 367045.405719910515472, 6870503.205484175123274 ], [ 367064.983113392430823, 6870379.59868642501533 ], [ 367045.405719910515472, 6870255.991888674907386 ], [ 366988.589911142422352, 6870144.484585507772863 ], [ 366900.09721430944046, 6870055.991888674907386 ], [ 366788.589911142422352, 6869999.176079906523228 ], [ 366779.65957916143816, 6869997.761654273606837 ], [ 366766.663028786308132, 6869925.831561455503106 ], [ 366707.44384903437458, 6869815.581828870810568 ], [ 366617.054021247604396, 6869729.027835212647915 ], [ 366504.341531552665401, 6869674.64208843652159 ], [ 366380.339463755080942, 6869657.74824436660856 ], [ 366257.186004224058706, 6869679.999990165233612 ], [ 366247.576535093132406, 6869683.354238823987544 ], [ 366225.370405387948267, 6869689.585550731047988 ], [ 366135.973597449890804, 6869712.029855703003705 ], [ 366124.875311672687531, 6869714.986241395585239 ], [ 366036.172858086007182, 6869739.98420558962971 ], [ 366003.529470638022758, 6869750.717182829044759 ], [ 365955.95270007790532, 6869768.659270031377673 ], [ 365918.897293583955616, 6869784.816689739003778 ], [ 365876.763628130196594, 6869805.782724222168326 ], [ 365845.727086704631802, 6869822.984820250421762 ], [ 365807.625350959482603, 6869846.370012558996677 ], [ 365789.063960622122977, 6869858.482672896236181 ], [ 365637.463403583038598, 6869963.514441803097725 ], [ 365636.524313029483892, 6869964.167050462216139 ], [ 365567.981507985212374, 6870011.945417506620288 ], [ 365564.103839176998008, 6870014.682708638720214 ], [ 365530.197425369813573, 6870038.920325734652579 ], [ 365481.195682674006093, 6870013.95269076153636 ], [ 365357.588884924014565, 6869994.375297280028462 ], [ 365233.982087174023036, 6870013.95269076153636 ], [ 365122.474784007004928, 6870070.768499529920518 ], [ 365033.982087174023036, 6870159.261196362785995 ], [ 364977.166278405929916, 6870270.768499529920518 ], [ 364957.588884924014565, 6870394.375297280028462 ], [ 364965.452184770372696, 6870444.022218595258892 ], [ 364964.944085262657609, 6870444.382568970322609 ], [ 364850.762902418267913, 6870526.225724506191909 ], [ 364849.082950503914617, 6870527.412263969890773 ], [ 364774.616075862199068, 6870452.94538932852447 ], [ 364663.10877269518096, 6870396.129580560140312 ], [ 364539.501974945189431, 6870376.552187078632414 ], [ 364460.64572299917927, 6870389.041790409013629 ], [ 364407.226291392522398, 6870361.823230507783592 ], [ 363912.799100392614491, 6870283.513656579889357 ], [ 363418.371909392706584, 6870361.823230507783592 ], [ 362972.342696724634152, 6870589.086465580388904 ], [ 362708.788570667675231, 6870852.64059163723141 ], [ 362402.678863300883677, 6870804.157576957717538 ], [ 361908.25167230097577, 6870882.467150885611773 ], [ 361462.222459632903337, 6871109.730385958217084 ], [ 361108.25167230097577, 6871463.701173289678991 ], [ 360880.988437228661496, 6871909.730385958217084 ], [ 360856.732587424165104, 6872062.875794400461018 ], [ 360669.759221981163137, 6871962.758850493468344 ], [ 360662.615040650183801, 6871959.025552041828632 ], [ 360328.747500357450917, 6871788.818570715375245 ], [ 360323.660713817167562, 6871787.061765390448272 ], [ 360340.449762831733096, 6871681.059881744906306 ], [ 360320.872369349817745, 6871557.453083994798362 ], [ 360264.056560581724625, 6871445.945780827663839 ], [ 360175.563863748742733, 6871357.453083994798362 ], [ 360064.056560581724625, 6871300.637275226414204 ], [ 359940.449762831733096, 6871281.059881744906306 ], [ 359816.842965081741568, 6871300.637275226414204 ], [ 359705.33566191472346, 6871357.453083994798362 ], [ 359616.842965081741568, 6871445.945780827663839 ], [ 359560.027156313648447, 6871557.453083994798362 ], [ 359540.449762831733096, 6871681.059881744906306 ], [ 359560.027156313648447, 6871804.66667949501425 ], [ 359574.724380995787214, 6871833.511607058346272 ], [ 359485.892412351502571, 6871874.734285317361355 ], [ 359500.645712658704724, 6871781.585613156668842 ], [ 359481.068319176789373, 6871657.978815406560898 ], [ 359424.252510408696253, 6871546.471512239426374 ], [ 359335.759813575714361, 6871457.978815406560898 ], [ 359224.252510408696253, 6871401.163006638176739 ], [ 359100.645712658704724, 6871381.585613156668842 ], [ 358977.038914908713195, 6871401.163006638176739 ], [ 358865.531611741695087, 6871457.978815406560898 ], [ 358827.94497092923848, 6871495.565456219017506 ], [ 358593.788441211683676, 6871376.256745162419975 ], [ 358099.361250211775769, 6871297.94717123452574 ] ], [ [ 364777.541142637201119, 6873216.519241617061198 ], [ 364777.541142637492158, 6873216.519241617061198 ], [ 364761.955085649329703, 6873224.460734309628606 ], [ 364777.541142637201119, 6873216.519241617061198 ] ], [ [ 359663.902527455531526, 6872674.069606724195182 ], [ 359963.067444770364091, 6872535.241442480124533 ], [ 360024.574880584492348, 6872531.712327309884131 ], [ 360156.686134086281527, 6872599.063162428326905 ], [ 359886.082471296540461, 6872869.666825218126178 ], [ 359685.761539638391696, 6873262.818790163844824 ], [ 359679.932655782613438, 6873251.378961472772062 ], [ 359648.380521112645511, 6873219.826826802454889 ], [ 359699.361250211775769, 6872897.94717123452574 ], [ 359663.902527455531526, 6872674.069606724195182 ] ], [ [ 361169.586353340419009, 6873137.865693269297481 ], [ 361167.613275902695023, 6873136.809187265112996 ], [ 361185.983591652533505, 6873146.645774777047336 ], [ 361169.586353340419009, 6873137.865693269297481 ] ], [ [ 361330.442830309912097, 6873965.253507125191391 ], [ 361365.361845252395142, 6874000.172522068023682 ], [ 361330.442830309679266, 6873965.253507125191391 ], [ 361330.442830309912097, 6873965.253507125191391 ] ], [ [ 362747.082548221282195, 6874021.173721008934081 ], [ 362747.082548221456818, 6874021.173721008002758 ], [ 362810.559164331643842, 6873957.697104898281395 ], [ 362747.082548221282195, 6874021.173721008934081 ] ] ], [ [ [ 358269.708608939719852, 6874772.250439169816673 ], [ 358212.892800171626732, 6874883.757742336951196 ], [ 358193.315406689711381, 6875007.36454008705914 ], [ 358211.32976124889683, 6875121.102698471397161 ], [ 358132.421271806932054, 6875133.600575407966971 ], [ 358020.913968639913946, 6875190.41638417635113 ], [ 357932.421271806932054, 6875278.909081009216607 ], [ 357875.605463038838934, 6875390.41638417635113 ], [ 357856.028069556923583, 6875514.023181926459074 ], [ 357875.605463038838934, 6875637.629979676567018 ], [ 357925.249709645169787, 6875735.062299604527652 ], [ 357698.981830995297059, 6875850.351542179472744 ], [ 357345.011043663369492, 6876204.322329510934651 ], [ 357117.747808591055218, 6876650.351542179472744 ], [ 357039.438234663277399, 6877144.778733178973198 ], [ 357117.747808591055218, 6877639.205924178473651 ], [ 357345.011043663369492, 6878085.235136847011745 ], [ 357698.981830995297059, 6878439.205924178473651 ], [ 358145.011043663369492, 6878666.469159251078963 ], [ 358639.438234663277399, 6878744.778733178973198 ], [ 359133.865425663185306, 6878666.469159251078963 ], [ 359579.894638331257738, 6878439.205924178473651 ], [ 359933.865425663185306, 6878085.235136847011745 ], [ 360161.128660735499579, 6877639.205924178473651 ], [ 360239.438234663277399, 6877144.778733178973198 ], [ 360161.128660735499579, 6876650.351542179472744 ], [ 359933.865425663185306, 6876204.322329510934651 ], [ 359579.894638331257738, 6875850.351542179472744 ], [ 359133.865425663185306, 6875623.088307106867433 ], [ 358835.21368755568983, 6875575.786518714390695 ], [ 358816.732305092271417, 6875539.514763335697353 ], [ 358728.239608259289525, 6875451.022066502831876 ], [ 358638.834608961304184, 6875405.467944048345089 ], [ 358638.013714997738134, 6875400.285023542121053 ], [ 358716.922204439702909, 6875387.787146605551243 ], [ 358828.429507606721018, 6875330.971337837167084 ], [ 358916.922204439702909, 6875242.478641004301608 ], [ 358973.73801320779603, 6875130.971337837167084 ], [ 358993.315406689711381, 6875007.36454008705914 ], [ 358973.73801320779603, 6874883.757742336951196 ], [ 358916.922204439702909, 6874772.250439169816673 ], [ 358828.429507606721018, 6874683.757742336951196 ], [ 358716.922204439702909, 6874626.941933568567038 ], [ 358593.315406689711381, 6874607.36454008705914 ], [ 358469.708608939719852, 6874626.941933568567038 ], [ 358358.201305772701744, 6874683.757742336951196 ], [ 358269.708608939719852, 6874772.250439169816673 ] ] ], [ [ [ 362060.044650210882537, 6866409.950199487619102 ], [ 361832.781415138568264, 6866855.979412156157196 ], [ 361754.471841210790444, 6867350.406603155657649 ], [ 361832.781415138568264, 6867844.833794155158103 ], [ 362060.044650210882537, 6868290.863006823696196 ], [ 362414.015437542810105, 6868644.833794155158103 ], [ 362860.044650210882537, 6868872.097029227763414 ], [ 363354.471841210790444, 6868950.406603155657649 ], [ 363848.899032210698351, 6868872.097029227763414 ], [ 364294.928244878770784, 6868644.833794155158103 ], [ 364648.899032210698351, 6868290.863006823696196 ], [ 364876.162267283012625, 6867844.833794155158103 ], [ 364954.471841210790444, 6867350.406603155657649 ], [ 364876.162267283012625, 6866855.979412156157196 ], [ 364648.899032210698351, 6866409.950199487619102 ], [ 364294.928244878770784, 6866055.979412156157196 ], [ 363848.899032210698351, 6865828.716177083551884 ], [ 363354.471841210790444, 6865750.406603155657649 ], [ 362860.044650210882537, 6865828.716177083551884 ], [ 362414.015437542810105, 6866055.979412156157196 ], [ 362060.044650210882537, 6866409.950199487619102 ] ] ], [ [ [ 366476.548721745726652, 6875457.851599560119212 ], [ 366419.732912977633532, 6875569.358902727253735 ], [ 366400.155519495718181, 6875692.965700477361679 ], [ 366419.732912977633532, 6875816.572498227469623 ], [ 366476.548721745726652, 6875928.079801394604146 ], [ 366565.041418578708544, 6876016.572498227469623 ], [ 366676.548721745726652, 6876073.388306995853782 ], [ 366800.155519495718181, 6876092.965700477361679 ], [ 366923.76231724570971, 6876073.388306995853782 ], [ 367035.269620412727818, 6876016.572498227469623 ], [ 367123.76231724570971, 6875928.079801394604146 ], [ 367180.57812601380283, 6875816.572498227469623 ], [ 367200.155519495718181, 6875692.965700477361679 ], [ 367180.57812601380283, 6875569.358902727253735 ], [ 367123.76231724570971, 6875457.851599560119212 ], [ 367035.269620412727818, 6875369.358902727253735 ], [ 366923.76231724570971, 6875312.543093958869576 ], [ 366800.155519495718181, 6875292.965700477361679 ], [ 366676.548721745726652, 6875312.543093958869576 ], [ 366565.041418578708544, 6875369.358902727253735 ], [ 366476.548721745726652, 6875457.851599560119212 ] ] ], [ [ [ 365469.328169446787797, 6876721.094969136640429 ], [ 365449.750775964872446, 6876844.701766886748374 ], [ 365469.328169446787797, 6876968.308564636856318 ], [ 365526.143978214880917, 6877079.815867803990841 ], [ 365614.636675047862809, 6877168.308564636856318 ], [ 365726.143978214880917, 6877225.124373405240476 ], [ 365849.750775964872446, 6877244.701766886748374 ], [ 365973.357573714863975, 6877225.124373405240476 ], [ 366084.864876881882083, 6877168.308564636856318 ], [ 366173.357573714863975, 6877079.815867803990841 ], [ 366230.173382482957095, 6876968.308564636856318 ], [ 366249.750775964872446, 6876844.701766886748374 ], [ 366230.173382482957095, 6876721.094969136640429 ], [ 366173.357573714863975, 6876609.587665969505906 ], [ 366084.864876881882083, 6876521.094969136640429 ], [ 365973.357573714863975, 6876464.279160368256271 ], [ 365849.750775964872446, 6876444.701766886748374 ], [ 365726.143978214880917, 6876464.279160368256271 ], [ 365614.636675047862809, 6876521.094969136640429 ], [ 365526.143978214880917, 6876609.587665969505906 ], [ 365469.328169446787797, 6876721.094969136640429 ] ] ] ] } },
{ "type": "Feature", "properties": { "FID": null, "NOME": "PARQUE PINHEIRO TORTO", "NOME_2": null, "FID_2": null, "FID_3": null, "FID_4": null }, "geometry": { "type": "MultiPolygon", "coordinates": [ [ [ [ 359016.576378078665584, 6875604.214069440960884 ], [ 358938.266804150887765, 6875109.786878441460431 ], [ 358711.003569078573491, 6874663.757665772922337 ], [ 358357.032781746645924, 6874309.786878441460431 ], [ 357911.003569078573491, 6874082.523643368855119 ], [ 357416.576378078665584, 6874004.214069440960884 ], [ 356922.149187078757677, 6874082.523643368855119 ], [ 356476.119974410685245, 6874309.786878441460431 ], [ 356122.149187078757677, 6874663.757665772922337 ], [ 355894.885952006443404, 6875109.786878441460431 ], [ 355816.576378078665584, 6875604.214069440960884 ], [ 355894.885952006443404, 6876098.641260440461338 ], [ 356122.149187078757677, 6876544.670473108999431 ], [ 356476.119974410685245, 6876898.641260440461338 ], [ 356922.149187078757677, 6877125.904495513066649 ], [ 357416.576378078665584, 6877204.214069440960884 ], [ 357911.003569078573491, 6877125.904495513066649 ], [ 358357.032781746645924, 6876898.641260440461338 ], [ 358711.003569078573491, 6876544.670473108999431 ], [ 358938.266804150887765, 6876098.641260440461338 ], [ 359016.576378078665584, 6875604.214069440960884 ] ] ] ] } }
]
}
