{
"type": "FeatureCollection",
"name": "Multigares",
"crs": { "type": "name", "properties": { "name": "urn:ogc:def:crs:EPSG::31982" } },
"features": [
{ "type": "Feature", "properties": { "nome": "X1", "AREA": 1013.949218 }, "geometry": { "type": "MultiPolygon", "coordinates": [ [ [ [ 358101.948981242079753, 6872902.965005950070918 ], [ 358110.977715169487055, 6872892.243384410627186 ], [ 358158.660716223530471, 6872831.581578336656094 ], [ 358153.864201324584428, 6872820.859956797212362 ], [ 358093.202395249914844, 6872896.75775137450546 ], [ 358101.948981242079753, 6872902.965005950070918 ] ] ] ] } },
{ "type": "Feature", "properties": { "nome": "X2", "AREA": 2600.606747 }, "geometry": { "type": "MultiPolygon", "coordinates": [ [ [ [ 357969.057303748384584, 6873069.714435669593513 ], [ 358093.484543185273651, 6872918.200994450598955 ], [ 358081.634329905558843, 6872909.736556394025683 ], [ 357963.696492979011964, 6873056.735630649141967 ], [ 357964.825084719923325, 6873065.482216641306877 ], [ 357969.057303748384584, 6873069.714435669593513 ] ] ] ] } },
{ "type": "Feature", "properties": { "nome": "X3", "AREA": 861.972562 }, "geometry": { "type": "MultiPolygon", "coordinates": [ [ [ [ 358169.946633632818703, 6872818.320625378750265 ], [ 358220.733261974412017, 6872751.451564729213715 ], [ 358210.858084241335746, 6872745.526458089239895 ], [ 358164.867970798688475, 6872808.727595580741763 ], [ 358169.946633632818703, 6872818.320625378750265 ] ] ] ] } },
{ "type": "Feature", "properties": { "nome": "X4", "AREA": 241.12466 }, "geometry": { "type": "MultiPolygon", "coordinates": [ [ [ [ 358232.865623189369217, 6872729.161877845413983 ], [ 358267.569819222786464, 6872668.782219706103206 ], [ 358225.52977687335806, 6872728.033286104910076 ], [ 358232.865623189369217, 6872729.161877845413983 ] ] ] ] } },
{ "type": "Feature", "properties": { "nome": "MULTIGARE ZACHIA", "AREA": 18753.944466000001 }, "geometry": { "type": "MultiPolygon", "coordinates": [ [ [ [ 358609.250968787469901, 6877087.783181294798851 ], [ 358542.099760202458128, 6877252.557575469836593 ], [ 358630.129915994533803, 6877281.900960734114051 ], [ 358645.365904497040901, 6877237.885882837697864 ], [ 358667.937739315500949, 6877245.786025024019182 ], [ 358711.95281721156789, 6877125.026708745397627 ], [ 358609.250968787469901, 6877087.783181294798851 ] ] ] ] } },
{ "type": "Feature", "properties": { "nome": "MULTIGARE PETRÓPOLIS", "AREA": 9288.895845 }, "geometry": { "type": "MultiPolygon", "coordinates": [ [ [ [ 363525.396592253237031, 6874832.856882929801941 ], [ 363534.425326180586126, 6874840.474877180531621 ], [ 363508.467716139333788, 6874868.689670703373849 ], [ 363592.265652903006412, 6874942.894577669911087 ], [ 363649.823831690126099, 6874884.20780714135617 ], [ 363577.029664400499314, 6874823.546001066453755 ], [ 363569.975966019730549, 6874829.471107706427574 ], [ 363545.711243589874357, 6874810.285048111341894 ], [ 363525.396592253237031, 6874832.856882929801941 ] ] ] ] } },
{ "type": "Feature", "properties": { "nome": "MULTIGARE SÃO CRISTOVÃO", "AREA": 18703.338648000001 }, "geometry": { "type": "MultiPolygon", "coordinates": [ [ [ [ 364000.251567247090861, 6871921.936635149642825 ], [ 363886.828097284189425, 6871765.062383161857724 ], [ 363822.498368051485159, 6871813.591828021220863 ], [ 363934.228950402990449, 6872004.323832237161696 ], [ 364000.251567247090861, 6871921.936635149642825 ] ] ] ] } },
{ "type": "Feature", "properties": { "nome": "X1", "AREA": 1013.949218 }, "geometry": { "type": "MultiPolygon", "coordinates": [ [ [ [ 358101.948981242079753, 6872902.965005950070918 ], [ 358110.977715169487055, 6872892.243384410627186 ], [ 358158.660716223530471, 6872831.581578336656094 ], [ 358153.864201324584428, 6872820.859956797212362 ], [ 358093.202395249914844, 6872896.75775137450546 ], [ 358101.948981242079753, 6872902.965005950070918 ] ] ] ] } },
{ "type": "Feature", "properties": { "nome": "X2", "AREA": 2600.606747 }, "geometry": { "type": "MultiPolygon", "coordinates": [ [ [ [ 357969.057303748384584, 6873069.714435669593513 ], [ 358093.484543185273651, 6872918.200994450598955 ], [ 358081.634329905558843, 6872909.736556394025683 ], [ 357963.696492979011964, 6873056.735630649141967 ], [ 357964.825084719923325, 6873065.482216641306877 ], [ 357969.057303748384584, 6873069.714435669593513 ] ] ] ] } },
{ "type": "Feature", "properties": { "nome": "X3", "AREA": 861.972562 }, "geometry": { "type": "MultiPolygon", "coordinates": [ [ [ [ 358169.946633632818703, 6872818.320625378750265 ], [ 358220.733261974412017, 6872751.451564729213715 ], [ 358210.858084241335746, 6872745.526458089239895 ], [ 358164.867970798688475, 6872808.727595580741763 ], [ 358169.946633632818703, 6872818.320625378750265 ] ] ] ] } },
{ "type": "Feature", "properties": { "nome": "X4", "AREA": 241.12466 }, "geometry": { "type": "MultiPolygon", "coordinates": [ [ [ [ 358232.865623189369217, 6872729.161877845413983 ], [ 358267.569819222786464, 6872668.782219706103206 ], [ 358225.52977687335806, 6872728.033286104910076 ], [ 358232.865623189369217, 6872729.161877845413983 ] ] ] ] } },
{ "type": "Feature", "properties": { "nome": "MULTIGARE ZACHIA", "AREA": 18753.944466000001 }, "geometry": { "type": "MultiPolygon", "coordinates": [ [ [ [ 358609.250968787469901, 6877087.783181294798851 ], [ 358542.099760202458128, 6877252.557575469836593 ], [ 358630.129915994533803, 6877281.900960734114051 ], [ 358645.365904497040901, 6877237.885882837697864 ], [ 358667.937739315500949, 6877245.786025024019182 ], [ 358711.95281721156789, 6877125.026708745397627 ], [ 358609.250968787469901, 6877087.783181294798851 ] ] ] ] } },
{ "type": "Feature", "properties": { "nome": "MULTIGARE PETRÓPOLIS", "AREA": 9288.895845 }, "geometry": { "type": "MultiPolygon", "coordinates": [ [ [ [ 363525.396592253237031, 6874832.856882929801941 ], [ 363534.425326180586126, 6874840.474877180531621 ], [ 363508.467716139333788, 6874868.689670703373849 ], [ 363592.265652903006412, 6874942.894577669911087 ], [ 363649.823831690126099, 6874884.20780714135617 ], [ 363577.029664400499314, 6874823.546001066453755 ], [ 363569.975966019730549, 6874829.471107706427574 ], [ 363545.711243589874357, 6874810.285048111341894 ], [ 363525.396592253237031, 6874832.856882929801941 ] ] ] ] } },
{ "type": "Feature", "properties": { "nome": "MULTIGARE SÃO CRISTOVÃO", "AREA": 18703.338648000001 }, "geometry": { "type": "MultiPolygon", "coordinates": [ [ [ [ 364000.251567247090861, 6871921.936635149642825 ], [ 363886.828097284189425, 6871765.062383161857724 ], [ 363822.498368051485159, 6871813.591828021220863 ], [ 363934.228950402990449, 6872004.323832237161696 ], [ 364000.251567247090861, 6871921.936635149642825 ] ] ] ] } }
]
}
