{
"type": "FeatureCollection",
"name": "Parque Linear Av",
"crs": { "type": "name", "properties": { "name": "urn:ogc:def:crs:EPSG::31982" } },
"features": [
{ "type": "Feature", "properties": { "FID": 0 }, "geometry": { "type": "MultiLineString", "coordinates": [ [ [ 366389.008730859903153, 6870057.654288091696799 ], [ 366367.639503404963762, 6870065.113358052447438 ], [ 366328.126592261774931, 6870076.201164750382304 ], [ 366233.376244112325367, 6870099.989550030790269 ], [ 366144.673790525645018, 6870124.98751422483474 ], [ 366097.097019965527579, 6870142.929601427167654 ], [ 366054.963354511768557, 6870163.895635910332203 ], [ 366016.861618766619358, 6870187.280828218907118 ], [ 365865.26106172753498, 6870292.312597125768661 ], [ 365796.718256683263462, 6870340.090964170172811 ], [ 365640.480980479449499, 6870451.775417096912861 ], [ 365523.151825962471776, 6870535.034765576943755 ], [ 365454.205827947356738, 6870586.845062331296504 ], [ 365372.156058379681781, 6870647.324007958173752 ], [ 365316.918621373421047, 6870686.030533159151673 ], [ 365197.976694973069243, 6870769.491478124633431 ], [ 365082.663505310367327, 6870852.146037149243057 ], [ 364967.350315647723619, 6870933.591017261147499 ], [ 364932.070930698420852, 6870960.806542792357504 ], [ 364837.320582549029496, 6871027.736575953662395 ], [ 364752.650058670726139, 6871089.223504007793963 ], [ 364736.320743351476267, 6871101.117696647532284 ], [ 364717.773866692441516, 6871116.842222510837018 ], [ 364685.518429024552461, 6871152.927993401885033 ], [ 364653.061394871154334, 6871193.448886971920729 ], [ 364635.925693610101007, 6871222.075587902218103 ], [ 364607.298992679803632, 6871291.223182403482497 ], [ 364599.033536777365953, 6871305.536532868631184 ], [ 364589.155308991612401, 6871330.332900575362146 ], [ 364582.502624972607009, 6871353.51649639941752 ], [ 364568.390870992909186, 6871390.005460260435939 ], [ 364555.48869592580013, 6871417.624178764410317 ], [ 364546.82004705251893, 6871430.929546802304685 ], [ 364505.089574569719844, 6871476.087159537710249 ], [ 364392.59873570286436, 6871599.262612132355571 ], [ 364315.185685300035402, 6871683.933136010542512 ], [ 364288.171756253228523, 6871712.3582404544577 ], [ 364251.279599420551676, 6871732.316292512230575 ], [ 364152.094128591765184, 6871777.877098217606544 ], [ 364125.483392515801825, 6871798.641536216251552 ], [ 364086.97846379969269, 6871839.968815728090703 ], [ 364033.555395162315108, 6871907.503638345748186 ], [ 363948.481678313168231, 6872007.898688086308539 ], [ 363876.310136531305034, 6872090.150054140016437 ], [ 363814.621611991547979, 6872164.740753746591508 ], [ 363794.86515641992446, 6872183.287630406208336 ], [ 363734.184614307247102, 6872228.848436111584306 ], [ 363682.777510523970705, 6872256.063961643725634 ], [ 363596.292618276958819, 6872280.860329351387918 ], [ 363574.117004880390596, 6872286.505030943080783 ] ] ] } }
]
}
