{
"type": "FeatureCollection",
"name": "Parques",
"crs": { "type": "name", "properties": { "name": "urn:ogc:def:crs:EPSG::31982" } },
"features": [
{ "type": "Feature", "properties": { "NOME": "ARLINDO HAAS", "ÁREA": 216348.94429700001 }, "geometry": { "type": "MultiPolygon", "coordinates": [ [ [ [ 363392.787062694493216, 6875527.89305286668241 ], [ 363274.284929897461552, 6875940.957630043849349 ], [ 363258.484645524527878, 6875977.072565754875541 ], [ 362958.279242438729852, 6876269.377826654352248 ], [ 362878.149228833091911, 6876237.777257909066975 ], [ 362839.777109641698189, 6876290.821069732308388 ], [ 362892.820921465114225, 6876350.636432001367211 ], [ 362969.565159847959876, 6876421.737711679190397 ], [ 363039.537847785279155, 6876421.737711679190397 ], [ 363156.911388841399457, 6876317.907271514646709 ], [ 363260.741829006408807, 6876188.119221308268607 ], [ 363343.12902609386947, 6876120.403716852888465 ], [ 363644.463020920637064, 6875832.612822916358709 ], [ 363676.063589666504413, 6875648.652369146235287 ], [ 363577.876108206110075, 6875643.009410440921783 ], [ 363459.373975409078412, 6875603.508699509315193 ], [ 363392.787062694493216, 6875527.89305286668241 ] ] ] ] } },
{ "type": "Feature", "properties": { "NOME": "PARQUE BANHADO ATUAL", "ÁREA": 13728.777377 }, "geometry": { "type": "MultiPolygon", "coordinates": [ [ [ [ 361161.27904295217013, 6873734.454971069470048 ], [ 361093.56353849673178, 6873819.381499572657049 ], [ 361187.800948863907252, 6873896.407885890454054 ], [ 361260.877264088718221, 6873806.120546616613865 ], [ 361161.27904295217013, 6873734.454971069470048 ] ] ] ] } },
{ "type": "Feature", "properties": { "NOME": "AMPLIAÇÃO BANHADO", "ÁREA": 42112.585557 }, "geometry": { "type": "MultiPolygon", "coordinates": [ [ [ [ 361093.634075480571482, 6873819.310962589457631 ], [ 361068.593446228769608, 6873857.259859877638519 ], [ 361044.046575863671023, 6873842.58816724549979 ], [ 361030.221327037375886, 6873930.336175101809204 ], [ 361062.104043718485627, 6873935.414837936870754 ], [ 361050.818126309313811, 6874014.416259800083935 ], [ 361068.593446228827816, 6874003.694638260640204 ], [ 361092.011724853015039, 6874038.11668635904789 ], [ 361084.393730601819698, 6874043.477497128769755 ], [ 361092.576020723499823, 6874055.892006278969347 ], [ 361086.086618213157635, 6874060.970669113099575 ], [ 361112.044228254409973, 6874080.156728708185256 ], [ 361161.420116919849534, 6874031.345135913230479 ], [ 361178.631140968936961, 6874015.544851540587842 ], [ 361298.261865506938193, 6873976.044140608049929 ], [ 361295.158238219388295, 6873966.168962875381112 ], [ 361310.676374657079577, 6873950.932974372990429 ], [ 361333.530357410723809, 6873943.314980123192072 ], [ 361321.397996195824817, 6873894.503387328237295 ], [ 361272.586403400811832, 6873865.160002063959837 ], [ 361266.379148825770244, 6873874.188735991716385 ], [ 361237.882207367394585, 6873853.874084655195475 ], [ 361228.218640585779212, 6873846.432432860136032 ], [ 361187.800948864023667, 6873896.407885890454054 ], [ 361093.634075480571482, 6873819.310962589457631 ] ] ] ] } },
{ "type": "Feature", "properties": { "NOME": "PARQUE DA GARE", "ÁREA": 46300.7994 }, "geometry": { "type": "MultiPolygon", "coordinates": [ [ [ [ 362017.315878443128895, 6872523.017542657442391 ], [ 362152.182591483579017, 6872538.535679095424712 ], [ 362376.490199992258567, 6872569.007656099274755 ], [ 362390.597596753854305, 6872563.364697394892573 ], [ 362404.14069764490705, 6872549.539448568597436 ], [ 362394.265519911830779, 6872494.520601199008524 ], [ 362468.470426877611317, 6872466.305807676166296 ], [ 362542.675333843391854, 6872437.526718282140791 ], [ 362478.345604610745795, 6872260.055667022243142 ], [ 362392.29048436525045, 6872291.656235767528415 ], [ 362402.447810033569112, 6872347.803674878552556 ], [ 362393.98337197676301, 6872359.089592286385596 ], [ 362341.503856023657136, 6872377.993503947742283 ], [ 362288.177896264998708, 6872532.328424518927932 ], [ 362015.905138767091557, 6872497.906376420520246 ], [ 362017.315878443128895, 6872523.017542657442391 ] ] ] ] } },
{ "type": "Feature", "properties": { "NOME": "PINHEIRO TORTO", "ÁREA": 318856.43849199999 }, "geometry": { "type": "MultiPolygon", "coordinates": [ [ [ [ 357529.741373923083302, 6876035.271953292191029 ], [ 357683.706103129021358, 6876102.690790392458439 ], [ 357546.152123882668093, 6875246.692246726714075 ], [ 357093.387684103567153, 6875283.30609136633575 ], [ 357100.196485626918729, 6875291.153371253982186 ], [ 357110.779481286881492, 6875292.123885485343635 ], [ 357114.34138458489906, 6875306.848941947333515 ], [ 357128.73281414975645, 6875325.752670330926776 ], [ 357125.454208785202354, 6875331.977268448099494 ], [ 357114.679789103160147, 6875338.554510494694114 ], [ 357107.529449770576321, 6875349.206791301257908 ], [ 357117.811292967933696, 6875360.539968030527234 ], [ 357128.887808936764486, 6875361.336546840146184 ], [ 357139.216049973503686, 6875368.814677452668548 ], [ 357142.365361435571685, 6875379.622769769281149 ], [ 357135.573053583502769, 6875386.225873716175556 ], [ 357121.2588209384121, 6875378.225061990320683 ], [ 357114.075181300751865, 6875391.39133751951158 ], [ 357110.677949608361814, 6875409.26137709338218 ], [ 357165.738785121997353, 6875443.838974557816982 ], [ 357189.072240466019139, 6875474.720185959711671 ], [ 357199.079434264451265, 6875487.600832601077855 ], [ 357206.972743988037109, 6875501.137790811248124 ], [ 357202.850090482563246, 6875534.201155345886946 ], [ 357213.398908115865197, 6875545.699232200160623 ], [ 357216.773791238781996, 6875557.125584106892347 ], [ 357202.640943685546517, 6875599.208405176177621 ], [ 357209.57773355714744, 6875626.865853794850409 ], [ 357234.338322328636423, 6875653.166057826019824 ], [ 357237.704540972830728, 6875660.924878248944879 ], [ 357223.646888229879551, 6875663.345998698845506 ], [ 357210.828630823059939, 6875682.470162885263562 ], [ 357225.064836993871722, 6875717.322332166135311 ], [ 357218.453588687581941, 6875759.081897407770157 ], [ 357224.429986018803902, 6875787.634246388450265 ], [ 357235.650211041443981, 6875797.574874742887914 ], [ 357240.471173535101116, 6875804.927306434139609 ], [ 357256.941905589192174, 6875818.10064385086298 ], [ 357249.718920984538272, 6875841.02764880657196 ], [ 357238.761275256983936, 6875861.01661797054112 ], [ 357219.292473317822441, 6875862.562107319012284 ], [ 357204.903271361719817, 6875875.759742179885507 ], [ 357218.165526368538849, 6875885.075108917430043 ], [ 357195.685816395794973, 6875983.869919743388891 ], [ 357175.119239051011391, 6875971.827890812419355 ], [ 357171.440865254087839, 6875980.461355969309807 ], [ 357175.280163073679432, 6875988.606080885976553 ], [ 357174.133714994299226, 6876013.436647765338421 ], [ 357160.442012334126048, 6876050.082949712872505 ], [ 357184.990824112086557, 6876056.596333017572761 ], [ 357175.098442115238868, 6876063.341284087859094 ], [ 357418.184498818474822, 6876204.316540025174618 ], [ 357381.127884065324906, 6875983.733067438006401 ], [ 357360.58637083391659, 6875997.765710256062448 ], [ 357304.715485505526885, 6875983.726308765821159 ], [ 357299.780255405348726, 6875962.98334526643157 ], [ 357287.370094749203417, 6875932.966591073200107 ], [ 357281.007145335606765, 6875921.988638901151717 ], [ 357270.891458679223433, 6875922.533995244652033 ], [ 357273.595212807820644, 6875914.316982796415687 ], [ 357264.928572711884044, 6875888.699195139110088 ], [ 357282.307598626532126, 6875759.710244152694941 ], [ 357336.006372379604727, 6875771.044005011208355 ], [ 357343.508824144257233, 6875765.656749892048538 ], [ 357377.253006433136761, 6875775.621693945489824 ], [ 357395.636626593652181, 6875892.791271169669926 ], [ 357388.423390263924375, 6875893.367465756833553 ], [ 357402.956694666994736, 6875980.588427592068911 ], [ 357498.695770994294435, 6875969.753899861127138 ], [ 357529.741373923083302, 6876035.271953292191029 ] ] ] ] } },
{ "type": "Feature", "properties": { "NOME": "ARLINDO HAAS", "ÁREA": 216348.94429700001 }, "geometry": { "type": "MultiPolygon", "coordinates": [ [ [ [ 363392.787062694493216, 6875527.89305286668241 ], [ 363274.284929897461552, 6875940.957630043849349 ], [ 363258.484645524527878, 6875977.072565754875541 ], [ 362958.279242438729852, 6876269.377826654352248 ], [ 362878.149228833091911, 6876237.777257909066975 ], [ 362839.777109641698189, 6876290.821069732308388 ], [ 362892.820921465114225, 6876350.636432001367211 ], [ 362969.565159847959876, 6876421.737711679190397 ], [ 363039.537847785279155, 6876421.737711679190397 ], [ 363156.911388841399457, 6876317.907271514646709 ], [ 363260.741829006408807, 6876188.119221308268607 ], [ 363343.12902609386947, 6876120.403716852888465 ], [ 363644.463020920637064, 6875832.612822916358709 ], [ 363676.063589666504413, 6875648.652369146235287 ], [ 363577.876108206110075, 6875643.009410440921783 ], [ 363459.373975409078412, 6875603.508699509315193 ], [ 363392.787062694493216, 6875527.89305286668241 ] ] ] ] } }
]
}
