{
"type": "FeatureCollection",
"name": "Praças",
"crs": { "type": "name", "properties": { "name": "urn:ogc:def:crs:EPSG::31982" } },
"features": [
{ "type": "Feature", "properties": { "NOME": "Praça Eloi Machado da Silva\n" }, "geometry": { "type": "Point", "coordinates": [ 358965.753166610491462, 6877447.968099389225245 ] } },
{ "type": "Feature", "properties": { "NOME": "José Alexandre Zachia\n" }, "geometry": null },
{ "type": "Feature", "properties": { "NOME": "Praça Valinhos\n" }, "geometry": { "type": "Point", "coordinates": [ 358493.125507342279889, 6875774.62886425293982 ] } },
{ "type": "Feature", "properties": { "NOME": "Campo Oscar Ferreira da Silva\n" }, "geometry": { "type": "Point", "coordinates": [ 358256.028069556923583, 6875514.023181926459074 ] } },
{ "type": "Feature", "properties": { "NOME": "Praça da Rosa - Rosalina Dal Piasi de Azevedo\n" }, "geometry": { "type": "Point", "coordinates": [ 358593.315406689711381, 6875007.36454008705914 ] } },
{ "type": "Feature", "properties": { "NOME": "João Pedro Kunz\n" }, "geometry": { "type": "Point", "coordinates": [ 359473.755136709718499, 6874778.662903921678662 ] } },
{ "type": "Feature", "properties": { "NOME": "Praça Nenê Graeff\n" }, "geometry": { "type": "Point", "coordinates": [ 358508.797670368512627, 6873955.20268090441823 ] } },
{ "type": "Feature", "properties": { "NOME": "Praça Dona Júlia\n" }, "geometry": { "type": "Point", "coordinates": [ 358629.921101758256555, 6873221.297675179317594 ] } },
{ "type": "Feature", "properties": { "NOME": "Praça Xangrilá\n" }, "geometry": null },
{ "type": "Feature", "properties": { "NOME": "Praça boqueirão / Jerônimo Coelho\n" }, "geometry": { "type": "Point", "coordinates": [ 358332.93361240735976, 6872028.422180825844407 ] } },
{ "type": "Feature", "properties": { "NOME": "Sem identificação\n" }, "geometry": { "type": "Point", "coordinates": [ 359100.645712658704724, 6871781.585613156668842 ] } },
{ "type": "Feature", "properties": { "NOME": "Praça Jerônimo Airton Bocalon dos Santos\n" }, "geometry": { "type": "Point", "coordinates": [ 358907.654219390591606, 6871959.80049557145685 ] } },
{ "type": "Feature", "properties": { "NOME": "Largo Valter Vieira Ribeiro\n" }, "geometry": { "type": "Point", "coordinates": [ 358827.502299912564922, 6872189.509627929888666 ] } },
{ "type": "Feature", "properties": { "NOME": "Praça Pampa\n" }, "geometry": { "type": "Point", "coordinates": [ 359940.449762831733096, 6871681.059881744906306 ] } },
{ "type": "Feature", "properties": { "NOME": "Paulo Zaffari\n" }, "geometry": { "type": "Point", "coordinates": [ 358987.358362781989854, 6872704.676015415228903 ] } },
{ "type": "Feature", "properties": { "NOME": "Praça Vilson Bueno de Quadros\n" }, "geometry": { "type": "Point", "coordinates": [ 359110.944562647491693, 6872827.814439194276929 ] } },
{ "type": "Feature", "properties": { "NOME": "Praça Germano Domingos Zucchi\n" }, "geometry": { "type": "Point", "coordinates": [ 359145.871097392111551, 6873157.825414921157062 ] } },
{ "type": "Feature", "properties": { "NOME": "Praça Adilar Luiz Bizarro\n" }, "geometry": { "type": "Point", "coordinates": [ 359356.325858032621909, 6873486.493062390014529 ] } },
{ "type": "Feature", "properties": { "NOME": "Praça Noelly Sagebin Albuquerque\n" }, "geometry": { "type": "Point", "coordinates": [ 360796.821528203610796, 6875138.339045375585556 ] } },
{ "type": "Feature", "properties": { "NOME": "Praça Antônio de Quadros Martins\n" }, "geometry": { "type": "Point", "coordinates": [ 360215.160391880141106, 6874250.846841992810369 ] } },
{ "type": "Feature", "properties": { "NOME": "Praça Adolpho João Floriani\n" }, "geometry": { "type": "Point", "coordinates": [ 360556.813545856100973, 6874095.916316075250506 ] } },
{ "type": "Feature", "properties": { "NOME": "Praça Pedro Mader\n" }, "geometry": { "type": "Point", "coordinates": [ 360868.017925952270161, 6873955.87434503249824 ] } },
{ "type": "Feature", "properties": { "NOME": "Praça Pércio Pacheco de Araújo\n" }, "geometry": { "type": "Point", "coordinates": [ 361041.755047502403613, 6874235.286622985266149 ] } },
{ "type": "Feature", "properties": { "NOME": "Largo Capitão Magela\n" }, "geometry": { "type": "Point", "coordinates": [ 360956.453703030070756, 6873544.815897651948035 ] } },
{ "type": "Feature", "properties": { "NOME": "Praça Itália Aldo Alessandri\n" }, "geometry": { "type": "Point", "coordinates": [ 361145.63909956329735, 6873616.012295399792492 ] } },
{ "type": "Feature", "properties": { "NOME": "Praça da Mãe\n" }, "geometry": { "type": "Point", "coordinates": [ 361067.949948560853954, 6872895.988348358310759 ] } },
{ "type": "Feature", "properties": { "NOME": "Praça Tamandaré\n" }, "geometry": { "type": "Point", "coordinates": [ 361346.018898258218542, 6873002.111280851997435 ] } },
{ "type": "Feature", "properties": { "NOME": "Praça Antonino Xavier\n" }, "geometry": { "type": "Point", "coordinates": [ 362486.952366581652313, 6873722.583003981038928 ] } },
{ "type": "Feature", "properties": { "NOME": "Praça Professor Enresto Tocchetto\n" }, "geometry": { "type": "Point", "coordinates": [ 362262.168771174154244, 6873323.166734849102795 ] } },
{ "type": "Feature", "properties": { "NOME": "Praça Coronel Octacílio Moura Escobar\n" }, "geometry": { "type": "Point", "coordinates": [ 363347.130228688823991, 6874874.710874465294182 ] } },
{ "type": "Feature", "properties": { "NOME": "Praça Petrópolis II\n" }, "geometry": { "type": "Point", "coordinates": [ 363916.701410677575041, 6875268.753830558620393 ] } },
{ "type": "Feature", "properties": { "NOME": "Praça Delvo Baseggio\n" }, "geometry": { "type": "Point", "coordinates": [ 364599.336054499843158, 6875334.80080331210047 ] } },
{ "type": "Feature", "properties": { "NOME": "Largo Cavaleiros Do Mercosul\n" }, "geometry": null },
{ "type": "Feature", "properties": { "NOME": "Praça São José\n" }, "geometry": { "type": "Point", "coordinates": [ 365849.750775964872446, 6876844.701766886748374 ] } },
{ "type": "Feature", "properties": { "NOME": "Praça Coronel Massot\n" }, "geometry": { "type": "Point", "coordinates": [ 366800.155519495718181, 6875692.965700477361679 ] } },
{ "type": "Feature", "properties": { "NOME": "Praça Parque Farroupilha\n" }, "geometry": { "type": "Point", "coordinates": [ 365555.16883830644656, 6875091.727613522671163 ] } },
{ "type": "Feature", "properties": { "NOME": "Praça Marechal Floriano\n" }, "geometry": { "type": "Point", "coordinates": [ 362040.407664350001141, 6872901.865409490652382 ] } },
{ "type": "Feature", "properties": { "NOME": "Praça Capitão Jovino\n" }, "geometry": { "type": "Point", "coordinates": [ 362880.65949060942512, 6872729.247728157788515 ] } },
{ "type": "Feature", "properties": { "NOME": "Logradouro Cecy Leite Costa\n" }, "geometry": { "type": "Point", "coordinates": [ 363733.001271203509532, 6872230.201279788278043 ] } },
{ "type": "Feature", "properties": { "NOME": "Praça Clemente Bernardon\n" }, "geometry": { "type": "Point", "coordinates": [ 363649.043254990538117, 6872264.456150403246284 ] } },
{ "type": "Feature", "properties": { "NOME": "Praça Narciso Vieira D'Avila\n" }, "geometry": { "type": "Point", "coordinates": [ 365293.277044505055528, 6873757.565510736778378 ] } },
{ "type": "Feature", "properties": { "NOME": "Praça Vila Isabel\n" }, "geometry": null },
{ "type": "Feature", "properties": { "NOME": "Praça Sem Denominação\n" }, "geometry": { "type": "Point", "coordinates": [ 365039.891751574527007, 6872943.676501567475498 ] } },
{ "type": "Feature", "properties": { "NOME": "Praça São Francisco de Assis\n" }, "geometry": { "type": "Point", "coordinates": [ 364793.726848038088065, 6872819.082805507816374 ] } },
{ "type": "Feature", "properties": { "NOME": "Praça Ernesto Antônio Dal Amaria\n" }, "geometry": { "type": "Point", "coordinates": [ 364169.415039478393737, 6871320.264300073496997 ] } },
{ "type": "Feature", "properties": { "NOME": "Praça Paulo Rossato\n" }, "geometry": { "type": "Point", "coordinates": [ 364672.491472626454197, 6871430.417217344976962 ] } },
{ "type": "Feature", "properties": { "NOME": "Largo Remigio Mognon\n" }, "geometry": { "type": "Point", "coordinates": [ 364539.501974945189431, 6870776.552187078632414 ] } },
{ "type": "Feature", "properties": { "NOME": "Praça Cristóvão II\n" }, "geometry": { "type": "Point", "coordinates": [ 366022.872205395484343, 6871201.379749116487801 ] } },
{ "type": "Feature", "properties": { "NOME": "Praça Cesar Santos\n" }, "geometry": { "type": "Point", "coordinates": [ 366124.965153110446408, 6870592.516215542331338 ] } },
{ "type": "Feature", "properties": { "NOME": "Praça Vera Lúcia Pino\n" }, "geometry": { "type": "Point", "coordinates": [ 365357.588884924014565, 6870394.375297280028462 ] } },
{ "type": "Feature", "properties": { "NOME": "Praça Via Sul\n" }, "geometry": { "type": "Point", "coordinates": [ 366664.983113392430823, 6870379.59868642501533 ] } },
{ "type": "Feature", "properties": { "NOME": "Praça Valentina Olanda Spesotto\n" }, "geometry": { "type": "Point", "coordinates": [ 365711.220049213327002, 6872954.758959711529315 ] } },
{ "type": "Feature", "properties": { "NOME": "Prala Literatura" }, "geometry": { "type": "Point", "coordinates": [ 363040.807513495674357, 6873883.852302803657949 ] } },
{ "type": "Feature", "properties": { "NOME": "Praça Reserva" }, "geometry": { "type": "Point", "coordinates": [ 364746.956077837618068, 6872331.192215223796666 ] } },
{ "type": "Feature", "properties": { "NOME": "Praça altos da boa vista" }, "geometry": { "type": "Point", "coordinates": [ 365281.062119230045937, 6872739.46027750428766 ] } },
{ "type": "Feature", "properties": { "NOME": "Praça Central Park" }, "geometry": { "type": "Point", "coordinates": [ 357967.787638040725142, 6873730.928121909499168 ] } },
{ "type": "Feature", "properties": { "NOME": "Campo" }, "geometry": { "type": "Point", "coordinates": [ 365383.481819718552288, 6873550.353443355299532 ] } },
{ "type": "Feature", "properties": { "NOME": "Delmar Sitone" }, "geometry": { "type": "Point", "coordinates": [ 360302.98502397997072, 6873377.255685081705451 ] } },
{ "type": "Feature", "properties": { "NOME": "Fredolino" }, "geometry": { "type": "Point", "coordinates": [ 361216.015742387622595, 6873461.900065651163459 ] } },
{ "type": "Feature", "properties": { "NOME": "Altos da boa vista" }, "geometry": { "type": "Point", "coordinates": [ 365504.946505834930576, 6872659.471337849274278 ] } }
]
}
