{
"type": "FeatureCollection",
"name": "Raio 400m parque Pres",
"crs": { "type": "name", "properties": { "name": "urn:ogc:def:crs:EPSG::31982" } },
"features": [
{ "type": "Feature", "properties": { "FID": 0 }, "geometry": { "type": "MultiPolygon", "coordinates": [ ] } },
{ "type": "Feature", "properties": { "FID": 1 }, "geometry": { "type": "MultiPolygon", "coordinates": [ [ [ [ 363285.531538670358714, 6871550.486639915965497 ], [ 363146.858258304360788, 6871610.154557094909251 ], [ 362958.765999232593458, 6871775.287719178013504 ], [ 362830.908583996235393, 6871990.462393596768379 ], [ 362775.801587233552709, 6872234.615784009918571 ], [ 362798.839265740709379, 6872483.848455445840955 ], [ 362897.766531032451894, 6872713.763777518644929 ], [ 363062.899693115323316, 6872901.856036590412259 ], [ 363278.074367534252815, 6873029.713451826944947 ], [ 363522.227757946879137, 6873084.820448589511216 ], [ 363771.460429383034352, 6873061.782770082354546 ], [ 363793.636042779602576, 6873056.138068490661681 ], [ 363816.779693602991756, 6873049.876226205378771 ], [ 363903.264585850003641, 6873025.079858497716486 ], [ 364057.087686857266817, 6872963.094294722191989 ], [ 364108.494790640543215, 6872935.878769190050662 ], [ 364214.52461025811499, 6872868.59329798258841 ], [ 364275.205152370792348, 6872823.032492277212441 ], [ 364342.413883161498234, 6872766.546056700870395 ], [ 364362.170338733121753, 6872747.999180041253567 ], [ 364431.106356876669452, 6872674.59029951877892 ], [ 364485.347611654491629, 6872609.004468578845263 ], [ 364549.812052378198132, 6872535.536614345386624 ], [ 364558.818649450608063, 6872525.09186443593353 ], [ 364636.405081064323895, 6872433.532520968466997 ], [ 364668.826624745095614, 6872415.992997337132692 ], [ 364868.068609567708336, 6872263.465888301841915 ], [ 364895.082538614515215, 6872235.040783857926726 ], [ 364905.60873490216909, 6872223.748495645821095 ], [ 364983.021785304998048, 6872139.077971767634153 ], [ 365094.227964748512022, 6872017.309384658001363 ], [ 365134.361030661442783, 6871973.880366471596062 ], [ 365217.110493674816098, 6871867.633928697556257 ], [ 365225.779142548097298, 6871854.328560659661889 ], [ 365280.299988924933132, 6871756.222155044786632 ], [ 365293.202163992042188, 6871728.603436540812254 ], [ 365314.534848794341087, 6871678.569429581984878 ], [ 365319.040274364640936, 6871666.919686322100461 ], [ 365393.635794173169415, 6871614.226680839434266 ], [ 365420.713694119418506, 6871594.232347252778709 ], [ 365442.645618983893655, 6871577.313433786854148 ], [ 365544.189451518235728, 6871505.593663954176009 ], [ 365548.728724731132388, 6871502.363855457864702 ], [ 365660.778216474398505, 6871422.048660326749086 ], [ 365776.22130793944234, 6871341.042830044403672 ], [ 365831.246831576747354, 6871302.484798883087933 ], [ 365846.823225613334216, 6871291.289131509140134 ], [ 365928.872995181009173, 6871230.810185882262886 ], [ 365934.804028338578064, 6871226.39597491081804 ], [ 365995.025500545511022, 6871181.14182766713202 ], [ 366103.454535753116943, 6871104.198199590668082 ], [ 366105.7098154919222, 6871102.591928160749376 ], [ 366258.085663800186012, 6870993.667773368768394 ], [ 366321.796401518455241, 6870949.257641489617527 ], [ 366426.479394054971635, 6870876.731259691528976 ], [ 366439.322271305019967, 6870873.111903375945985 ], [ 366522.931885586702265, 6870852.120553406886756 ], [ 366544.267794659070205, 6870846.449813322164118 ], [ 366583.780705802259035, 6870835.362006624229252 ], [ 366631.284956676594447, 6870820.421953905373812 ], [ 366652.654184131533839, 6870812.962883944623172 ], [ 366873.153649301500991, 6870694.524524440988898 ], [ 367046.261636618408374, 6870513.744868867099285 ], [ 367155.033130169380456, 6870288.319889477454126 ], [ 367188.820818310137838, 6870040.315753881819546 ], [ 367144.317326712713111, 6869794.008834820240736 ], [ 367025.878967208846007, 6869573.509369649924338 ], [ 366845.099311635305639, 6869400.401382333599031 ], [ 366619.674332245485857, 6869291.629888782277703 ], [ 366371.670196650316939, 6869257.842200641520321 ], [ 366152.235104156890884, 6869297.490407976321876 ], [ 366151.498301007668488, 6869294.864709480665624 ], [ 366122.614218514587265, 6869302.969936710782349 ], [ 366038.570950787398033, 6869324.070161374285817 ], [ 366016.374379232991487, 6869329.982932761311531 ], [ 365927.671925646311138, 6869354.980896955356002 ], [ 365862.385150750400499, 6869376.446851432323456 ], [ 365814.80838019028306, 6869394.38893863465637 ], [ 365740.697567202325445, 6869426.703778051771224 ], [ 365698.563901748566423, 6869447.669812534935772 ], [ 365636.490818897495046, 6869482.074004589579999 ], [ 365598.389083152345847, 6869505.459196898154914 ], [ 365561.266302477684803, 6869529.684517572633922 ], [ 365409.665745438600425, 6869634.716286479495466 ], [ 365407.787564331432804, 6869636.021503798663616 ], [ 365339.244759287161287, 6869683.799870843067765 ], [ 365331.489421670790762, 6869689.274453106336296 ], [ 365176.378395387204364, 6869800.153818992897868 ], [ 365060.178270688804332, 6869882.611983083188534 ], [ 365042.55362557125045, 6869895.483852997422218 ], [ 364976.56294521142263, 6869945.073340870440006 ], [ 364905.209970688621979, 6869997.667670984752476 ], [ 364857.827848176355474, 6870030.869742234237492 ], [ 364738.462190715945326, 6870114.627812636084855 ], [ 364731.911475552304182, 6870119.273659816011786 ], [ 364618.862299534026533, 6870200.305411857552826 ], [ 364505.824369439855218, 6870280.143390456214547 ], [ 364478.707552226725966, 6870300.165212800726295 ], [ 364456.756756184797268, 6870317.098684032447636 ], [ 364375.755719074280933, 6870374.316437906585634 ], [ 364367.241549712431151, 6870380.414629093371332 ], [ 364282.571025834127795, 6870441.901557147502899 ], [ 364281.63814728410216, 6870442.580032431520522 ], [ 364265.308831964852288, 6870454.474225071258843 ], [ 364218.972542039351538, 6870490.9121258771047 ], [ 364200.425665380316786, 6870506.636651740409434 ], [ 364121.319442049541976, 6870583.698602720163763 ], [ 364089.064004381652921, 6870619.784373611211777 ], [ 364061.126562407647725, 6870652.793214664794505 ], [ 364028.669528254249599, 6870693.314108234830201 ], [ 363966.640897879842669, 6870782.563378210179508 ], [ 363949.505196618789341, 6870811.190079140476882 ], [ 363896.764745889115147, 6870916.067265524528921 ], [ 363871.328299176122528, 6870977.508823430165648 ], [ 363864.904248014616314, 6870990.760414930060506 ], [ 363802.024365453515202, 6871059.612759455107152 ], [ 363799.736661270901095, 6871062.114935904741287 ], [ 363659.949869727366604, 6871147.16795093473047 ], [ 363633.339133651403245, 6871167.932388933375478 ], [ 363540.164660554961301, 6871253.295790825970471 ], [ 363501.659731838852167, 6871294.623070337809622 ], [ 363459.551960102457087, 6871343.646357583813369 ], [ 363414.497700506239198, 6871400.60174235701561 ], [ 363342.60298808303196, 6871485.444317679852247 ], [ 363285.531538670358714, 6871550.486639915965497 ] ] ] ] } }
]
}
