{
"type": "FeatureCollection",
"name": "Raio 1600m dos Parques",
"crs": { "type": "name", "properties": { "name": "urn:ogc:def:crs:EPSG::31982" } },
"features": [
{ "type": "Feature", "properties": { "FID": 0, "NOME": null }, "geometry": { "type": "MultiPolygon", "coordinates": [ ] } },
{ "type": "Feature", "properties": { "FID": 1, "NOME": "PARQUE BANHADO DA VERGUEIRO" }, "geometry": { "type": "MultiPolygon", "coordinates": [ ] } },
{ "type": "Feature", "properties": { "FID": null, "NOME": "PARQUE DA GARE" }, "geometry": { "type": "MultiPolygon", "coordinates": [ ] } },
{ "type": "Feature", "properties": { "FID": null, "NOME": null }, "geometry": { "type": "MultiPolygon", "coordinates": [ ] } },
{ "type": "Feature", "properties": { "FID": null, "NOME": null }, "geometry": { "type": "MultiPolygon", "coordinates": [ ] } },
{ "type": "Feature", "properties": { "FID": null, "NOME": "PARQUE ARLINDO HAAS" }, "geometry": { "type": "MultiPolygon", "coordinates": [ ] } },
{ "type": "Feature", "properties": { "FID": null, "NOME": null }, "geometry": { "type": "MultiPolygon", "coordinates": [ ] } },
{ "type": "Feature", "properties": { "FID": null, "NOME": "PARQUE PINHEIRO TORTO" }, "geometry": { "type": "MultiPolygon", "coordinates": [ ] } },
{ "type": "Feature", "properties": { "FID": 0, "NOME": null }, "geometry": { "type": "MultiPolygon", "coordinates": [ [ [ [ 364648.899032210698351, 6866409.950199487619102 ], [ 364294.928244878770784, 6866055.979412156157196 ], [ 363848.899032210698351, 6865828.716177083551884 ], [ 363354.471841210790444, 6865750.406603155657649 ], [ 362860.044650210882537, 6865828.716177083551884 ], [ 362414.015437542810105, 6866055.979412156157196 ], [ 362060.044650210882537, 6866409.950199487619102 ], [ 361832.781415138568264, 6866855.979412156157196 ], [ 361754.471841210790444, 6867350.406603155657649 ], [ 361832.781415138568264, 6867844.833794155158103 ], [ 362060.044650210882537, 6868290.863006823696196 ], [ 362414.015437542810105, 6868644.833794155158103 ], [ 362860.044650210882537, 6868872.097029227763414 ], [ 363354.471841210790444, 6868950.406603155657649 ], [ 363848.899032210698351, 6868872.097029227763414 ], [ 364294.928244878770784, 6868644.833794155158103 ], [ 364648.899032210698351, 6868290.863006823696196 ], [ 364876.162267283012625, 6867844.833794155158103 ], [ 364954.471841210790444, 6867350.406603155657649 ], [ 364876.162267283012625, 6866855.979412156157196 ], [ 364648.899032210698351, 6866409.950199487619102 ] ] ], [ [ [ 363343.135266968864016, 6871109.730385958217084 ], [ 362897.106054300791584, 6870882.467150885611773 ], [ 362402.678863300883677, 6870804.157576957717538 ], [ 361908.25167230097577, 6870882.467150885611773 ], [ 361462.222459632903337, 6871109.730385958217084 ], [ 361108.25167230097577, 6871463.701173289678991 ], [ 360880.988437228661496, 6871909.730385958217084 ], [ 360824.479647366970312, 6872266.512843539938331 ], [ 360686.082471296540461, 6872288.432802814058959 ], [ 360240.053258628468029, 6872515.696037886664271 ], [ 359886.082471296540461, 6872869.666825218126178 ], [ 359658.819236224226188, 6873315.696037886664271 ], [ 359580.509662296448369, 6873810.123228886164725 ], [ 359658.819236224226188, 6874304.550419885665178 ], [ 359886.082471296540461, 6874750.579632554203272 ], [ 360240.053258628468029, 6875104.550419885665178 ], [ 360686.082471296540461, 6875331.81365495827049 ], [ 361180.509662296448369, 6875410.123228886164725 ], [ 361674.936853296356276, 6875331.81365495827049 ], [ 362009.764956750383135, 6875161.210215042345226 ], [ 361822.505647495621815, 6875528.727302639745176 ], [ 361744.196073567843996, 6876023.154493639245629 ], [ 361822.505647495621815, 6876517.581684638746083 ], [ 362049.768882567936089, 6876963.610897307284176 ], [ 362403.739669899863657, 6877317.581684638746083 ], [ 362849.768882567936089, 6877544.844919711351395 ], [ 363344.196073567843996, 6877623.154493639245629 ], [ 363838.623264567751903, 6877544.844919711351395 ], [ 364284.652477235824335, 6877317.581684638746083 ], [ 364638.623264567751903, 6876963.610897307284176 ], [ 364865.886499640066177, 6876517.581684638746083 ], [ 364944.196073567843996, 6876023.154493639245629 ], [ 364865.886499640066177, 6875528.727302639745176 ], [ 364638.623264567751903, 6875082.698089971207082 ], [ 364284.652477235824335, 6874728.727302639745176 ], [ 363838.623264567751903, 6874501.464067567139864 ], [ 363344.196073567843996, 6874423.154493639245629 ], [ 362849.768882567936089, 6874501.464067567139864 ], [ 362514.94077911390923, 6874672.067507483065128 ], [ 362702.200088368670549, 6874304.550419885665178 ], [ 362758.708878230361734, 6873947.767962303943932 ], [ 362897.106054300791584, 6873925.848003029823303 ], [ 363343.135266968864016, 6873698.584767957217991 ], [ 363697.106054300791584, 6873344.613980625756085 ], [ 363924.369289373105858, 6872898.584767957217991 ], [ 364002.678863300883677, 6872404.157576957717538 ], [ 363924.369289373105858, 6871909.730385958217084 ], [ 363697.106054300791584, 6871463.701173289678991 ], [ 363343.135266968864016, 6871109.730385958217084 ] ] ], [ [ [ 358357.032781746645924, 6874309.786878441460431 ], [ 357911.003569078573491, 6874082.523643368855119 ], [ 357416.576378078665584, 6874004.214069440960884 ], [ 356922.149187078757677, 6874082.523643368855119 ], [ 356476.119974410685245, 6874309.786878441460431 ], [ 356122.149187078757677, 6874663.757665772922337 ], [ 355894.885952006443404, 6875109.786878441460431 ], [ 355816.576378078665584, 6875604.214069440960884 ], [ 355894.885952006443404, 6876098.641260440461338 ], [ 356122.149187078757677, 6876544.670473108999431 ], [ 356476.119974410685245, 6876898.641260440461338 ], [ 356922.149187078757677, 6877125.904495513066649 ], [ 357416.576378078665584, 6877204.214069440960884 ], [ 357911.003569078573491, 6877125.904495513066649 ], [ 358357.032781746645924, 6876898.641260440461338 ], [ 358711.003569078573491, 6876544.670473108999431 ], [ 358938.266804150887765, 6876098.641260440461338 ], [ 359016.576378078665584, 6875604.214069440960884 ], [ 358938.266804150887765, 6875109.786878441460431 ], [ 358711.003569078573491, 6874663.757665772922337 ], [ 358357.032781746645924, 6874309.786878441460431 ] ] ] ] } }
]
}
