{
"type": "FeatureCollection",
"name": "Raio 800m dos Parques Lineares",
"crs": { "type": "name", "properties": { "name": "urn:ogc:def:crs:EPSG::31982" } },
"features": [
{ "type": "Feature", "properties": { "FID": null, "FID_2": 1, "FID_3": 1 }, "geometry": { "type": "MultiPolygon", "coordinates": [ [ [ [ 362830.908583996235393, 6871990.462393596768379 ], [ 362775.801587233552709, 6872234.615784009918571 ], [ 362798.839265740709379, 6872483.848455445840955 ], [ 362897.766531032451894, 6872713.763777518644929 ], [ 362974.946347555145621, 6872801.674200000241399 ], [ 362837.085338049742859, 6872687.582330064848065 ], [ 362704.669487436942291, 6872598.639466344378889 ], [ 360858.578382288862485, 6871610.129690183326602 ], [ 360844.290019626903813, 6871602.663093281909823 ], [ 360510.42247933417093, 6871432.456111955456436 ], [ 360301.004089955764357, 6871360.130029734224081 ], [ 360217.537204882595688, 6871343.763973837718368 ], [ 360017.779367901792284, 6871330.128581355325878 ], [ 359818.113485961977858, 6871341.584820482879877 ], [ 359527.190067665826064, 6871414.59935263171792 ], [ 359315.217966358817648, 6871512.96549114678055 ], [ 359147.475429293699563, 6871367.721775569953024 ], [ 358916.88748324936023, 6871270.372619018889964 ], [ 358667.502770822378807, 6871249.043663350865245 ], [ 358423.732805230480153, 6871305.822735353372991 ], [ 358209.439489151060116, 6871435.151903857477009 ], [ 358045.59934543131385, 6871624.371528759598732 ], [ 357948.250188879959751, 6871854.959474803879857 ], [ 357926.921233211643994, 6872104.344187230803072 ], [ 357983.700305214792024, 6872348.114152822643518 ], [ 358113.029473718605004, 6872562.407468901947141 ], [ 358340.517650682770181, 6872832.447391198016703 ], [ 358514.164116613275837, 6872986.347218124195933 ], [ 358724.671810182917397, 6873083.942109415307641 ], [ 358829.414567921834532, 6873115.037615618668497 ], [ 358993.12753190274816, 6873145.558768182992935 ], [ 359299.172777171130292, 6873170.107852027751505 ], [ 359504.17176715383539, 6873160.139587940648198 ], [ 359699.888130630599335, 6873098.341066516004503 ], [ 359990.664365827862639, 6872963.405689397826791 ], [ 360110.408303655509371, 6873024.451618487015367 ], [ 361878.729080009972677, 6873971.318417172878981 ], [ 362271.083605803258251, 6874296.025610934011638 ], [ 362201.544815905450378, 6874428.794052239507437 ], [ 362161.537284179124981, 6874547.374456146731973 ], [ 362119.607463034044486, 6874794.132534516043961 ], [ 362118.201399291865528, 6874919.272207562811673 ], [ 362154.576209380524233, 6875166.91011325083673 ], [ 362191.909248938318342, 6875286.359512340277433 ], [ 362303.028070409724023, 6875510.636721739545465 ], [ 362375.445795240870211, 6875612.703307436779141 ], [ 362455.896334576944355, 6875709.070494586601853 ], [ 362589.162977804080583, 6875845.365925160236657 ], [ 362738.556575786788017, 6876006.203782279975712 ], [ 362814.662520904268604, 6876078.076560903340578 ], [ 362895.134884934290312, 6876144.673152829520404 ], [ 363072.092714634491131, 6876255.711687672883272 ], [ 363167.063281493086834, 6876299.203053016215563 ], [ 363264.885368452814873, 6876336.46765408758074 ], [ 363365.074102969607338, 6876367.294957015663385 ], [ 363396.944190041918773, 6876376.382944718003273 ], [ 363428.988801668747328, 6876384.807055588811636 ], [ 363461.207937850093003, 6876392.567289629019797 ], [ 364000.685739094449673, 6876510.738617520779371 ], [ 364090.802907181088813, 6876525.149658458307385 ], [ 364181.447536304593086, 6876534.382002789527178 ], [ 364272.619626464962494, 6876538.435650515370071 ], [ 364687.451680466649123, 6876533.192894228734076 ], [ 364812.464790609257761, 6876521.76283167116344 ], [ 364935.814313476905227, 6876500.624951127916574 ], [ 364959.879390257177874, 6876492.468097469769418 ], [ 365032.264469850342721, 6876511.060493702068925 ], [ 365282.067151952243876, 6876495.367209886200726 ], [ 365514.794129156740382, 6876403.248736041598022 ], [ 365707.664463430817705, 6876243.722270214930177 ], [ 365841.798662649234757, 6876032.403374367393553 ], [ 365904.066736824403051, 6875789.97741436958313 ], [ 365888.373453009000514, 6875540.174732267856598 ], [ 365860.19912006391678, 6875468.995444689877331 ], [ 365863.924133406660985, 6875443.386061538942158 ], [ 365860.761090336367488, 6875193.110904360190034 ], [ 365839.623209792713169, 6875069.761381492950022 ], [ 365759.275700231723022, 6874832.712996454909444 ], [ 365701.055282385903411, 6874721.932593262754381 ], [ 365551.388280382787343, 6874521.314927903935313 ], [ 365461.784345378982835, 6874433.947602104395628 ], [ 365257.44829988561105, 6874289.398511298932135 ], [ 365145.231905189401004, 6874233.996385464444757 ], [ 364906.228652018704452, 6874159.665341347455978 ], [ 364782.384320200479124, 6874141.651561565697193 ], [ 364657.122273171611596, 6874133.384542078711092 ], [ 364525.87030292802956, 6874135.043338898569345 ], [ 363615.520610094768927, 6873332.313933639787138 ], [ 363596.470331656804774, 6873316.038876499980688 ], [ 363180.272529881505761, 6872971.599316408857703 ], [ 363278.074367534252815, 6873029.713451826944947 ], [ 363522.227757946879137, 6873084.820448589511216 ], [ 363771.460429383034352, 6873061.782770082354546 ], [ 363793.636042779602576, 6873056.138068490661681 ], [ 363816.779693602991756, 6873049.876226205378771 ], [ 363903.264585850003641, 6873025.079858497716486 ], [ 364057.087686857266817, 6872963.094294722191989 ], [ 364108.494790640543215, 6872935.878769190050662 ], [ 364214.52461025811499, 6872868.59329798258841 ], [ 364275.205152370792348, 6872823.032492277212441 ], [ 364342.413883161498234, 6872766.546056700870395 ], [ 364362.170338733121753, 6872747.999180041253567 ], [ 364431.106356876669452, 6872674.59029951877892 ], [ 364485.347611654491629, 6872609.004468578845263 ], [ 364549.812052378198132, 6872535.536614345386624 ], [ 364558.818649450608063, 6872525.09186443593353 ], [ 364636.405081064323895, 6872433.532520968466997 ], [ 364668.826624745095614, 6872415.992997337132692 ], [ 364868.068609567708336, 6872263.465888301841915 ], [ 364895.082538614515215, 6872235.040783857926726 ], [ 364905.60873490216909, 6872223.748495645821095 ], [ 364983.021785304998048, 6872139.077971767634153 ], [ 365094.227964748512022, 6872017.309384658001363 ], [ 365134.361030661442783, 6871973.880366471596062 ], [ 365217.110493674816098, 6871867.633928697556257 ], [ 365225.779142548097298, 6871854.328560659661889 ], [ 365280.299988924933132, 6871756.222155044786632 ], [ 365293.202163992042188, 6871728.603436540812254 ], [ 365314.534848794341087, 6871678.569429581984878 ], [ 365319.040274364640936, 6871666.919686322100461 ], [ 365393.635794173169415, 6871614.226680839434266 ], [ 365420.713694119418506, 6871594.232347252778709 ], [ 365442.645618983893655, 6871577.313433786854148 ], [ 365544.189451518235728, 6871505.593663954176009 ], [ 365548.728724731132388, 6871502.363855457864702 ], [ 365660.778216474398505, 6871422.048660326749086 ], [ 365776.22130793944234, 6871341.042830044403672 ], [ 365831.246831576747354, 6871302.484798883087933 ], [ 365846.823225613334216, 6871291.289131509140134 ], [ 365928.872995181009173, 6871230.810185882262886 ], [ 365934.804028338578064, 6871226.39597491081804 ], [ 365995.025500545511022, 6871181.14182766713202 ], [ 366103.454535753116943, 6871104.198199590668082 ], [ 366105.7098154919222, 6871102.591928160749376 ], [ 366258.085663800186012, 6870993.667773368768394 ], [ 366321.796401518455241, 6870949.257641489617527 ], [ 366426.479394054971635, 6870876.731259691528976 ], [ 366439.322271305019967, 6870873.111903375945985 ], [ 366522.931885586702265, 6870852.120553406886756 ], [ 366544.267794659070205, 6870846.449813322164118 ], [ 366583.780705802259035, 6870835.362006624229252 ], [ 366631.284956676594447, 6870820.421953905373812 ], [ 366652.654184131533839, 6870812.962883944623172 ], [ 366873.153649301500991, 6870694.524524440988898 ], [ 367046.261636618408374, 6870513.744868867099285 ], [ 367155.033130169380456, 6870288.319889477454126 ], [ 367188.820818310137838, 6870040.315753881819546 ], [ 367144.317326712713111, 6869794.008834820240736 ], [ 367025.878967208846007, 6869573.509369649924338 ], [ 366845.099311635305639, 6869400.401382333599031 ], [ 366619.674332245485857, 6869291.629888782277703 ], [ 366371.670196650316939, 6869257.842200641520321 ], [ 366152.235104156890884, 6869297.490407976321876 ], [ 366151.498301007668488, 6869294.864709480665624 ], [ 366122.614218514587265, 6869302.969936710782349 ], [ 366038.570950787398033, 6869324.070161374285817 ], [ 366016.374379232991487, 6869329.982932761311531 ], [ 365927.671925646311138, 6869354.980896955356002 ], [ 365862.385150750400499, 6869376.446851432323456 ], [ 365814.80838019028306, 6869394.38893863465637 ], [ 365740.697567202325445, 6869426.703778051771224 ], [ 365698.563901748566423, 6869447.669812534935772 ], [ 365636.490818897495046, 6869482.074004589579999 ], [ 365598.389083152345847, 6869505.459196898154914 ], [ 365561.266302477684803, 6869529.684517572633922 ], [ 365409.665745438600425, 6869634.716286479495466 ], [ 365407.787564331432804, 6869636.021503798663616 ], [ 365339.244759287161287, 6869683.799870843067765 ], [ 365331.489421670790762, 6869689.274453106336296 ], [ 365176.378395387204364, 6869800.153818992897868 ], [ 365060.178270688804332, 6869882.611983083188534 ], [ 365042.55362557125045, 6869895.483852997422218 ], [ 364976.56294521142263, 6869945.073340870440006 ], [ 364905.209970688621979, 6869997.667670984752476 ], [ 364857.827848176355474, 6870030.869742234237492 ], [ 364738.462190715945326, 6870114.627812636084855 ], [ 364731.911475552304182, 6870119.273659816011786 ], [ 364618.862299534026533, 6870200.305411857552826 ], [ 364505.824369439855218, 6870280.143390456214547 ], [ 364478.707552226725966, 6870300.165212800726295 ], [ 364456.756756184797268, 6870317.098684032447636 ], [ 364375.755719074280933, 6870374.316437906585634 ], [ 364367.241549712431151, 6870380.414629093371332 ], [ 364282.571025834127795, 6870441.901557147502899 ], [ 364281.63814728410216, 6870442.580032431520522 ], [ 364265.308831964852288, 6870454.474225071258843 ], [ 364218.972542039351538, 6870490.9121258771047 ], [ 364200.425665380316786, 6870506.636651740409434 ], [ 364121.319442049541976, 6870583.698602720163763 ], [ 364089.064004381652921, 6870619.784373611211777 ], [ 364061.126562407647725, 6870652.793214664794505 ], [ 364028.669528254249599, 6870693.314108234830201 ], [ 363966.640897879842669, 6870782.563378210179508 ], [ 363949.505196618789341, 6870811.190079140476882 ], [ 363896.764745889115147, 6870916.067265524528921 ], [ 363871.328299176122528, 6870977.508823430165648 ], [ 363864.904248014616314, 6870990.760414930060506 ], [ 363802.024365453515202, 6871059.612759455107152 ], [ 363799.736661270901095, 6871062.114935904741287 ], [ 363659.949869727366604, 6871147.16795093473047 ], [ 363633.339133651403245, 6871167.932388933375478 ], [ 363540.164660554961301, 6871253.295790825970471 ], [ 363501.659731838852167, 6871294.623070337809622 ], [ 363459.551960102457087, 6871343.646357583813369 ], [ 363414.497700506239198, 6871400.60174235701561 ], [ 363342.60298808303196, 6871485.444317679852247 ], [ 363285.531538670358714, 6871550.486639915965497 ], [ 363146.858258304360788, 6871610.154557094909251 ], [ 362958.765999232593458, 6871775.287719178013504 ], [ 362830.908583996235393, 6871990.462393596768379 ] ] ] ] } }
]
}
