{
"type": "FeatureCollection",
"name": "Raio 400m das Praças Públicas",
"crs": { "type": "name", "properties": { "name": "urn:ogc:def:crs:EPSG::31982" } },
"features": [
{ "type": "Feature", "properties": { "NOME": "Praça Eloi Machado da Silva\n" }, "geometry": { "type": "MultiPolygon", "coordinates": [ [ [ [ 359940.449762831733096, 6871281.059881744906306 ], [ 359816.842965081741568, 6871300.637275226414204 ], [ 359705.33566191472346, 6871357.453083994798362 ], [ 359616.842965081741568, 6871445.945780827663839 ], [ 359560.027156313648447, 6871557.453083994798362 ], [ 359540.449762831733096, 6871681.059881744906306 ], [ 359560.027156313648447, 6871804.66667949501425 ], [ 359616.842965081741568, 6871916.173982662148774 ], [ 359705.33566191472346, 6872004.66667949501425 ], [ 359816.842965081741568, 6872061.482488263398409 ], [ 359940.449762831733096, 6872081.059881744906306 ], [ 360064.056560581724625, 6872061.482488263398409 ], [ 360175.563863748742733, 6872004.66667949501425 ], [ 360264.056560581724625, 6871916.173982662148774 ], [ 360320.872369349817745, 6871804.66667949501425 ], [ 360340.449762831733096, 6871681.059881744906306 ], [ 360320.872369349817745, 6871557.453083994798362 ], [ 360264.056560581724625, 6871445.945780827663839 ], [ 360175.563863748742733, 6871357.453083994798362 ], [ 360064.056560581724625, 6871300.637275226414204 ], [ 359940.449762831733096, 6871281.059881744906306 ] ] ], [ [ [ 358977.038914908713195, 6871401.163006638176739 ], [ 358865.531611741695087, 6871457.978815406560898 ], [ 358777.038914908713195, 6871546.471512239426374 ], [ 358751.935505300643854, 6871595.739727660082281 ], [ 358672.54011847358197, 6871636.193697821348906 ], [ 358585.983073271752801, 6871722.750743023119867 ], [ 358568.047713324369397, 6871704.815383075736463 ], [ 358456.540410157351289, 6871647.999574307352304 ], [ 358332.93361240735976, 6871628.422180825844407 ], [ 358209.326814657368232, 6871647.999574307352304 ], [ 358097.819511490350123, 6871704.815383075736463 ], [ 358009.326814657368232, 6871793.30807990860194 ], [ 357952.511005889275111, 6871904.815383075736463 ], [ 357932.93361240735976, 6872028.422180825844407 ], [ 357952.511005889275111, 6872152.028978575952351 ], [ 358009.326814657368232, 6872263.536281743086874 ], [ 358097.819511490350123, 6872352.028978575952351 ], [ 358209.326814657368232, 6872408.84478734433651 ], [ 358332.93361240735976, 6872428.422180825844407 ], [ 358456.540410157351289, 6872408.84478734433651 ], [ 358487.752552596270107, 6872392.94140643812716 ], [ 358503.895502162573393, 6872424.623728847131133 ], [ 358592.388198995555285, 6872513.11642567999661 ], [ 358631.424879204889294, 6872533.006607710383832 ], [ 358606.935756263905205, 6872581.069217665120959 ], [ 358587.358362781989854, 6872704.676015415228903 ], [ 358606.418984532356262, 6872825.020044862292707 ], [ 358506.314304008265026, 6872840.875068660825491 ], [ 358394.807000841246918, 6872897.69087742920965 ], [ 358306.314304008265026, 6872986.183574262075126 ], [ 358249.498495240171906, 6873097.69087742920965 ], [ 358229.921101758256555, 6873221.297675179317594 ], [ 358249.498495240171906, 6873344.904472929425538 ], [ 358306.314304008265026, 6873456.411776096560061 ], [ 358394.807000841246918, 6873544.904472929425538 ], [ 358437.25667377182981, 6873566.53366161044687 ], [ 358385.190872618521098, 6873574.780074385926127 ], [ 358342.66901264921762, 6873596.446044200100005 ], [ 358291.39443579071667, 6873495.814020992256701 ], [ 358202.901738957734779, 6873407.321324159391224 ], [ 358091.39443579071667, 6873350.505515391007066 ], [ 357967.787638040725142, 6873330.928121909499168 ], [ 357844.180840290733613, 6873350.505515391007066 ], [ 357732.673537123715505, 6873407.321324159391224 ], [ 357644.180840290733613, 6873495.814020992256701 ], [ 357587.365031522640493, 6873607.321324159391224 ], [ 357567.787638040725142, 6873730.928121909499168 ], [ 357587.365031522640493, 6873854.534919659607112 ], [ 357644.180840290733613, 6873966.042222826741636 ], [ 357732.673537123715505, 6874054.534919659607112 ], [ 357844.180840290733613, 6874111.350728427991271 ], [ 357967.787638040725142, 6874130.928121909499168 ], [ 358091.39443579071667, 6874111.350728427991271 ], [ 358133.916295760020148, 6874089.684758613817394 ], [ 358185.190872618521098, 6874190.316781821660697 ], [ 358273.68356945150299, 6874278.809478654526174 ], [ 358385.190872618521098, 6874335.625287422910333 ], [ 358508.797670368512627, 6874355.20268090441823 ], [ 358632.404468118504155, 6874335.625287422910333 ], [ 358743.911771285522263, 6874278.809478654526174 ], [ 358832.404468118504155, 6874190.316781821660697 ], [ 358889.220276886597276, 6874078.809478654526174 ], [ 358908.797670368512627, 6873955.20268090441823 ], [ 358889.220276886597276, 6873831.595883154310286 ], [ 358832.404468118504155, 6873720.088579987175763 ], [ 358743.911771285522263, 6873631.595883154310286 ], [ 358701.462098354939371, 6873609.966694473288953 ], [ 358753.527899508248083, 6873601.720281697809696 ], [ 358865.035202675266191, 6873544.904472929425538 ], [ 358922.515967789106071, 6873487.423707815818489 ], [ 358959.454207057191525, 6873506.244680782780051 ], [ 358975.90325151453726, 6873610.099860140122473 ], [ 359032.71906028263038, 6873721.607163307256997 ], [ 359121.211757115612272, 6873810.099860140122473 ], [ 359232.71906028263038, 6873866.915668908506632 ], [ 359356.325858032621909, 6873886.493062390014529 ], [ 359479.932655782613438, 6873866.915668908506632 ], [ 359591.439958949631546, 6873810.099860140122473 ], [ 359679.932655782613438, 6873721.607163307256997 ], [ 359736.748464550706558, 6873610.099860140122473 ], [ 359756.325858032621909, 6873486.493062390014529 ], [ 359736.748464550706558, 6873362.886264639906585 ], [ 359679.932655782613438, 6873251.378961472772062 ], [ 359591.439958949631546, 6873162.886264639906585 ], [ 359542.742748367541935, 6873138.07379652839154 ], [ 359526.2937039101962, 6873034.218617171049118 ], [ 359487.736750349402428, 6872958.546335052698851 ], [ 359491.367169165576342, 6872951.421236944384873 ], [ 359510.944562647491693, 6872827.814439194276929 ], [ 359491.367169165576342, 6872704.207641444168985 ], [ 359434.551360397483222, 6872592.700338277034461 ], [ 359346.05866356450133, 6872504.207641444168985 ], [ 359322.502471420797519, 6872492.205162053927779 ], [ 359310.965160531981383, 6872469.561914497986436 ], [ 359222.472463698999491, 6872381.069217665120959 ], [ 359183.435783489665482, 6872361.179035634733737 ], [ 359207.924906430649571, 6872313.11642567999661 ], [ 359225.777777085022535, 6872200.397836544550955 ], [ 359231.261017140583135, 6872194.914596488699317 ], [ 359256.364426748652477, 6872145.646381068043411 ], [ 359335.759813575714361, 6872105.192410906776786 ], [ 359424.252510408696253, 6872016.699714073911309 ], [ 359481.068319176789373, 6871905.192410906776786 ], [ 359500.645712658704724, 6871781.585613156668842 ], [ 359481.068319176789373, 6871657.978815406560898 ], [ 359424.252510408696253, 6871546.471512239426374 ], [ 359335.759813575714361, 6871457.978815406560898 ], [ 359224.252510408696253, 6871401.163006638176739 ], [ 359100.645712658704724, 6871381.585613156668842 ], [ 358977.038914908713195, 6871401.163006638176739 ] ] ], [ [ [ 360179.378226229979191, 6872996.833078563213348 ], [ 360067.870923062961083, 6873053.648887331597507 ], [ 359979.378226229979191, 6873142.141584164462984 ], [ 359922.562417461886071, 6873253.648887331597507 ], [ 359902.98502397997072, 6873377.255685081705451 ], [ 359922.562417461886071, 6873500.862482831813395 ], [ 359979.378226229979191, 6873612.369785998947918 ], [ 360067.870923062961083, 6873700.862482831813395 ], [ 360179.378226229979191, 6873757.678291600197554 ], [ 360302.98502397997072, 6873777.255685081705451 ], [ 360319.344339161587413, 6873774.664624102413654 ], [ 360239.333480205968954, 6873854.675483058206737 ], [ 360215.160391880141106, 6873850.846841992810369 ], [ 360091.553594130149577, 6873870.424235474318266 ], [ 359980.046290963131469, 6873927.240044242702425 ], [ 359891.553594130149577, 6874015.732741075567901 ], [ 359834.737785362056457, 6874127.240044242702425 ], [ 359815.160391880141106, 6874250.846841992810369 ], [ 359834.737785362056457, 6874374.453639742918313 ], [ 359891.553594130149577, 6874485.960942910052836 ], [ 359980.046290963131469, 6874574.453639742918313 ], [ 360091.553594130149577, 6874631.269448511302471 ], [ 360215.160391880141106, 6874650.846841992810369 ], [ 360338.767189630132634, 6874631.269448511302471 ], [ 360450.274492797150742, 6874574.453639742918313 ], [ 360532.640457530273125, 6874492.087675009854138 ], [ 360556.813545856100973, 6874495.916316075250506 ], [ 360680.420343606092501, 6874476.338922593742609 ], [ 360712.774301924160682, 6874459.853757439181209 ], [ 360718.148249752412084, 6874470.400723902508616 ], [ 360806.640946585393976, 6874558.893420735374093 ], [ 360918.148249752412084, 6874615.709229503758252 ], [ 361041.755047502403613, 6874635.286622985266149 ], [ 361165.361845252395142, 6874615.709229503758252 ], [ 361276.86914841941325, 6874558.893420735374093 ], [ 361365.361845252395142, 6874470.400723902508616 ], [ 361422.177654020488262, 6874358.893420735374093 ], [ 361441.755047502403613, 6874235.286622985266149 ], [ 361422.177654020488262, 6874111.679825235158205 ], [ 361365.361845252395142, 6874000.172522068023682 ], [ 361330.442830309737474, 6873965.253507125191391 ], [ 361380.753200480306987, 6873939.619093149900436 ], [ 361469.245897313288879, 6873851.12639631703496 ], [ 361526.061706081381999, 6873739.619093149900436 ], [ 361531.527541742892936, 6873705.10916496347636 ], [ 361539.622540137614124, 6873697.014166568405926 ], [ 361596.438348905707244, 6873585.506863401271403 ], [ 361616.015742387622595, 6873461.900065651163459 ], [ 361596.438348905707244, 6873338.293267901055515 ], [ 361587.027547527104616, 6873319.823530250228941 ], [ 361669.62569600821007, 6873237.225381769239902 ], [ 361719.386216899903957, 6873139.564860708080232 ], [ 361805.293563432991505, 6873225.472207240760326 ], [ 361872.239469194959383, 6873259.582849966362119 ], [ 361862.168771174154244, 6873323.166734849102795 ], [ 361881.746164656069595, 6873446.773532599210739 ], [ 361938.561973424162716, 6873558.280835766345263 ], [ 362027.054670257144608, 6873646.773532599210739 ], [ 362093.589950102905277, 6873680.674950970336795 ], [ 362086.952366581652313, 6873722.583003981038928 ], [ 362106.529760063567664, 6873846.189801731146872 ], [ 362163.345568831660785, 6873957.697104898281395 ], [ 362251.838265664642677, 6874046.189801731146872 ], [ 362363.345568831660785, 6874103.005610499531031 ], [ 362486.952366581652313, 6874122.583003981038928 ], [ 362610.559164331643842, 6874103.005610499531031 ], [ 362688.764829160063528, 6874063.157833974808455 ], [ 362717.200715745682828, 6874118.966403720900416 ], [ 362805.69341257866472, 6874207.459100553765893 ], [ 362917.200715745682828, 6874264.274909322150052 ], [ 363040.807513495674357, 6874283.852302803657949 ], [ 363164.414311245665886, 6874264.274909322150052 ], [ 363275.921614412683994, 6874207.459100553765893 ], [ 363364.414311245665886, 6874118.966403720900416 ], [ 363421.230120013759006, 6874007.459100553765893 ], [ 363440.807513495674357, 6873883.852302803657949 ], [ 363421.230120013759006, 6873760.245505053550005 ], [ 363364.414311245665886, 6873648.738201886415482 ], [ 363275.921614412683994, 6873560.245505053550005 ], [ 363164.414311245665886, 6873503.429696285165846 ], [ 363040.807513495674357, 6873483.852302803657949 ], [ 362917.200715745682828, 6873503.429696285165846 ], [ 362838.995050917263143, 6873543.277472809888422 ], [ 362810.559164331643842, 6873487.468903063796461 ], [ 362722.06646749866195, 6873398.976206230930984 ], [ 362655.531187652901281, 6873365.074787859804928 ], [ 362662.168771174154244, 6873323.166734849102795 ], [ 362642.591377692238893, 6873199.559937098994851 ], [ 362585.775568924145773, 6873088.052633931860328 ], [ 362497.282872091163881, 6872999.559937098994851 ], [ 362430.336966329196002, 6872965.449294373393059 ], [ 362440.407664350001141, 6872901.865409490652382 ], [ 362420.83027086808579, 6872778.258611740544438 ], [ 362364.01446209999267, 6872666.751308573409915 ], [ 362275.521765267010778, 6872578.258611740544438 ], [ 362164.01446209999267, 6872521.44280297216028 ], [ 362040.407664350001141, 6872501.865409490652382 ], [ 361916.800866600009613, 6872521.44280297216028 ], [ 361805.293563432991505, 6872578.258611740544438 ], [ 361716.800866600009613, 6872666.751308573409915 ], [ 361667.040345708315726, 6872764.411829634569585 ], [ 361581.132999175228179, 6872678.504483101889491 ], [ 361469.62569600821007, 6872621.688674333505332 ], [ 361346.018898258218542, 6872602.111280851997435 ], [ 361334.602033462550025, 6872603.919534592889249 ], [ 361303.064049477863591, 6872572.381550608202815 ], [ 361191.556746310845483, 6872515.565741839818656 ], [ 361067.949948560853954, 6872495.988348358310759 ], [ 360944.343150810862426, 6872515.565741839818656 ], [ 360832.835847643844318, 6872572.381550608202815 ], [ 360744.343150810862426, 6872660.874247441068292 ], [ 360687.527342042769305, 6872772.381550608202815 ], [ 360667.949948560853954, 6872895.988348358310759 ], [ 360687.527342042769305, 6873019.595146108418703 ], [ 360744.343150810862426, 6873131.102449275553226 ], [ 360796.270567577623297, 6873183.029866042546928 ], [ 360721.339602113061119, 6873221.209099901840091 ], [ 360684.158569899562281, 6873258.390132115222514 ], [ 360683.407630498055369, 6873253.648887331597507 ], [ 360626.591821729962248, 6873142.141584164462984 ], [ 360538.099124896980356, 6873053.648887331597507 ], [ 360426.591821729962248, 6872996.833078563213348 ], [ 360302.98502397997072, 6872977.255685081705451 ], [ 360179.378226229979191, 6872996.833078563213348 ] ], [ [ 360575.280157110479195, 6873663.681450618430972 ], [ 360576.031096511986107, 6873668.422695402055979 ], [ 360583.024111748090945, 6873682.14726056996733 ], [ 360567.553944253362715, 6873697.617428064346313 ], [ 360556.813545856100973, 6873695.916316075250506 ], [ 360540.454230674484279, 6873698.507377054542303 ], [ 360575.280157110479195, 6873663.681450618430972 ] ] ], [ [ [ 359473.755136709718499, 6874378.662903921678662 ], [ 359350.148338959726971, 6874398.24029740318656 ], [ 359238.641035792708863, 6874455.056106171570718 ], [ 359150.148338959726971, 6874543.548803004436195 ], [ 359093.33253019163385, 6874655.056106171570718 ], [ 359073.755136709718499, 6874778.662903921678662 ], [ 359093.33253019163385, 6874902.269701671786606 ], [ 359150.148338959726971, 6875013.77700483892113 ], [ 359238.641035792708863, 6875102.269701671786606 ], [ 359350.148338959726971, 6875159.085510440170765 ], [ 359473.755136709718499, 6875178.662903921678662 ], [ 359597.361934459710028, 6875159.085510440170765 ], [ 359708.869237626728136, 6875102.269701671786606 ], [ 359797.361934459710028, 6875013.77700483892113 ], [ 359854.177743227803148, 6874902.269701671786606 ], [ 359873.755136709718499, 6874778.662903921678662 ], [ 359854.177743227803148, 6874655.056106171570718 ], [ 359797.361934459710028, 6874543.548803004436195 ], [ 359708.869237626728136, 6874455.056106171570718 ], [ 359597.361934459710028, 6874398.24029740318656 ], [ 359473.755136709718499, 6874378.662903921678662 ] ] ], [ [ [ 358469.708608939719852, 6874626.941933568567038 ], [ 358358.201305772701744, 6874683.757742336951196 ], [ 358269.708608939719852, 6874772.250439169816673 ], [ 358212.892800171626732, 6874883.757742336951196 ], [ 358193.315406689711381, 6875007.36454008705914 ], [ 358211.32976124889683, 6875121.102698471397161 ], [ 358132.421271806932054, 6875133.600575407966971 ], [ 358020.913968639913946, 6875190.41638417635113 ], [ 357932.421271806932054, 6875278.909081009216607 ], [ 357875.605463038838934, 6875390.41638417635113 ], [ 357856.028069556923583, 6875514.023181926459074 ], [ 357875.605463038838934, 6875637.629979676567018 ], [ 357932.421271806932054, 6875749.137282843701541 ], [ 358020.913968639913946, 6875837.629979676567018 ], [ 358110.318967937899288, 6875883.184102131053805 ], [ 358112.70290082419524, 6875898.235662003047764 ], [ 358169.51870959228836, 6876009.742965170182288 ], [ 358258.011406425270252, 6876098.235662003047764 ], [ 358369.51870959228836, 6876155.051470771431923 ], [ 358493.125507342279889, 6876174.62886425293982 ], [ 358616.732305092271417, 6876155.051470771431923 ], [ 358728.239608259289525, 6876098.235662003047764 ], [ 358816.732305092271417, 6876009.742965170182288 ], [ 358873.548113860364538, 6875898.235662003047764 ], [ 358893.125507342279889, 6875774.62886425293982 ], [ 358873.548113860364538, 6875651.022066502831876 ], [ 358816.732305092271417, 6875539.514763335697353 ], [ 358728.239608259289525, 6875451.022066502831876 ], [ 358638.834608961362392, 6875405.467944048345089 ], [ 358638.013714997738134, 6875400.285023542121053 ], [ 358716.922204439702909, 6875387.787146605551243 ], [ 358828.429507606721018, 6875330.971337837167084 ], [ 358916.922204439702909, 6875242.478641004301608 ], [ 358973.73801320779603, 6875130.971337837167084 ], [ 358993.315406689711381, 6875007.36454008705914 ], [ 358973.73801320779603, 6874883.757742336951196 ], [ 358916.922204439702909, 6874772.250439169816673 ], [ 358828.429507606721018, 6874683.757742336951196 ], [ 358716.922204439702909, 6874626.941933568567038 ], [ 358593.315406689711381, 6874607.36454008705914 ], [ 358469.708608939719852, 6874626.941933568567038 ] ] ], [ [ [ 358842.146368860499933, 6877067.545492870733142 ], [ 358730.639065693481825, 6877124.361301639117301 ], [ 358642.146368860499933, 6877212.853998471982777 ], [ 358585.330560092406813, 6877324.361301639117301 ], [ 358565.753166610491462, 6877447.968099389225245 ], [ 358585.330560092406813, 6877571.574897139333189 ], [ 358642.146368860499933, 6877683.082200306467712 ], [ 358730.639065693481825, 6877771.574897139333189 ], [ 358842.146368860499933, 6877828.390705907717347 ], [ 358965.753166610491462, 6877847.968099389225245 ], [ 359089.359964360482991, 6877828.390705907717347 ], [ 359200.867267527501099, 6877771.574897139333189 ], [ 359289.359964360482991, 6877683.082200306467712 ], [ 359346.175773128576111, 6877571.574897139333189 ], [ 359365.753166610491462, 6877447.968099389225245 ], [ 359346.175773128576111, 6877324.361301639117301 ], [ 359289.359964360482991, 6877212.853998471982777 ], [ 359200.867267527501099, 6877124.361301639117301 ], [ 359089.359964360482991, 6877067.545492870733142 ], [ 358965.753166610491462, 6877047.968099389225245 ], [ 358842.146368860499933, 6877067.545492870733142 ] ] ], [ [ [ 364045.808241728402209, 6870939.841693555004895 ], [ 363934.3009385613841, 6870996.657502323389053 ], [ 363845.808241728402209, 6871085.15019915625453 ], [ 363788.992432960309088, 6871196.657502323389053 ], [ 363769.415039478393737, 6871320.264300073496997 ], [ 363788.992432960309088, 6871443.871097823604941 ], [ 363845.808241728402209, 6871555.378400990739465 ], [ 363934.3009385613841, 6871643.871097823604941 ], [ 364045.808241728402209, 6871700.6869065919891 ], [ 364169.415039478393737, 6871720.264300073496997 ], [ 364293.021837228385266, 6871700.6869065919891 ], [ 364353.317889877362177, 6871669.964533262886107 ], [ 364437.37737170944456, 6871754.024015095084906 ], [ 364548.884674876462668, 6871810.839823863469064 ], [ 364672.491472626454197, 6871830.417217344976962 ], [ 364796.098270376445726, 6871810.839823863469064 ], [ 364907.605573543463834, 6871754.024015095084906 ], [ 364996.098270376445726, 6871665.531318262219429 ], [ 365052.914079144538846, 6871554.024015095084906 ], [ 365072.491472626454197, 6871430.417217344976962 ], [ 365052.914079144538846, 6871306.810419594869018 ], [ 364996.098270376445726, 6871195.303116427734494 ], [ 364907.605573543463834, 6871106.810419594869018 ], [ 364815.099062643712386, 6871059.675998046994209 ], [ 364863.10877269518096, 6871011.666287995874882 ], [ 364919.92458146327408, 6870900.158984828740358 ], [ 364939.501974945189431, 6870776.552187078632414 ], [ 364919.92458146327408, 6870652.94538932852447 ], [ 364863.10877269518096, 6870541.438086161389947 ], [ 364774.616075862199068, 6870452.94538932852447 ], [ 364663.10877269518096, 6870396.129580560140312 ], [ 364539.501974945189431, 6870376.552187078632414 ], [ 364415.895177195197903, 6870396.129580560140312 ], [ 364304.387874028179795, 6870452.94538932852447 ], [ 364215.895177195197903, 6870541.438086161389947 ], [ 364159.079368427104782, 6870652.94538932852447 ], [ 364139.501974945189431, 6870776.552187078632414 ], [ 364159.079368427104782, 6870900.158984828740358 ], [ 364169.33037103433162, 6870920.277710237540305 ], [ 364045.808241728402209, 6870939.841693555004895 ] ] ], [ [ [ 363609.394473453518003, 6871849.778673269785941 ], [ 363549.711250306805596, 6871880.188794370740652 ], [ 363525.436457240546588, 6871884.033543884754181 ], [ 363413.92915407352848, 6871940.84935265313834 ], [ 363325.436457240546588, 6872029.342049486003816 ], [ 363268.620648472453468, 6872140.84935265313834 ], [ 363249.043254990538117, 6872264.456150403246284 ], [ 363268.620648472453468, 6872388.062948153354228 ], [ 363325.436457240546588, 6872499.570251320488751 ], [ 363413.92915407352848, 6872588.062948153354228 ], [ 363525.436457240546588, 6872644.878756921738386 ], [ 363649.043254990538117, 6872664.456150403246284 ], [ 363772.650052740529645, 6872644.878756921738386 ], [ 363832.333275887242053, 6872614.468635820783675 ], [ 363856.608068953501061, 6872610.623886306770146 ], [ 363968.115372120519169, 6872553.808077538385987 ], [ 364056.608068953501061, 6872465.315380705520511 ], [ 364113.423877721594181, 6872353.808077538385987 ], [ 364133.001271203509532, 6872230.201279788278043 ], [ 364113.423877721594181, 6872106.594482038170099 ], [ 364056.608068953501061, 6871995.087178871035576 ], [ 363968.115372120519169, 6871906.594482038170099 ], [ 363856.608068953501061, 6871849.778673269785941 ], [ 363733.001271203509532, 6871830.201279788278043 ], [ 363609.394473453518003, 6871849.778673269785941 ] ] ], [ [ [ 362757.052692859433591, 6872348.825121639296412 ], [ 362645.545389692415483, 6872405.640930407680571 ], [ 362557.052692859433591, 6872494.133627240546048 ], [ 362500.236884091340471, 6872605.640930407680571 ], [ 362480.65949060942512, 6872729.247728157788515 ], [ 362500.236884091340471, 6872852.854525907896459 ], [ 362557.052692859433591, 6872964.361829075030982 ], [ 362645.545389692415483, 6873052.854525907896459 ], [ 362757.052692859433591, 6873109.670334676280618 ], [ 362880.65949060942512, 6873129.247728157788515 ], [ 363004.266288359416649, 6873109.670334676280618 ], [ 363115.773591526434757, 6873052.854525907896459 ], [ 363204.266288359416649, 6872964.361829075030982 ], [ 363261.082097127509769, 6872852.854525907896459 ], [ 363280.65949060942512, 6872729.247728157788515 ], [ 363261.082097127509769, 6872605.640930407680571 ], [ 363204.266288359416649, 6872494.133627240546048 ], [ 363115.773591526434757, 6872405.640930407680571 ], [ 363004.266288359416649, 6872348.825121639296412 ], [ 362880.65949060942512, 6872329.247728157788515 ], [ 362757.052692859433591, 6872348.825121639296412 ] ] ], [ [ [ 363347.130228688823991, 6874474.710874465294182 ], [ 363223.523430938832462, 6874494.28826794680208 ], [ 363112.016127771814354, 6874551.104076715186238 ], [ 363023.523430938832462, 6874639.596773548051715 ], [ 362966.707622170739342, 6874751.104076715186238 ], [ 362947.130228688823991, 6874874.710874465294182 ], [ 362966.707622170739342, 6874998.317672215402126 ], [ 363023.523430938832462, 6875109.82497538253665 ], [ 363112.016127771814354, 6875198.317672215402126 ], [ 363223.523430938832462, 6875255.133480983786285 ], [ 363347.130228688823991, 6875274.710874465294182 ], [ 363470.737026438815519, 6875255.133480983786285 ], [ 363523.083032051217742, 6875228.461858944967389 ], [ 363516.701410677575041, 6875268.753830558620393 ], [ 363536.278804159490392, 6875392.360628308728337 ], [ 363593.094612927583512, 6875503.867931475862861 ], [ 363681.587309760565404, 6875592.360628308728337 ], [ 363793.094612927583512, 6875649.176437077112496 ], [ 363916.701410677575041, 6875668.753830558620393 ], [ 364040.308208427566569, 6875649.176437077112496 ], [ 364151.815511594584677, 6875592.360628308728337 ], [ 364240.308208427566569, 6875503.867931475862861 ], [ 364241.19242584874155, 6875502.132557075470686 ], [ 364275.729256749851629, 6875569.914904229342937 ], [ 364364.221953582833521, 6875658.407601062208414 ], [ 364475.729256749851629, 6875715.223409830592573 ], [ 364599.336054499843158, 6875734.80080331210047 ], [ 364722.942852249834687, 6875715.223409830592573 ], [ 364834.450155416852795, 6875658.407601062208414 ], [ 364922.942852249834687, 6875569.914904229342937 ], [ 364979.758661017927807, 6875458.407601062208414 ], [ 364999.336054499843158, 6875334.80080331210047 ], [ 364979.758661017927807, 6875211.194005561992526 ], [ 364922.942852249834687, 6875099.686702394858003 ], [ 364834.450155416852795, 6875011.194005561992526 ], [ 364722.942852249834687, 6874954.378196793608367 ], [ 364599.336054499843158, 6874934.80080331210047 ], [ 364475.729256749851629, 6874954.378196793608367 ], [ 364364.221953582833521, 6875011.194005561992526 ], [ 364275.729256749851629, 6875099.686702394858003 ], [ 364274.845039328676648, 6875101.422076795250177 ], [ 364240.308208427566569, 6875033.639729641377926 ], [ 364151.815511594584677, 6874945.147032808512449 ], [ 364040.308208427566569, 6874888.331224040128291 ], [ 363916.701410677575041, 6874868.753830558620393 ], [ 363793.094612927583512, 6874888.331224040128291 ], [ 363740.748607315181289, 6874915.002846078947186 ], [ 363747.130228688823991, 6874874.710874465294182 ], [ 363727.55283520690864, 6874751.104076715186238 ], [ 363670.737026438815519, 6874639.596773548051715 ], [ 363582.244329605833627, 6874551.104076715186238 ], [ 363470.737026438815519, 6874494.28826794680208 ], [ 363347.130228688823991, 6874474.710874465294182 ] ] ], [ [ [ 360673.214730453619268, 6874757.916438857093453 ], [ 360561.70742728660116, 6874814.732247625477612 ], [ 360473.214730453619268, 6874903.224944458343089 ], [ 360416.398921685526147, 6875014.732247625477612 ], [ 360396.821528203610796, 6875138.339045375585556 ], [ 360416.398921685526147, 6875261.9458431256935 ], [ 360473.214730453619268, 6875373.453146292828023 ], [ 360561.70742728660116, 6875461.9458431256935 ], [ 360673.214730453619268, 6875518.761651894077659 ], [ 360796.821528203610796, 6875538.339045375585556 ], [ 360920.428325953602325, 6875518.761651894077659 ], [ 361031.935629120620433, 6875461.9458431256935 ], [ 361120.428325953602325, 6875373.453146292828023 ], [ 361177.244134721695445, 6875261.9458431256935 ], [ 361196.821528203610796, 6875138.339045375585556 ], [ 361177.244134721695445, 6875014.732247625477612 ], [ 361120.428325953602325, 6874903.224944458343089 ], [ 361031.935629120620433, 6874814.732247625477612 ], [ 360920.428325953602325, 6874757.916438857093453 ], [ 360796.821528203610796, 6874738.339045375585556 ], [ 360673.214730453619268, 6874757.916438857093453 ] ] ], [ [ [ 366541.376315642439295, 6869999.176079906523228 ], [ 366429.869012475421187, 6870055.991888674907386 ], [ 366341.376315642439295, 6870144.484585507772863 ], [ 366294.900227236270439, 6870235.699044868350029 ], [ 366248.571950860437937, 6870212.093609023839235 ], [ 366124.965153110446408, 6870192.516215542331338 ], [ 366001.35835536045488, 6870212.093609023839235 ], [ 365889.851052193436772, 6870268.909417792223394 ], [ 365801.35835536045488, 6870357.402114625088871 ], [ 365746.34373342449544, 6870465.374389593489468 ], [ 365757.588884924014565, 6870394.375297280028462 ], [ 365738.011491442099214, 6870270.768499529920518 ], [ 365681.195682674006093, 6870159.261196362785995 ], [ 365592.702985841024201, 6870070.768499529920518 ], [ 365481.195682674006093, 6870013.95269076153636 ], [ 365357.588884924014565, 6869994.375297280028462 ], [ 365233.982087174023036, 6870013.95269076153636 ], [ 365122.474784007004928, 6870070.768499529920518 ], [ 365033.982087174023036, 6870159.261196362785995 ], [ 364977.166278405929916, 6870270.768499529920518 ], [ 364957.588884924014565, 6870394.375297280028462 ], [ 364977.166278405929916, 6870517.982095030136406 ], [ 365033.982087174023036, 6870629.48939819727093 ], [ 365122.474784007004928, 6870717.982095030136406 ], [ 365233.982087174023036, 6870774.797903798520565 ], [ 365357.588884924014565, 6870794.375297280028462 ], [ 365481.195682674006093, 6870774.797903798520565 ], [ 365592.702985841024201, 6870717.982095030136406 ], [ 365681.195682674006093, 6870629.48939819727093 ], [ 365736.210304609965533, 6870521.517123228870332 ], [ 365724.965153110446408, 6870592.516215542331338 ], [ 365744.542546592361759, 6870716.123013292439282 ], [ 365801.35835536045488, 6870827.630316459573805 ], [ 365829.985206916579045, 6870856.25716801546514 ], [ 365787.758104478474706, 6870877.772951366379857 ], [ 365699.265407645492814, 6870966.265648199245334 ], [ 365642.449598877399694, 6871077.772951366379857 ], [ 365622.872205395484343, 6871201.379749116487801 ], [ 365642.449598877399694, 6871324.986546866595745 ], [ 365699.265407645492814, 6871436.493850033730268 ], [ 365787.758104478474706, 6871524.986546866595745 ], [ 365899.265407645492814, 6871581.802355634979904 ], [ 366022.872205395484343, 6871601.379749116487801 ], [ 366146.479003145475872, 6871581.802355634979904 ], [ 366257.98630631249398, 6871524.986546866595745 ], [ 366346.479003145475872, 6871436.493850033730268 ], [ 366403.294811913568992, 6871324.986546866595745 ], [ 366422.872205395484343, 6871201.379749116487801 ], [ 366403.294811913568992, 6871077.772951366379857 ], [ 366346.479003145475872, 6870966.265648199245334 ], [ 366317.852151589351706, 6870937.638796643353999 ], [ 366360.079254027456045, 6870916.123013292439282 ], [ 366448.571950860437937, 6870827.630316459573805 ], [ 366495.048039266606793, 6870736.415857098996639 ], [ 366541.376315642439295, 6870760.021292943507433 ], [ 366664.983113392430823, 6870779.59868642501533 ], [ 366788.589911142422352, 6870760.021292943507433 ], [ 366900.09721430944046, 6870703.205484175123274 ], [ 366988.589911142422352, 6870614.712787342257798 ], [ 367045.405719910515472, 6870503.205484175123274 ], [ 367064.983113392430823, 6870379.59868642501533 ], [ 367045.405719910515472, 6870255.991888674907386 ], [ 366988.589911142422352, 6870144.484585507772863 ], [ 366900.09721430944046, 6870055.991888674907386 ], [ 366788.589911142422352, 6869999.176079906523228 ], [ 366664.983113392430823, 6869979.59868642501533 ], [ 366541.376315642439295, 6869999.176079906523228 ] ] ], [ [ [ 364623.349280087626539, 6871950.769608705304563 ], [ 364511.841976920608431, 6872007.585417473688722 ], [ 364423.349280087626539, 6872096.078114306554198 ], [ 364366.533471319533419, 6872207.585417473688722 ], [ 364346.956077837618068, 6872331.192215223796666 ], [ 364366.533471319533419, 6872454.79901297390461 ], [ 364423.349280087626539, 6872566.306316141039133 ], [ 364460.294802690797951, 6872603.251838744617999 ], [ 364413.304241520003416, 6872695.47600775770843 ], [ 364393.726848038088065, 6872819.082805507816374 ], [ 364413.304241520003416, 6872942.689603257924318 ], [ 364470.120050288096536, 6873054.196906425058842 ], [ 364558.612747121078428, 6873142.689603257924318 ], [ 364670.120050288096536, 6873199.505412026308477 ], [ 364749.585920790268574, 6873212.091569450683892 ], [ 364804.77765065751737, 6873267.283299317583442 ], [ 364916.284953824535478, 6873324.0991080859676 ], [ 365039.891751574527007, 6873343.676501567475498 ], [ 365045.867841538158245, 6873342.729981902986765 ], [ 365003.059213200467639, 6873426.746645605191588 ], [ 364991.331943380529992, 6873500.789713193662465 ], [ 364969.670246755063999, 6873522.451409819535911 ], [ 364912.854437986970879, 6873633.958712986670434 ], [ 364893.277044505055528, 6873757.565510736778378 ], [ 364912.854437986970879, 6873881.172308486886322 ], [ 364969.670246755063999, 6873992.679611654020846 ], [ 365058.162943588045891, 6874081.172308486886322 ], [ 365169.670246755063999, 6874137.988117255270481 ], [ 365293.277044505055528, 6874157.565510736778378 ], [ 365416.883842255047057, 6874137.988117255270481 ], [ 365528.391145422065165, 6874081.172308486886322 ], [ 365616.883842255047057, 6873992.679611654020846 ], [ 365673.699651023140177, 6873881.172308486886322 ], [ 365685.426920843077824, 6873807.129240898415446 ], [ 365707.088617468543816, 6873785.467544272542 ], [ 365763.904426236636937, 6873673.960241105407476 ], [ 365783.481819718552288, 6873550.353443355299532 ], [ 365763.904426236636937, 6873426.746645605191588 ], [ 365726.02971483283909, 6873352.413339111022651 ], [ 365834.82684696331853, 6873335.181566230021417 ], [ 365946.334150130336639, 6873278.365757461637259 ], [ 366034.82684696331853, 6873189.873060628771782 ], [ 366091.642655731411651, 6873078.365757461637259 ], [ 366111.220049213327002, 6872954.758959711529315 ], [ 366091.642655731411651, 6872831.152161961421371 ], [ 366034.82684696331853, 6872719.644858794286847 ], [ 365946.334150130336639, 6872631.152161961421371 ], [ 365896.434219546266831, 6872605.726877400651574 ], [ 365885.369112353015225, 6872535.864540099166334 ], [ 365828.553303584922105, 6872424.35723693203181 ], [ 365740.060606751940213, 6872335.864540099166334 ], [ 365628.553303584922105, 6872279.048731330782175 ], [ 365504.946505834930576, 6872259.471337849274278 ], [ 365381.339708084939048, 6872279.048731330782175 ], [ 365269.83240491792094, 6872335.864540099166334 ], [ 365263.446651518286671, 6872342.250293498858809 ], [ 365157.455321480054408, 6872359.037670985795557 ], [ 365141.23695400863653, 6872367.301341962069273 ], [ 365146.956077837618068, 6872331.192215223796666 ], [ 365127.378684355702717, 6872207.585417473688722 ], [ 365070.562875587609597, 6872096.078114306554198 ], [ 364982.070178754627705, 6872007.585417473688722 ], [ 364870.562875587609597, 6871950.769608705304563 ], [ 364746.956077837618068, 6871931.192215223796666 ], [ 364623.349280087626539, 6871950.769608705304563 ] ] ], [ [ [ 365431.562040556455031, 6874711.30500700417906 ], [ 365320.054737389436923, 6874768.120815772563219 ], [ 365231.562040556455031, 6874856.613512605428696 ], [ 365174.746231788361911, 6874968.120815772563219 ], [ 365155.16883830644656, 6875091.727613522671163 ], [ 365174.746231788361911, 6875215.334411272779107 ], [ 365231.562040556455031, 6875326.84171443991363 ], [ 365320.054737389436923, 6875415.334411272779107 ], [ 365431.562040556455031, 6875472.150220041163266 ], [ 365555.16883830644656, 6875491.727613522671163 ], [ 365678.775636056438088, 6875472.150220041163266 ], [ 365790.282939223456196, 6875415.334411272779107 ], [ 365878.775636056438088, 6875326.84171443991363 ], [ 365935.591444824531209, 6875215.334411272779107 ], [ 365955.16883830644656, 6875091.727613522671163 ], [ 365935.591444824531209, 6874968.120815772563219 ], [ 365878.775636056438088, 6874856.613512605428696 ], [ 365790.282939223456196, 6874768.120815772563219 ], [ 365678.775636056438088, 6874711.30500700417906 ], [ 365555.16883830644656, 6874691.727613522671163 ], [ 365431.562040556455031, 6874711.30500700417906 ] ] ], [ [ [ 366676.548721745726652, 6875312.543093958869576 ], [ 366565.041418578708544, 6875369.358902727253735 ], [ 366476.548721745726652, 6875457.851599560119212 ], [ 366419.732912977633532, 6875569.358902727253735 ], [ 366400.155519495718181, 6875692.965700477361679 ], [ 366419.732912977633532, 6875816.572498227469623 ], [ 366476.548721745726652, 6875928.079801394604146 ], [ 366565.041418578708544, 6876016.572498227469623 ], [ 366676.548721745726652, 6876073.388306995853782 ], [ 366800.155519495718181, 6876092.965700477361679 ], [ 366923.76231724570971, 6876073.388306995853782 ], [ 367035.269620412727818, 6876016.572498227469623 ], [ 367123.76231724570971, 6875928.079801394604146 ], [ 367180.57812601380283, 6875816.572498227469623 ], [ 367200.155519495718181, 6875692.965700477361679 ], [ 367180.57812601380283, 6875569.358902727253735 ], [ 367123.76231724570971, 6875457.851599560119212 ], [ 367035.269620412727818, 6875369.358902727253735 ], [ 366923.76231724570971, 6875312.543093958869576 ], [ 366800.155519495718181, 6875292.965700477361679 ], [ 366676.548721745726652, 6875312.543093958869576 ] ] ], [ [ [ 365726.143978214880917, 6876464.279160368256271 ], [ 365614.636675047862809, 6876521.094969136640429 ], [ 365526.143978214880917, 6876609.587665969505906 ], [ 365469.328169446787797, 6876721.094969136640429 ], [ 365449.750775964872446, 6876844.701766886748374 ], [ 365469.328169446787797, 6876968.308564636856318 ], [ 365526.143978214880917, 6877079.815867803990841 ], [ 365614.636675047862809, 6877168.308564636856318 ], [ 365726.143978214880917, 6877225.124373405240476 ], [ 365849.750775964872446, 6877244.701766886748374 ], [ 365973.357573714863975, 6877225.124373405240476 ], [ 366084.864876881882083, 6877168.308564636856318 ], [ 366173.357573714863975, 6877079.815867803990841 ], [ 366230.173382482957095, 6876968.308564636856318 ], [ 366249.750775964872446, 6876844.701766886748374 ], [ 366230.173382482957095, 6876721.094969136640429 ], [ 366173.357573714863975, 6876609.587665969505906 ], [ 366084.864876881882083, 6876521.094969136640429 ], [ 365973.357573714863975, 6876464.279160368256271 ], [ 365849.750775964872446, 6876444.701766886748374 ], [ 365726.143978214880917, 6876464.279160368256271 ] ] ] ] } }
]
}
