{
"type": "FeatureCollection",
"name": "Raio 400m parque sétimo céu",
"crs": { "type": "name", "properties": { "name": "urn:ogc:def:crs:EPSG::31982" } },
"features": [
{ "type": "Feature", "properties": { "FID": 0 }, "geometry": { "type": "MultiPolygon", "coordinates": [ ] } },
{ "type": "Feature", "properties": { "FID": null }, "geometry": { "type": "MultiPolygon", "coordinates": [ ] } },
{ "type": "Feature", "properties": { "FID": 1 }, "geometry": { "type": "MultiPolygon", "coordinates": [ [ [ [ 362589.162977804080583, 6875845.365925160236657 ], [ 362738.556575786788017, 6876006.203782279975712 ], [ 362814.662520904268604, 6876078.076560903340578 ], [ 362895.134884934290312, 6876144.673152829520404 ], [ 363072.092714634491131, 6876255.711687672883272 ], [ 363167.063281493086834, 6876299.203053016215563 ], [ 363264.885368452814873, 6876336.46765408758074 ], [ 363365.074102969607338, 6876367.294957015663385 ], [ 363396.944190041918773, 6876376.382944718003273 ], [ 363428.988801668747328, 6876384.807055588811636 ], [ 363461.207937850093003, 6876392.567289629019797 ], [ 364000.685739094449673, 6876510.738617520779371 ], [ 364090.802907181088813, 6876525.149658458307385 ], [ 364181.447536304593086, 6876534.382002789527178 ], [ 364272.619626464962494, 6876538.435650515370071 ], [ 364687.451680466649123, 6876533.192894228734076 ], [ 364812.464790609257761, 6876521.76283167116344 ], [ 364935.814313476905227, 6876500.624951127916574 ], [ 365172.862698519020341, 6876420.277441565878689 ], [ 365283.643101711117197, 6876362.057023719884455 ], [ 365484.260767066967674, 6876212.390021719969809 ], [ 365571.628092866681982, 6876122.786086716689169 ], [ 365716.177183675579727, 6875918.450041217729449 ], [ 365771.579309509601444, 6875806.233646521344781 ], [ 365845.910353624203708, 6875567.23039335757494 ], [ 365863.924133406660985, 6875443.386061538942158 ], [ 365860.761090336367488, 6875193.110904360190034 ], [ 365839.623209792713169, 6875069.761381492950022 ], [ 365759.275700231723022, 6874832.712996454909444 ], [ 365701.055282385903411, 6874721.932593262754381 ], [ 365551.388280382787343, 6874521.314927903935313 ], [ 365461.784345378982835, 6874433.947602104395628 ], [ 365257.44829988561105, 6874289.398511298932135 ], [ 365145.231905189401004, 6874233.996385464444757 ], [ 364906.228652018704452, 6874159.665341347455978 ], [ 364782.384320200479124, 6874141.651561565697193 ], [ 364657.122273171611596, 6874133.384542078711092 ], [ 364379.844727862742729, 6874136.888848410919309 ], [ 364246.760043180256616, 6874107.736965099349618 ], [ 364171.912340208538808, 6874031.188177969306707 ], [ 364077.377131143119186, 6873948.592667889781296 ], [ 363976.963472508999985, 6873873.899884133599699 ], [ 363755.239621434360743, 6873757.769814792089164 ], [ 363636.659217527485453, 6873717.762283065356314 ], [ 363389.901139154157136, 6873675.832461918704212 ], [ 363264.761466107156593, 6873674.426398176699877 ], [ 363017.123560421692673, 6873710.801208265125751 ], [ 362897.674161331844516, 6873748.13424782268703 ], [ 362673.396951926115435, 6873859.253069297410548 ], [ 362571.330366229172796, 6873931.670794129371643 ], [ 362392.367669005470816, 6874106.656542526558042 ], [ 362317.674885249231011, 6874207.070201160386205 ], [ 362201.544815905450378, 6874428.794052239507437 ], [ 362161.537284179124981, 6874547.374456146731973 ], [ 362119.607463034044486, 6874794.132534516043961 ], [ 362118.201399291865528, 6874919.272207562811673 ], [ 362154.576209380524233, 6875166.91011325083673 ], [ 362191.909248938318342, 6875286.359512340277433 ], [ 362303.028070409724023, 6875510.636721739545465 ], [ 362375.445795240870211, 6875612.703307436779141 ], [ 362455.896334576944355, 6875709.070494586601853 ], [ 362589.162977804080583, 6875845.365925160236657 ] ] ] ] } }
]
}
