{
"type": "FeatureCollection",
"name": "Raio 1600m dos Multigares",
"crs": { "type": "name", "properties": { "name": "urn:ogc:def:crs:EPSG::31982" } },
"features": [
{ "type": "Feature", "properties": { "FID": 0 }, "geometry": { "type": "MultiPolygon", "coordinates": [ ] } },
{ "type": "Feature", "properties": { "FID": 1 }, "geometry": { "type": "MultiPolygon", "coordinates": [ ] } },
{ "type": "Feature", "properties": { "FID": 2 }, "geometry": { "type": "MultiPolygon", "coordinates": [ ] } },
{ "type": "Feature", "properties": { "FID": 3 }, "geometry": { "type": "MultiPolygon", "coordinates": [ ] } },
{ "type": "Feature", "properties": { "FID": 0 }, "geometry": { "type": "MultiPolygon", "coordinates": [ [ [ [ 365207.226291392522398, 6870943.05725291185081 ], [ 364853.255504060594831, 6870589.086465580388904 ], [ 364407.226291392522398, 6870361.823230507783592 ], [ 363912.799100392614491, 6870283.513656579889357 ], [ 363418.371909392706584, 6870361.823230507783592 ], [ 362972.342696724634152, 6870589.086465580388904 ], [ 362618.371909392706584, 6870943.05725291185081 ], [ 362391.108674320392311, 6871389.086465580388904 ], [ 362312.799100392614491, 6871883.513656579889357 ], [ 362391.108674320392311, 6872377.940847579389811 ], [ 362618.371909392706584, 6872823.970060247927904 ], [ 362972.342696724634152, 6873177.940847579389811 ], [ 363265.785666990908794, 6873327.457508905790746 ], [ 363080.899392792314757, 6873356.740617968142033 ], [ 362634.870180124242324, 6873584.003853040747344 ], [ 362280.899392792314757, 6873937.974640372209251 ], [ 362053.636157720000483, 6874384.003853040747344 ], [ 361975.326583792222664, 6874878.431044040247798 ], [ 362053.636157720000483, 6875372.858235039748251 ], [ 362280.899392792314757, 6875818.887447708286345 ], [ 362634.870180124242324, 6876172.858235039748251 ], [ 363080.899392792314757, 6876400.121470112353563 ], [ 363575.326583792222664, 6876478.431044040247798 ], [ 364069.753774792130571, 6876400.121470112353563 ], [ 364515.782987460203003, 6876172.858235039748251 ], [ 364869.753774792130571, 6875818.887447708286345 ], [ 365097.017009864444844, 6875372.858235039748251 ], [ 365175.326583792222664, 6874878.431044040247798 ], [ 365097.017009864444844, 6874384.003853040747344 ], [ 364869.753774792130571, 6873937.974640372209251 ], [ 364515.782987460203003, 6873584.003853040747344 ], [ 364222.340017193928361, 6873434.487191714346409 ], [ 364407.226291392522398, 6873405.204082651995122 ], [ 364853.255504060594831, 6873177.940847579389811 ], [ 365207.226291392522398, 6872823.970060247927904 ], [ 365434.489526464836672, 6872377.940847579389811 ], [ 365512.799100392614491, 6871883.513656579889357 ], [ 365434.489526464836672, 6871389.086465580388904 ], [ 365207.226291392522398, 6870943.05725291185081 ] ] ], [ [ [ 359393.788441211683676, 6871957.490767566487193 ], [ 359039.817653879756108, 6871603.519980235025287 ], [ 358593.788441211683676, 6871376.256745162419975 ], [ 358099.361250211775769, 6871297.94717123452574 ], [ 357604.934059211867861, 6871376.256745162419975 ], [ 357158.904846543795429, 6871603.519980235025287 ], [ 356804.934059211867861, 6871957.490767566487193 ], [ 356577.670824139553588, 6872403.519980235025287 ], [ 356499.361250211775769, 6872897.94717123452574 ], [ 356577.670824139553588, 6873392.374362234026194 ], [ 356804.934059211867861, 6873838.403574902564287 ], [ 357158.904846543795429, 6874192.374362234026194 ], [ 357604.934059211867861, 6874419.637597306631505 ], [ 358099.361250211775769, 6874497.94717123452574 ], [ 358593.788441211683676, 6874419.637597306631505 ], [ 359039.817653879756108, 6874192.374362234026194 ], [ 359393.788441211683676, 6873838.403574902564287 ], [ 359621.051676283997949, 6873392.374362234026194 ], [ 359699.361250211775769, 6872897.94717123452574 ], [ 359621.051676283997949, 6872403.519980235025287 ], [ 359393.788441211683676, 6871957.490767566487193 ] ] ], [ [ [ 359933.865425663185306, 6876204.322329510934651 ], [ 359579.894638331257738, 6875850.351542179472744 ], [ 359133.865425663185306, 6875623.088307106867433 ], [ 358639.438234663277399, 6875544.778733178973198 ], [ 358145.011043663369492, 6875623.088307106867433 ], [ 357698.981830995297059, 6875850.351542179472744 ], [ 357345.011043663369492, 6876204.322329510934651 ], [ 357117.747808591055218, 6876650.351542179472744 ], [ 357039.438234663277399, 6877144.778733178973198 ], [ 357117.747808591055218, 6877639.205924178473651 ], [ 357345.011043663369492, 6878085.235136847011745 ], [ 357698.981830995297059, 6878439.205924178473651 ], [ 358145.011043663369492, 6878666.469159251078963 ], [ 358639.438234663277399, 6878744.778733178973198 ], [ 359133.865425663185306, 6878666.469159251078963 ], [ 359579.894638331257738, 6878439.205924178473651 ], [ 359933.865425663185306, 6878085.235136847011745 ], [ 360161.128660735499579, 6877639.205924178473651 ], [ 360239.438234663277399, 6877144.778733178973198 ], [ 360161.128660735499579, 6876650.351542179472744 ], [ 359933.865425663185306, 6876204.322329510934651 ] ] ] ] } }
]
}
