{
"type": "FeatureCollection",
"name": "Raio 400m parque A",
"crs": { "type": "name", "properties": { "name": "urn:ogc:def:crs:EPSG::31982" } },
"features": [
{ "type": "Feature", "properties": { "FID": 0 }, "geometry": { "type": "MultiPolygon", "coordinates": [ ] } },
{ "type": "Feature", "properties": { "FID": null }, "geometry": { "type": "MultiPolygon", "coordinates": [ ] } },
{ "type": "Feature", "properties": { "FID": 1 }, "geometry": { "type": "MultiPolygon", "coordinates": [ [ [ [ 359315.217966358817648, 6871512.96549114678055 ], [ 359147.475429293699563, 6871367.721775569953024 ], [ 358916.88748324936023, 6871270.372619018889964 ], [ 358667.502770822378807, 6871249.043663350865245 ], [ 358423.732805230480153, 6871305.822735353372991 ], [ 358209.439489151060116, 6871435.151903857477009 ], [ 358045.59934543131385, 6871624.371528759598732 ], [ 357948.250188879959751, 6871854.959474803879857 ], [ 357926.921233211643994, 6872104.344187230803072 ], [ 357983.700305214792024, 6872348.114152822643518 ], [ 358113.029473718605004, 6872562.407468901947141 ], [ 358340.517650682770181, 6872832.447391198016703 ], [ 358514.164116613275837, 6872986.347218124195933 ], [ 358724.671810182917397, 6873083.942109415307641 ], [ 358829.414567921834532, 6873115.037615618668497 ], [ 358993.12753190274816, 6873145.558768182992935 ], [ 359299.172777171130292, 6873170.107852027751505 ], [ 359504.17176715383539, 6873160.139587940648198 ], [ 359699.888130630599335, 6873098.341066516004503 ], [ 359990.664365827862639, 6872963.405689397826791 ], [ 360110.408303655509371, 6873024.451618487015367 ], [ 361878.729080009972677, 6873971.318417172878981 ], [ 362566.709401932079345, 6874540.681442213244736 ], [ 364578.519614005228505, 6876314.658220307901502 ], [ 364789.838509852823336, 6876448.792419526726007 ], [ 365032.264469850342721, 6876511.060493702068925 ], [ 365282.067151952243876, 6876495.367209886200726 ], [ 365514.794129156740382, 6876403.248736041598022 ], [ 365707.664463430817705, 6876243.722270214930177 ], [ 365841.798662649234757, 6876032.403374367393553 ], [ 365904.066736824403051, 6875789.97741436958313 ], [ 365888.373453009000514, 6875540.174732267856598 ], [ 365796.254979164339602, 6875307.44775506388396 ], [ 365636.728513337555341, 6875114.57742078974843 ], [ 363615.520610094768927, 6873332.313933639787138 ], [ 363596.470331656804774, 6873316.038876499980688 ], [ 362837.085338049742859, 6872687.582330064848065 ], [ 362704.669487436942291, 6872598.639466344378889 ], [ 360858.578382288862485, 6871610.129690183326602 ], [ 360844.290019626903813, 6871602.663093281909823 ], [ 360510.42247933417093, 6871432.456111955456436 ], [ 360301.004089955764357, 6871360.130029734224081 ], [ 360217.537204882595688, 6871343.763973837718368 ], [ 360017.779367901792284, 6871330.128581355325878 ], [ 359818.113485961977858, 6871341.584820482879877 ], [ 359527.190067665826064, 6871414.59935263171792 ], [ 359315.217966358817648, 6871512.96549114678055 ] ] ] ] } }
]
}
