{
"type": "FeatureCollection",
"name": "RPPN",
"crs": { "type": "name", "properties": { "name": "urn:ogc:def:crs:EPSG::31982" } },
"features": [
{ "type": "Feature", "properties": { "NOME": "RPPN", "ÁREA m²": 1492171.8140574601 }, "geometry": { "type": "MultiPolygon", "coordinates": [ [ [ [ 356728.459748681401834, 6874781.349777792580426 ], [ 356753.381989874178544, 6874874.173822414129972 ], [ 356741.865579221048392, 6874903.642535648308694 ], [ 356641.348431140009779, 6875063.422408398240805 ], [ 356636.511874851305038, 6875155.889639150351286 ], [ 356633.847904492344242, 6875222.47636604309082 ], [ 356598.983983255748171, 6875336.788881212472916 ], [ 356614.696120018779766, 6875422.104056168347597 ], [ 356642.305347005778458, 6875446.494621824473143 ], [ 356699.138573393982369, 6875515.651466462761164 ], [ 356758.211778887198307, 6875553.3755151219666 ], [ 356846.376301568525378, 6875646.967647645622492 ], [ 356827.508655569865368, 6875668.947393326088786 ], [ 356866.078299212036654, 6875710.125378977507353 ], [ 356859.762502415222116, 6875771.119313036091626 ], [ 356837.964346271357499, 6875881.893872637301683 ], [ 356780.19157162331976, 6875890.450678209774196 ], [ 356797.757220320636407, 6875822.189281281083822 ], [ 356775.659935046220198, 6875803.416699880734086 ], [ 356738.563060246407986, 6875640.116108337417245 ], [ 356536.470787932921667, 6875584.009987136349082 ], [ 356481.077830864873249, 6875703.629596357233822 ], [ 356409.92759831197327, 6875741.632562474347651 ], [ 356414.791985593736172, 6875800.911085894331336 ], [ 356341.384093548054807, 6876179.407019754871726 ], [ 356746.883435729483608, 6876184.303064500913024 ], [ 356700.596760382177308, 6876011.633163603022695 ], [ 356701.177051785343792, 6875963.523345896042883 ], [ 356775.579184919828549, 6875964.420543450862169 ], [ 356859.459923262009397, 6875950.626357240602374 ], [ 356940.299467239005025, 6876034.879123146645725 ], [ 356968.15585894807009, 6876038.915825144387782 ], [ 357021.897281985147856, 6876056.218576360493898 ], [ 357045.321144104003906, 6876119.422844149172306 ], [ 357035.241466944513377, 6876184.074961414560676 ], [ 356971.864891104400158, 6876194.416245926171541 ], [ 356895.467557619907893, 6876204.600388213992119 ], [ 356843.563397443620488, 6876189.169697638601065 ], [ 356741.236238468438387, 6876189.78700596280396 ], [ 356337.641539958945941, 6876181.212447484955192 ], [ 356288.965853749541566, 6876206.533344965428114 ], [ 356201.362251573591493, 6876220.278908378444612 ], [ 356093.633494872774463, 6876206.019788819365203 ], [ 355997.355740268074442, 6876321.447170356288552 ], [ 356015.575685332762077, 6876353.130004073493183 ], [ 356093.588621698087081, 6876363.328644143417478 ], [ 356206.070633623516187, 6876446.121917026117444 ], [ 356125.211130264098756, 6876517.321553716436028 ], [ 356199.012262793723494, 6876568.184808822348714 ], [ 356265.303876644000411, 6876470.897981610149145 ], [ 356337.04377108468907, 6876538.391837111674249 ], [ 356520.505537077144254, 6876597.981341479346156 ], [ 356565.551281344261952, 6876565.211833033710718 ], [ 356703.202254416537471, 6876566.872560336254537 ], [ 356682.770757514459547, 6876718.387481465935707 ], [ 356989.943949236650951, 6876701.729711573570967 ], [ 357205.375176868168637, 6876578.46983387041837 ], [ 357192.709968016250059, 6876548.705946514382958 ], [ 357213.505060754425358, 6876521.194953623227775 ], [ 357245.149626912083477, 6876519.724437310360372 ], [ 357247.565525272977538, 6876473.485471450723708 ], [ 357236.404746528831311, 6876473.351385025307536 ], [ 357221.768289057537913, 6876452.817664408124983 ], [ 357310.416407329204958, 6876352.093769621104002 ], [ 357339.889352419122588, 6876376.506747398525476 ], [ 357351.094466285780072, 6876372.939874305389822 ], [ 357338.451365008950233, 6876341.326231104321778 ], [ 357357.496738487214316, 6876304.541050747036934 ], [ 357401.983745300385635, 6876318.029865860939026 ], [ 357457.409494911669753, 6876350.156690272502601 ], [ 357472.4679384654155, 6876335.531780617311597 ], [ 357434.005167228693608, 6876285.101744040846825 ], [ 357378.601999403734226, 6876251.124550834298134 ], [ 357388.302253951434977, 6876217.928784545511007 ], [ 357364.387668026611209, 6876195.433630971238017 ], [ 357384.299003042164259, 6876086.483508048579097 ], [ 357347.297594531322829, 6876069.38340437412262 ], [ 357349.579792134696618, 6876034.24845570884645 ], [ 357327.903480945038609, 6875980.319509852677584 ], [ 357685.587451340048574, 6875938.343762161210179 ], [ 357561.711741474689916, 6875253.996052879840136 ], [ 357118.801707790815271, 6875269.031940286979079 ], [ 357068.694602517527528, 6875259.176392892375588 ], [ 356911.870206943887752, 6875151.808234320953488 ], [ 356901.981386308965739, 6875046.210140513256192 ], [ 356891.379324903653469, 6874999.819982014596462 ], [ 356842.009526502224617, 6874928.906425470486283 ], [ 356785.446255666553043, 6874837.551119145005941 ], [ 356728.459748681401834, 6874781.349777792580426 ] ] ] ] } }
]
}
