{
"type": "FeatureCollection",
"name": "ZPNM",
"crs": { "type": "name", "properties": { "name": "urn:ogc:def:crs:EPSG::31982" } },
"features": [
{ "type": "Feature", "properties": { "FID": 0 }, "geometry": { "type": "MultiPolygon", "coordinates": [ [ [ [ 363148.764367208234034, 6871269.41075421590358 ], [ 363237.817309265257791, 6871112.748113177716732 ], [ 363246.563895257364493, 6870939.615086419507861 ], [ 363196.658979213505518, 6870910.254066910594702 ], [ 363206.287277503230143, 6870838.747199575416744 ], [ 363222.08756187610561, 6870804.607299412600696 ], [ 363370.850060726865195, 6870834.938202451914549 ], [ 363406.048015646927524, 6870787.890034251846373 ], [ 363395.150051648728549, 6870600.014777879230678 ], [ 363372.860364765510894, 6870489.412787267938256 ], [ 363349.442086141323671, 6870462.326585485599935 ], [ 363301.759085087280255, 6870476.575056214816868 ], [ 363178.883659294166137, 6870583.22697573248297 ], [ 363159.697599698440172, 6870530.183163909241557 ], [ 363144.743759131175466, 6870517.486506823450327 ], [ 363097.625053947616834, 6870523.693761398084462 ], [ 363065.178041396022309, 6870504.225553867407143 ], [ 363016.366448601067532, 6870504.789849737659097 ], [ 362987.587359207449481, 6870527.925980426371098 ], [ 362931.157772161241155, 6870578.14831289742142 ], [ 362888.271286006085575, 6870598.46296423394233 ], [ 362862.031528029649053, 6870787.502080840989947 ], [ 363015.237856860097963, 6870794.273631285876036 ], [ 362967.554855806054547, 6871249.09610287938267 ], [ 363148.764367208234034, 6871269.41075421590358 ] ] ] ] } },
{ "type": "Feature", "properties": { "FID": 1 }, "geometry": { "type": "MultiPolygon", "coordinates": [ [ [ [ 364342.109059267735574, 6871107.246228438802063 ], [ 364294.143910278449766, 6870888.299430699087679 ], [ 364262.543341532582417, 6870862.341820658184588 ], [ 364214.578192543296609, 6870845.412944544106722 ], [ 364103.976201932702679, 6870875.320625678636134 ], [ 364061.654011648031883, 6870927.800141631625593 ], [ 364057.139644684328232, 6870966.172260822728276 ], [ 364096.640355616691522, 6871006.237267626449466 ], [ 364181.284736186033115, 6871082.981506008654833 ], [ 364218.528263636515476, 6871076.209955562837422 ], [ 364251.257424123294186, 6871111.760595402680337 ], [ 364342.109059267735574, 6871107.246228438802063 ] ] ] ] } },
{ "type": "Feature", "properties": { "FID": 2 }, "geometry": { "type": "MultiPolygon", "coordinates": [ [ [ [ 365970.94908935658168, 6870198.165581121109426 ], [ 366050.514807091793045, 6870146.250361039303243 ], [ 366114.280240454012528, 6870115.214088163338602 ], [ 366214.160609525803011, 6870089.820773992687464 ], [ 366198.924621023295913, 6870042.419920873828232 ], [ 366231.653781510074623, 6870033.391186947003007 ], [ 366229.396598028251901, 6869989.940404920838773 ], [ 366231.653781510074623, 6869956.646948563866317 ], [ 366152.088063774921466, 6869932.94652200397104 ], [ 366149.830880293098744, 6869954.38976508192718 ], [ 366094.529884987801779, 6869943.668143543414772 ], [ 365910.005135346727911, 6870122.549934479407966 ], [ 365970.94908935658168, 6870198.165581121109426 ] ] ] ] } },
{ "type": "Feature", "properties": { "FID": 3 }, "geometry": { "type": "MultiPolygon", "coordinates": [ [ [ [ 365741.844965948839672, 6875406.616465484723449 ], [ 365741.844965948839672, 6875421.288158116862178 ], [ 365929.191194942279253, 6875407.745057226158679 ], [ 366291.469143778900616, 6874737.361563116312027 ], [ 366244.914734465884976, 6874710.275361334905028 ], [ 366235.886000538477674, 6874716.482615909539163 ], [ 366211.903426043805666, 6874717.046911779791117 ], [ 366190.178035031014588, 6874727.48638538364321 ], [ 366177.481377945630811, 6874719.86839113291353 ], [ 366166.759756406885572, 6874726.357793643139303 ], [ 366156.320282803324517, 6874722.68987048510462 ], [ 366166.759756406885572, 6874684.882047164253891 ], [ 366154.909543127170764, 6874663.156656151637435 ], [ 366154.909543127170764, 6874655.256513965316117 ], [ 366108.919429684523493, 6874595.159003760665655 ], [ 366095.658476728654932, 6874580.205163193866611 ], [ 366094.247737052501179, 6874584.719530157744884 ], [ 366066.315091464610305, 6874611.24143606889993 ], [ 365961.356059558573179, 6874650.177851130254567 ], [ 365913.955206439713947, 6874767.551392186433077 ], [ 365806.738991051912308, 6874773.194350890815258 ], [ 365810.12476627464639, 6875154.658359321765602 ], [ 365699.52277566405246, 6875170.458643694408238 ], [ 365741.844965948839672, 6875406.616465484723449 ] ] ] ] } },
{ "type": "Feature", "properties": { "FID": 4 }, "geometry": { "type": "MultiPolygon", "coordinates": [ [ [ [ 360540.165632028947584, 6871599.594375411979854 ], [ 360643.996072193956934, 6871489.556680671870708 ], [ 360669.389386364782695, 6871479.399355003610253 ], [ 360858.428502969560213, 6871377.826098321005702 ], [ 360789.584406773210503, 6871245.780864633619785 ], [ 360509.693655023991596, 6871406.040891845710576 ], [ 360528.315418749232776, 6871544.857675978913903 ], [ 360513.079430246725678, 6871579.844019947573543 ], [ 360540.165632028947584, 6871599.594375411979854 ] ] ] ] } },
{ "type": "Feature", "properties": { "FID": 5 }, "geometry": { "type": "MultiPolygon", "coordinates": [ [ [ [ 357175.833652333705686, 6871454.570336706005037 ], [ 357268.37817508954322, 6871456.827520187012851 ], [ 357503.125257201783825, 6871496.328231119550765 ], [ 357726.586421904736198, 6871560.657960352487862 ], [ 357857.503063851967454, 6871476.013579783029854 ], [ 357761.572765873395838, 6871350.739896540530026 ], [ 357739.000931054935791, 6871277.381433380767703 ], [ 357663.3852844130015, 6871253.681006820872426 ], [ 357553.911885543318931, 6871236.75213070679456 ], [ 357439.924119709990919, 6871248.038048116490245 ], [ 357377.851573959167581, 6871257.066782044246793 ], [ 357360.922697845322546, 6871189.351277587935328 ], [ 357332.707904322189279, 6871180.322543661110103 ], [ 357316.907619949255604, 6871229.980580261908472 ], [ 357328.193537358485628, 6871298.824676457792521 ], [ 357294.335785130795557, 6871343.968346094712615 ], [ 357271.763950312277302, 6871354.12567176297307 ], [ 357258.220849421224557, 6871318.010736053809524 ], [ 357230.00605589809129, 6871306.724818644113839 ], [ 357191.633936706697568, 6871371.054547877050936 ], [ 357172.447877110971604, 6871448.927378000691533 ], [ 357175.833652333705686, 6871454.570336706005037 ] ] ] ] } },
{ "type": "Feature", "properties": { "FID": 6 }, "geometry": { "type": "MultiPolygon", "coordinates": [ [ [ [ 357527.954275502124801, 6872553.818692367523909 ], [ 357546.011743356939405, 6872557.204467589966953 ], [ 357577.612312102806754, 6872544.789958439767361 ], [ 357620.498798257904127, 6872518.832348398864269 ], [ 357672.41401834046701, 6872525.60389884468168 ], [ 357696.114444899838418, 6872541.404183217324317 ], [ 357757.058398909750395, 6872522.218123621307313 ], [ 357802.202068546728697, 6872486.103187912143767 ], [ 357831.545453810773324, 6872447.731068721041083 ], [ 357818.002352919662371, 6872418.387683456763625 ], [ 357801.073476805817336, 6872346.157812037505209 ], [ 357930.861527012079023, 6872199.440885717049241 ], [ 358149.808324751385953, 6872044.823817210271955 ], [ 358139.65099908306729, 6871852.963221253827214 ], [ 358102.407471632584929, 6871804.433776393532753 ], [ 357964.719279239827301, 6871898.106890890747309 ], [ 357808.973618992255069, 6871996.294372350908816 ], [ 357750.286848464224022, 6872025.637757615186274 ], [ 357707.400362309068441, 6872032.409308061003685 ], [ 357672.41401834046701, 6872061.752693324349821 ], [ 357639.684857853630092, 6872075.295794215984643 ], [ 357588.898229512036778, 6872075.295794215984643 ], [ 357487.32497282885015, 6872143.011298671364784 ], [ 357433.152569264522754, 6872174.611867416650057 ], [ 357421.86665185529273, 6872214.11257834918797 ], [ 357441.052711450960487, 6872254.741881022229791 ], [ 357407.194959223270416, 6872279.570899322628975 ], [ 357337.222271285951138, 6872320.200201996602118 ], [ 357527.954275502124801, 6872553.818692367523909 ] ] ] ] } },
{ "type": "Feature", "properties": { "FID": 7 }, "geometry": { "type": "MultiPolygon", "coordinates": [ [ [ [ 359128.297364132769872, 6874332.47927606292069 ], [ 359212.941744702111464, 6874396.809005294926465 ], [ 359322.415143571735825, 6874273.792505534365773 ], [ 359270.499923489231151, 6874238.806161565706134 ], [ 359241.156538225186523, 6874271.535322052426636 ], [ 359199.398643811000511, 6874247.834895493462682 ], [ 359128.297364132769872, 6874332.47927606292069 ] ] ] ] } },
{ "type": "Feature", "properties": { "FID": 8 }, "geometry": { "type": "MultiPolygon", "coordinates": [ [ [ [ 356345.190131013921928, 6876252.21382737532258 ], [ 356376.790699759789277, 6876290.585946567356586 ], [ 356521.250442598073278, 6876324.443698795512319 ], [ 356611.537781872029882, 6876270.271295230835676 ], [ 356667.967368918238208, 6876207.070157739333808 ], [ 356728.911322928150184, 6876085.182249719277024 ], [ 356837.256130056863185, 6876046.810130528174341 ], [ 356846.284863984270487, 6876078.410699273459613 ], [ 356853.05641442979686, 6876161.926488102413714 ], [ 356877.885432730137836, 6876231.899176039732993 ], [ 356866.599515320907813, 6876319.929331831634045 ], [ 356814.68429523834493, 6876385.387652805075049 ], [ 356744.711607301083859, 6876376.358918877318501 ], [ 356717.625405518861953, 6876480.189359042793512 ], [ 356891.428533621190581, 6876505.018377343192697 ], [ 357105.860964396793861, 6876475.674992078915238 ], [ 357275.149725535477046, 6876398.930753695778549 ], [ 357299.978743835759815, 6876249.956643894314766 ], [ 357354.151147400145419, 6876198.04142381157726 ], [ 357354.151147400145419, 6876091.953800165094435 ], [ 357392.523266591597348, 6876060.35323141887784 ], [ 357354.151147400203627, 6875884.292919835075736 ], [ 357279.664092499180697, 6875877.521369389258325 ], [ 357227.748872416676022, 6875800.777131006121635 ], [ 357175.833652334171347, 6875773.690929223783314 ], [ 357205.177037598215975, 6875676.632039505057037 ], [ 357315.779028208751697, 6875672.117672541178763 ], [ 357354.151147400203627, 6875839.149250198155642 ], [ 357453.467220601509325, 6875843.663617161102593 ], [ 357489.582156311080325, 6875922.66503902617842 ], [ 357647.585000040475279, 6875942.97969036269933 ], [ 357573.097945139510557, 6875626.974002904258668 ], [ 357419.609468373819254, 6875640.517103794962168 ], [ 357331.579312581685372, 6875608.916535049676895 ], [ 357369.951431773137301, 6875525.400746220722795 ], [ 357433.152569264872, 6875523.143562738783658 ], [ 357525.697092020651326, 6875536.686663630418479 ], [ 357530.211458984354977, 6875423.827489538118243 ], [ 357503.125257202191278, 6875401.255654719658196 ], [ 357487.324972829257604, 6875444.142140874639153 ], [ 357451.210037119686604, 6875450.913691319525242 ], [ 357448.952853637805674, 6875392.226920791901648 ], [ 357408.323550964531023, 6875351.597618118859828 ], [ 357354.151147400203627, 6875367.397902491502464 ], [ 357318.036211690516211, 6875252.281544917263091 ], [ 357426.381018819287419, 6875227.452526616863906 ], [ 357439.924119710340165, 6875132.650820379145443 ], [ 357096.832230469386559, 6875202.623508316464722 ], [ 357042.659826905059163, 6875198.109141352586448 ], [ 357117.146881806023885, 6875089.764334224164486 ], [ 357101.34659743309021, 6874992.705444504506886 ], [ 357083.289129578275606, 6874848.245701665990055 ], [ 357051.688560832408257, 6874769.244279801845551 ], [ 356972.687138967739884, 6874660.899472672492266 ], [ 357006.544891195429955, 6874629.298903927206993 ], [ 357101.34659743309021, 6874548.040298580192029 ], [ 357074.260395650926512, 6874482.581977606751025 ], [ 356986.230239858792629, 6874482.581977606751025 ], [ 356893.685717103013303, 6874516.439729834906757 ], [ 356816.941478720167652, 6874552.554665544070303 ], [ 356647.652717581542674, 6874534.49719768948853 ], [ 356575.422846162400674, 6874629.298903927206993 ], [ 356613.794965353852604, 6874645.099188299849629 ], [ 356688.282020254817326, 6874645.099188299849629 ], [ 356859.827964875323232, 6874629.298903927206993 ], [ 356925.28628584893886, 6874674.442573564127088 ], [ 356968.172772004036233, 6874816.645132920704782 ], [ 356979.458689413266256, 6874949.818958349525928 ], [ 356977.201505931443535, 6875040.106297623366117 ], [ 356956.886854594806209, 6875141.679554306901991 ], [ 356907.228817994124256, 6875092.021517706103623 ], [ 356751.483157746610232, 6874981.419527095742524 ], [ 356692.796387218520977, 6875040.106297623366117 ], [ 356656.681451508949976, 6875040.106297623366117 ], [ 356550.593827862059698, 6875121.364902970381081 ], [ 356478.363956442975905, 6875437.37059042789042 ], [ 356620.566515799437184, 6875489.285810509696603 ], [ 356616.052148835733533, 6875566.030048892833292 ], [ 356559.622561789525207, 6875636.002736830152571 ], [ 356487.392690370383207, 6875784.976846632547677 ], [ 356439.991837251582183, 6876028.752662671729922 ], [ 356489.649873852205928, 6876053.581680972129107 ], [ 356345.190131013921928, 6876252.21382737532258 ] ] ] ] } }
]
}
