{
"type": "FeatureCollection",
"name": "Áreas Públicas",
"crs": { "type": "name", "properties": { "name": "urn:ogc:def:crs:EPSG::31982" } },
"features": [
{ "type": "Feature", "properties": { "NOME": null, "ÁREA m²": null }, "geometry": { "type": "MultiPolygon", "coordinates": [ ] } },
{ "type": "Feature", "properties": { "NOME": "Tamandaré", "ÁREA m²": 11164.436619997025 }, "geometry": { "type": "MultiPolygon", "coordinates": [ [ [ [ 361277.19314453122206, 6873026.012533485889435 ], [ 361366.85251183679793, 6873072.388896665535867 ], [ 361419.092437401588541, 6872978.641765039414167 ], [ 361323.887395093915984, 6872929.426125396043062 ], [ 361277.19314453122206, 6873026.012533485889435 ] ] ] ] } },
{ "type": "Feature", "properties": { "NOME": "Fredolino", "ÁREA m²": 12923.661207966506 }, "geometry": { "type": "MultiPolygon", "coordinates": [ [ [ [ 361136.044335680431686, 6873505.871700350195169 ], [ 361245.790040950581897, 6873544.62215768173337 ], [ 361259.110299472231418, 6873518.874752203002572 ], [ 361244.352118701674044, 6873508.526023920625448 ], [ 361286.620946218026802, 6873432.698813572525978 ], [ 361204.873270530137233, 6873385.488031025975943 ], [ 361136.044335680431686, 6873505.871700350195169 ] ] ] ] } },
{ "type": "Feature", "properties": { "NOME": "Banhado V", "ÁREA m²": null }, "geometry": { "type": "MultiPolygon", "coordinates": [ ] } },
{ "type": "Feature", "properties": { "NOME": "Tochetto", "ÁREA m²": 5327.8122960776091 }, "geometry": { "type": "MultiPolygon", "coordinates": [ [ [ [ 362203.925441035302356, 6873319.421359017491341 ], [ 362281.567268591315951, 6873360.101489417254925 ], [ 362313.781549024279229, 6873308.670167641714215 ], [ 362232.420776481274515, 6873267.947237781248987 ], [ 362203.925441035302356, 6873319.421359017491341 ] ] ] ] } },
{ "type": "Feature", "properties": { "NOME": "Antonino X", "ÁREA m²": 15562.642008423805 }, "geometry": { "type": "MultiPolygon", "coordinates": [ [ [ [ 362480.109403123147786, 6873801.367880254052579 ], [ 362566.292739801399875, 6873707.078451260924339 ], [ 362468.630904178950004, 6873628.237586168572307 ], [ 362387.171525411074981, 6873716.104627128690481 ], [ 362480.109403123147786, 6873801.367880254052579 ] ] ] ] } },
{ "type": "Feature", "properties": { "NOME": "Gare", "ÁREA m²": null }, "geometry": { "type": "MultiPolygon", "coordinates": [ ] } },
{ "type": "Feature", "properties": { "NOME": "Jovino", "ÁREA m²": 7747.4537361711264 }, "geometry": { "type": "MultiPolygon", "coordinates": [ [ [ [ 362851.239502218668349, 6872788.992949705570936 ], [ 362928.548330598219763, 6872777.860661566257477 ], [ 362915.253750133037101, 6872681.040275522507727 ], [ 362835.615807790658437, 6872692.607943406328559 ], [ 362851.239502218668349, 6872788.992949705570936 ] ] ] ] } },
{ "type": "Feature", "properties": { "NOME": null, "ÁREA m²": 1468.1189423222095 }, "geometry": { "type": "MultiPolygon", "coordinates": [ [ [ [ 363004.325185892987065, 6873866.174881530925632 ], [ 363062.085900452104397, 6873917.723489427939057 ], [ 363065.713820995239075, 6873885.38576253131032 ], [ 363015.841175451874733, 6873855.437525388784707 ], [ 363004.325185892987065, 6873866.174881530925632 ] ] ] ] } },
{ "type": "Feature", "properties": { "NOME": "Marechal", "ÁREA m²": 8400.8162413537502 }, "geometry": { "type": "MultiPolygon", "coordinates": [ [ [ [ 361975.825292809517123, 6872922.688492907211185 ], [ 362050.647546943335328, 6872965.648866180330515 ], [ 362099.525191878725309, 6872880.648898705840111 ], [ 362020.95738223392982, 6872839.958197152242064 ], [ 361975.825292809517123, 6872922.688492907211185 ] ] ] ] } },
{ "type": "Feature", "properties": { "NOME": null, "ÁREA m²": null }, "geometry": { "type": "MultiPolygon", "coordinates": [ ] } },
{ "type": "Feature", "properties": { "NOME": "Noelly", "ÁREA m²": 10259.232583999634 }, "geometry": { "type": "MultiPolygon", "coordinates": [ [ [ [ 360749.2261871471419, 6875187.47367906011641 ], [ 360833.283930481702555, 6875197.24872543849051 ], [ 360875.074254384555388, 6875123.256628409028053 ], [ 360768.305198837479111, 6875067.416605546139181 ], [ 360749.2261871471419, 6875187.47367906011641 ] ] ] ] } },
{ "type": "Feature", "properties": { "NOME": null, "ÁREA m²": 2154.5669082961977 }, "geometry": { "type": "MultiPolygon", "coordinates": [ [ [ [ 363581.147776221856475, 6872287.718984451144934 ], [ 363707.844235971919261, 6872266.975118120200932 ], [ 363680.202541028498672, 6872244.920007674023509 ], [ 363586.864327560877427, 6872275.759673196822405 ], [ 363581.147776221856475, 6872287.718984451144934 ] ] ] ] } },
{ "type": "Feature", "properties": { "NOME": null, "ÁREA m²": 2239.8376274853945 }, "geometry": { "type": "MultiPolygon", "coordinates": [ [ [ [ 363699.848713719635271, 6872234.508245181292295 ], [ 363728.404195771669038, 6872257.961287563666701 ], [ 363751.357448622817174, 6872242.962417905218899 ], [ 363787.175015499640722, 6872200.823820961639285 ], [ 363777.038484789896756, 6872192.844964656047523 ], [ 363699.848713719635271, 6872234.508245181292295 ] ] ] ] } },
{ "type": "Feature", "properties": { "NOME": null, "ÁREA m²": null }, "geometry": { "type": "MultiPolygon", "coordinates": [ ] } },
{ "type": "Feature", "properties": { "NOME": null, "ÁREA m²": 4686.7203879766166 }, "geometry": { "type": "MultiPolygon", "coordinates": [ [ [ [ 357866.515365557279438, 6873547.886464919894934 ], [ 357926.184971731156111, 6873651.753203279338777 ], [ 357963.151694809319451, 6873632.30517877265811 ], [ 357920.33499438886065, 6873557.782116152346134 ], [ 357906.298891543177888, 6873565.015136349014938 ], [ 357894.415913704782724, 6873547.757969440892339 ], [ 357909.891047253971919, 6873536.841686968691647 ], [ 357902.574197767302394, 6873526.577684383839369 ], [ 357866.515365557279438, 6873547.886464919894934 ] ] ] ] } },
{ "type": "Feature", "properties": { "NOME": null, "ÁREA m²": 10268.75427431101 }, "geometry": { "type": "MultiPolygon", "coordinates": [ [ [ [ 357973.042786616133526, 6873854.920686919242144 ], [ 358035.199114341521636, 6873828.834797075018287 ], [ 357968.110857560590375, 6873645.316424733027816 ], [ 357945.169234731001779, 6873658.45637745782733 ], [ 357948.484556103125215, 6873692.263625279068947 ], [ 357936.756325148395263, 6873700.912101574242115 ], [ 357972.129530243109912, 6873853.522031415253878 ], [ 357973.042786616133526, 6873854.920686919242144 ] ] ] ] } },
{ "type": "Feature", "properties": { "NOME": null, "ÁREA m²": 3589.5545377284288 }, "geometry": { "type": "MultiPolygon", "coordinates": [ [ [ [ 357866.983646791079082, 6873858.277046493254602 ], [ 357899.633735268027522, 6873888.735451662912965 ], [ 357959.465772602590732, 6873862.622039116919041 ], [ 357949.359073477273341, 6873813.468074979260564 ], [ 357866.983646791079082, 6873858.277046493254602 ] ] ] ] } },
{ "type": "Feature", "properties": { "NOME": "MultigareZ", "ÁREA m²": null }, "geometry": { "type": "MultiPolygon", "coordinates": [ ] } },
{ "type": "Feature", "properties": { "NOME": "Antonio Q", "ÁREA m²": 1512.8885266929863 }, "geometry": { "type": "MultiPolygon", "coordinates": [ [ [ [ 360168.841181566531304, 6874240.875164893455803 ], [ 360224.285514344694093, 6874271.133555555716157 ], [ 360248.487516235560179, 6874229.785736627876759 ], [ 360168.841181566531304, 6874240.875164893455803 ] ] ] ] } },
{ "type": "Feature", "properties": { "NOME": "Adolpho", "ÁREA m²": 1204.0973909078168 }, "geometry": { "type": "MultiPolygon", "coordinates": [ [ [ [ 360535.285757760400884, 6874080.737602081149817 ], [ 360535.518602662603371, 6874120.290868921205401 ], [ 360596.167592092417181, 6874083.534265303984284 ], [ 360535.285757760400884, 6874080.737602081149817 ] ] ] ] } },
{ "type": "Feature", "properties": { "NOME": "UPF", "ÁREA m²": null }, "geometry": { "type": "MultiPolygon", "coordinates": [ ] } },
{ "type": "Feature", "properties": { "NOME": "SAOJOSE", "ÁREA m²": 14230.757997661829 }, "geometry": { "type": "MultiPolygon", "coordinates": [ [ [ [ 365836.758648960967548, 6876891.188742941245437 ], [ 365886.162003874022048, 6876882.030222048982978 ], [ 365837.551481420639902, 6876614.984642039984465 ], [ 365783.869904983555898, 6876632.422317979857326 ], [ 365836.758648960967548, 6876891.188742941245437 ] ] ] ] } },
{ "type": "Feature", "properties": { "NOME": "Narciso", "ÁREA m²": 6353.3785455916077 }, "geometry": { "type": "MultiPolygon", "coordinates": [ [ [ [ 365308.381466908496805, 6873695.261456066742539 ], [ 365221.850444821408018, 6873740.30327008664608 ], [ 365217.490304756734986, 6873755.749328585341573 ], [ 365355.886569197580684, 6873790.855202332139015 ], [ 365308.381466908496805, 6873695.261456066742539 ] ] ] ] } },
{ "type": "Feature", "properties": { "NOME": "CAMPO", "ÁREA m²": 6119.5651257187119 }, "geometry": { "type": "MultiPolygon", "coordinates": [ [ [ [ 365368.78514987998642, 6873494.044540777802467 ], [ 365341.131349935545586, 6873595.490966275334358 ], [ 365395.827767081733327, 6873610.450365453958511 ], [ 365426.043333715409972, 6873508.570214723236859 ], [ 365368.78514987998642, 6873494.044540777802467 ] ] ] ] } },
{ "type": "Feature", "properties": { "NOME": null, "ÁREA m²": 38412.143884863704 }, "geometry": { "type": "MultiPolygon", "coordinates": [ [ [ [ 365478.180247786163818, 6872805.883104187436402 ], [ 365581.932717482559383, 6872758.49467945843935 ], [ 365625.81483618740458, 6872737.27477234788239 ], [ 365595.150931885815226, 6872658.741547764278948 ], [ 365572.948645867174491, 6872607.61388435959816 ], [ 365481.246079275966622, 6872515.15266899112612 ], [ 365397.165994577109814, 6872580.893137900158763 ], [ 365403.655397087393794, 6872601.772085106931627 ], [ 365394.908811095287092, 6872608.825783488340676 ], [ 365478.180247786163818, 6872805.883104187436402 ] ] ] ] } },
{ "type": "Feature", "properties": { "NOME": null, "ÁREA m²": 7589.4171195030212 }, "geometry": { "type": "MultiPolygon", "coordinates": [ [ [ [ 365180.085006904439069, 6872811.86547195725143 ], [ 365339.144633907708339, 6872737.879561804234982 ], [ 365311.324318918574136, 6872679.013388059101999 ], [ 365166.779638866137248, 6872796.745735549367964 ], [ 365180.085006904439069, 6872811.86547195725143 ] ] ] ] } },
{ "type": "Feature", "properties": { "NOME": null, "ÁREA m²": 35312.990209726384 }, "geometry": { "type": "MultiPolygon", "coordinates": [ [ [ [ 364720.781163175823167, 6872318.112516604363918 ], [ 364663.141219144221395, 6872297.794434108771384 ], [ 364657.143723702407442, 6872308.680644324049354 ], [ 364702.906125894922297, 6872329.142687593586743 ], [ 364700.688564555253834, 6872333.880204999819398 ], [ 364721.956993767991662, 6872343.55683630052954 ], [ 364707.139652088982984, 6872372.183537232689559 ], [ 364751.692475368676241, 6872390.932010376825929 ], [ 364766.610615290410351, 6872353.636660574004054 ], [ 364878.861859659780748, 6872399.001778906211257 ], [ 364901.910055985325016, 6872416.376877791248262 ], [ 364953.192188764223829, 6872404.010626470670104 ], [ 364872.482783535146154, 6872305.966368071734905 ], [ 364967.885676709935069, 6872215.940608153119683 ], [ 364900.415900396532379, 6872139.323359554633498 ], [ 364776.18255735153798, 6872270.644188985228539 ], [ 364740.710274690354709, 6872242.027441836893559 ], [ 364740.911509644705802, 6872265.154625697061419 ], [ 364720.781163175823167, 6872318.112516604363918 ] ] ] ] } },
{ "type": "Feature", "properties": { "NOME": "avenida", "ÁREA m²": null }, "geometry": { "type": "MultiPolygon", "coordinates": [ ] } },
{ "type": "Feature", "properties": { "NOME": "RPPN", "ÁREA m²": null }, "geometry": { "type": "MultiPolygon", "coordinates": [ ] } },
{ "type": "Feature", "properties": { "NOME": "30", "ÁREA m²": null }, "geometry": { "type": "MultiPolygon", "coordinates": [ ] } },
{ "type": "Feature", "properties": { "NOME": null, "ÁREA m²": null }, "geometry": { "type": "MultiPolygon", "coordinates": [ ] } },
{ "type": "Feature", "properties": { "NOME": null, "ÁREA m²": null }, "geometry": { "type": "MultiPolygon", "coordinates": [ ] } },
{ "type": "Feature", "properties": { "NOME": "Mãe Preta", "ÁREA m²": 578.81808088719845 }, "geometry": { "type": "MultiPolygon", "coordinates": [ [ [ [ 361056.330514493398368, 6872897.734997484833002 ], [ 361076.639324934803881, 6872910.46113595739007 ], [ 361090.353828400082421, 6872890.732822932302952 ], [ 361069.11526844103355, 6872877.995842153206468 ], [ 361056.330514493398368, 6872897.734997484833002 ] ] ] ] } },
{ "type": "Feature", "properties": { "NOME": null, "ÁREA m²": null }, "geometry": { "type": "MultiPolygon", "coordinates": [ ] } },
{ "type": "Feature", "properties": { "NOME": null, "ÁREA m²": null }, "geometry": { "type": "MultiPolygon", "coordinates": [ ] } },
{ "type": "Feature", "properties": { "NOME": null, "ÁREA m²": null }, "geometry": { "type": "MultiPolygon", "coordinates": [ ] } },
{ "type": "Feature", "properties": { "NOME": null, "ÁREA m²": null }, "geometry": { "type": "MultiPolygon", "coordinates": [ ] } },
{ "type": "Feature", "properties": { "NOME": null, "ÁREA m²": null }, "geometry": { "type": "MultiPolygon", "coordinates": [ ] } },
{ "type": "Feature", "properties": { "NOME": null, "ÁREA m²": null }, "geometry": { "type": "MultiPolygon", "coordinates": [ ] } },
{ "type": "Feature", "properties": { "NOME": null, "ÁREA m²": null }, "geometry": { "type": "MultiPolygon", "coordinates": [ ] } },
{ "type": "Feature", "properties": { "NOME": null, "ÁREA m²": null }, "geometry": { "type": "MultiPolygon", "coordinates": [ ] } },
{ "type": "Feature", "properties": { "NOME": null, "ÁREA m²": null }, "geometry": { "type": "MultiPolygon", "coordinates": [ ] } },
{ "type": "Feature", "properties": { "NOME": null, "ÁREA m²": null }, "geometry": { "type": "MultiPolygon", "coordinates": [ ] } },
{ "type": "Feature", "properties": { "NOME": null, "ÁREA m²": null }, "geometry": { "type": "MultiPolygon", "coordinates": [ ] } },
{ "type": "Feature", "properties": { "NOME": null, "ÁREA m²": null }, "geometry": { "type": "MultiPolygon", "coordinates": [ ] } },
{ "type": "Feature", "properties": { "NOME": null, "ÁREA m²": null }, "geometry": { "type": "MultiPolygon", "coordinates": [ ] } },
{ "type": "Feature", "properties": { "NOME": null, "ÁREA m²": null }, "geometry": { "type": "MultiPolygon", "coordinates": [ ] } },
{ "type": "Feature", "properties": { "NOME": null, "ÁREA m²": null }, "geometry": { "type": "MultiPolygon", "coordinates": [ ] } },
{ "type": "Feature", "properties": { "NOME": "7 céu", "ÁREA m²": null }, "geometry": { "type": "MultiPolygon", "coordinates": [ ] } },
{ "type": "Feature", "properties": { "NOME": "7 céu", "ÁREA m²": null }, "geometry": { "type": "MultiPolygon", "coordinates": [ ] } },
{ "type": "Feature", "properties": { "NOME": "7 céu", "ÁREA m²": null }, "geometry": { "type": "MultiPolygon", "coordinates": [ ] } },
{ "type": "Feature", "properties": { "NOME": "7 céu", "ÁREA m²": null }, "geometry": { "type": "MultiPolygon", "coordinates": [ ] } },
{ "type": "Feature", "properties": { "NOME": "7 céu", "ÁREA m²": null }, "geometry": { "type": "MultiPolygon", "coordinates": [ ] } },
{ "type": "Feature", "properties": { "NOME": "7 céu", "ÁREA m²": null }, "geometry": { "type": "MultiPolygon", "coordinates": [ ] } },
{ "type": "Feature", "properties": { "NOME": "7 céu", "ÁREA m²": null }, "geometry": { "type": "MultiPolygon", "coordinates": [ ] } },
{ "type": "Feature", "properties": { "NOME": "7 céu", "ÁREA m²": null }, "geometry": { "type": "MultiPolygon", "coordinates": [ ] } },
{ "type": "Feature", "properties": { "NOME": "7 céu", "ÁREA m²": null }, "geometry": { "type": "MultiPolygon", "coordinates": [ ] } },
{ "type": "Feature", "properties": { "NOME": "7 céu", "ÁREA m²": null }, "geometry": { "type": "MultiPolygon", "coordinates": [ ] } },
{ "type": "Feature", "properties": { "NOME": "7 céu", "ÁREA m²": null }, "geometry": { "type": "MultiPolygon", "coordinates": [ ] } },
{ "type": "Feature", "properties": { "NOME": "Sitone", "ÁREA m²": 13718.787196420133 }, "geometry": { "type": "MultiPolygon", "coordinates": [ [ [ [ 360368.577028366038576, 6873340.177862433716655 ], [ 360277.354541709879413, 6873288.455097302794456 ], [ 360249.89662925968878, 6873369.540661510080099 ], [ 360246.65519256144762, 6873407.894361292943358 ], [ 360256.458420914015733, 6873444.089004069566727 ], [ 360274.399307465646416, 6873460.489650251343846 ], [ 360287.590985857706983, 6873445.843179657123983 ], [ 360328.856309307331685, 6873455.811227779835463 ], [ 360368.577028366038576, 6873340.177862433716655 ] ] ] ] } },
{ "type": "Feature", "properties": { "NOME": "UFFS", "ÁREA m²": null }, "geometry": { "type": "MultiPolygon", "coordinates": [ ] } },
{ "type": "Feature", "properties": { "NOME": "Valentina", "ÁREA m²": 33993.199442267418 }, "geometry": { "type": "MultiPolygon", "coordinates": [ [ [ [ 365673.001596927526407, 6872835.49431914743036 ], [ 365664.675702583044767, 6872831.699921438470483 ], [ 365611.21637434605509, 6872954.124989306554198 ], [ 365659.71894626005087, 6873023.127718712203205 ], [ 365640.757060942123644, 6873055.289855125360191 ], [ 365726.608248107950203, 6873110.839789288118482 ], [ 365830.347482583369128, 6872982.50589696969837 ], [ 365825.09309810353443, 6872953.770080097950995 ], [ 365673.001596927526407, 6872835.49431914743036 ] ] ] ] } },
{ "type": "Feature", "properties": { "NOME": null, "ÁREA m²": null }, "geometry": { "type": "MultiPolygon", "coordinates": [ ] } },
{ "type": "Feature", "properties": { "NOME": null, "ÁREA m²": null }, "geometry": { "type": "MultiPolygon", "coordinates": [ ] } },
{ "type": "Feature", "properties": { "NOME": null, "ÁREA m²": null }, "geometry": { "type": "MultiPolygon", "coordinates": [ ] } },
{ "type": "Feature", "properties": { "NOME": null, "ÁREA m²": null }, "geometry": { "type": "MultiPolygon", "coordinates": [ ] } },
{ "type": "Feature", "properties": { "NOME": null, "ÁREA m²": null }, "geometry": { "type": "MultiPolygon", "coordinates": [ ] } },
{ "type": "Feature", "properties": { "NOME": null, "ÁREA m²": null }, "geometry": { "type": "MultiPolygon", "coordinates": [ ] } },
{ "type": "Feature", "properties": { "NOME": null, "ÁREA m²": null }, "geometry": { "type": "MultiPolygon", "coordinates": [ ] } },
{ "type": "Feature", "properties": { "NOME": null, "ÁREA m²": null }, "geometry": { "type": "MultiPolygon", "coordinates": [ ] } },
{ "type": "Feature", "properties": { "NOME": null, "ÁREA m²": null }, "geometry": { "type": "MultiPolygon", "coordinates": [ ] } },
{ "type": "Feature", "properties": { "NOME": null, "ÁREA m²": null }, "geometry": { "type": "MultiPolygon", "coordinates": [ ] } },
{ "type": "Feature", "properties": { "NOME": null, "ÁREA m²": null }, "geometry": { "type": "MultiPolygon", "coordinates": [ ] } },
{ "type": "Feature", "properties": { "NOME": null, "ÁREA m²": null }, "geometry": { "type": "MultiPolygon", "coordinates": [ ] } },
{ "type": "Feature", "properties": { "NOME": null, "ÁREA m²": null }, "geometry": { "type": "MultiPolygon", "coordinates": [ ] } },
{ "type": "Feature", "properties": { "NOME": null, "ÁREA m²": null }, "geometry": { "type": "MultiPolygon", "coordinates": [ ] } },
{ "type": "Feature", "properties": { "NOME": null, "ÁREA m²": null }, "geometry": { "type": "MultiPolygon", "coordinates": [ ] } },
{ "type": "Feature", "properties": { "NOME": null, "ÁREA m²": null }, "geometry": { "type": "MultiPolygon", "coordinates": [ ] } },
{ "type": "Feature", "properties": { "NOME": null, "ÁREA m²": null }, "geometry": { "type": "MultiPolygon", "coordinates": [ ] } },
{ "type": "Feature", "properties": { "NOME": null, "ÁREA m²": null }, "geometry": { "type": "MultiPolygon", "coordinates": [ ] } },
{ "type": "Feature", "properties": { "NOME": null, "ÁREA m²": null }, "geometry": { "type": "MultiPolygon", "coordinates": [ ] } },
{ "type": "Feature", "properties": { "NOME": null, "ÁREA m²": null }, "geometry": { "type": "MultiPolygon", "coordinates": [ ] } },
{ "type": "Feature", "properties": { "NOME": null, "ÁREA m²": null }, "geometry": { "type": "MultiPolygon", "coordinates": [ ] } },
{ "type": "Feature", "properties": { "NOME": null, "ÁREA m²": null }, "geometry": { "type": "MultiPolygon", "coordinates": [ ] } },
{ "type": "Feature", "properties": { "NOME": null, "ÁREA m²": null }, "geometry": { "type": "MultiPolygon", "coordinates": [ ] } },
{ "type": "Feature", "properties": { "NOME": null, "ÁREA m²": null }, "geometry": { "type": "MultiPolygon", "coordinates": [ ] } },
{ "type": "Feature", "properties": { "NOME": null, "ÁREA m²": null }, "geometry": { "type": "MultiPolygon", "coordinates": [ ] } },
{ "type": "Feature", "properties": { "NOME": null, "ÁREA m²": null }, "geometry": { "type": "MultiPolygon", "coordinates": [ ] } },
{ "type": "Feature", "properties": { "NOME": null, "ÁREA m²": null }, "geometry": { "type": "MultiPolygon", "coordinates": [ ] } },
{ "type": "Feature", "properties": { "NOME": null, "ÁREA m²": null }, "geometry": { "type": "MultiPolygon", "coordinates": [ ] } },
{ "type": "Feature", "properties": { "NOME": "MultigareX", "ÁREA m²": null }, "geometry": { "type": "MultiPolygon", "coordinates": [ ] } },
{ "type": "Feature", "properties": { "NOME": "MultigareX", "ÁREA m²": null }, "geometry": { "type": "MultiPolygon", "coordinates": [ ] } },
{ "type": "Feature", "properties": { "NOME": "MultigareX", "ÁREA m²": null }, "geometry": { "type": "MultiPolygon", "coordinates": [ ] } },
{ "type": "Feature", "properties": { "NOME": "MultigareX", "ÁREA m²": null }, "geometry": { "type": "MultiPolygon", "coordinates": [ ] } },
{ "type": "Feature", "properties": { "NOME": "JP Kunz", "ÁREA m²": 6441.9482870548964 }, "geometry": { "type": "MultiPolygon", "coordinates": [ [ [ [ 359457.264776796742808, 6874826.822343821637332 ], [ 359542.338493647635914, 6874800.01001125946641 ], [ 359526.009178327920381, 6874758.8843282321468 ], [ 359503.631968445319217, 6874765.738608736544847 ], [ 359489.721810950723011, 6874726.628890563733876 ], [ 359430.654040720139164, 6874747.796521533280611 ], [ 359457.264776796742808, 6874826.822343821637332 ] ] ] ] } },
{ "type": "Feature", "properties": { "NOME": "Rosalina", "ÁREA m²": 1506.3988401442768 }, "geometry": { "type": "MultiPolygon", "coordinates": [ [ [ [ 358573.667381162231322, 6875028.418829251080751 ], [ 358630.315993567695841, 6875010.07354907784611 ], [ 358622.655327121377923, 6874985.277181369252503 ], [ 358564.393942832481116, 6875006.646408825181425 ], [ 358573.667381162231322, 6875028.418829251080751 ] ] ] ] } },
{ "type": "Feature", "properties": { "NOME": "Campo osca", "ÁREA m²": 5197.2251396253705 }, "geometry": { "type": "MultiPolygon", "coordinates": [ [ [ [ 358231.961338360444643, 6875556.60162107553333 ], [ 358291.230705076479353, 6875552.569691366516054 ], [ 358279.941301892511547, 6875465.480009661056101 ], [ 358219.865549234731589, 6875471.527904224582016 ], [ 358231.961338360444643, 6875556.60162107553333 ] ] ] ] } },
{ "type": "Feature", "properties": { "NOME": "Mader", "ÁREA m²": 328.90297131240362 }, "geometry": { "type": "MultiPolygon", "coordinates": [ [ [ [ 360868.843367768393364, 6873938.084237805567682 ], [ 360859.065938225074206, 6873957.034307436086237 ], [ 360869.750551952805836, 6873966.811736978590488 ], [ 360881.947139321244322, 6873956.731912707909942 ], [ 360868.843367768393364, 6873938.084237805567682 ] ] ] ] } },
{ "type": "Feature", "properties": { "NOME": "SC", "ÁREA m²": 1772.5305069759488 }, "geometry": { "type": "MultiPolygon", "coordinates": [ [ [ [ 366029.310201773012523, 6871230.845034982077777 ], [ 366041.002797927882057, 6871179.337132954970002 ], [ 366007.840176074882038, 6871172.382054207846522 ], [ 365997.155562347150408, 6871224.998736904934049 ], [ 366029.310201773012523, 6871230.845034982077777 ] ] ] ] } },
{ "type": "Feature", "properties": { "NOME": "CESAR S", "ÁREA m²": 2857.3422142053023 }, "geometry": { "type": "MultiPolygon", "coordinates": [ [ [ [ 366099.062585731327999, 6870624.039613838307559 ], [ 366134.745163652230985, 6870624.442806809209287 ], [ 366146.034566836198792, 6870606.500719605945051 ], [ 366152.082461399084423, 6870561.54470335599035 ], [ 366101.884936527349055, 6870562.955878753215075 ], [ 366099.062585731327999, 6870624.039613838307559 ] ] ] ] } },
{ "type": "Feature", "properties": { "NOME": "ANTONIO", "ÁREA m²": 2812.0355876088142 }, "geometry": { "type": "MultiPolygon", "coordinates": [ [ [ [ 364170.69140436273301, 6871351.702127993106842 ], [ 364208.591543623362668, 6871310.173251994885504 ], [ 364187.625509138742927, 6871270.660340851172805 ], [ 364138.839159664988983, 6871311.987620363943279 ], [ 364170.69140436273301, 6871351.702127993106842 ] ] ] ] } },
{ "type": "Feature", "properties": { "NOME": "MultigareS", "ÁREA m²": null }, "geometry": { "type": "MultiPolygon", "coordinates": [ ] } },
{ "type": "Feature", "properties": { "NOME": "MultigareP", "ÁREA m²": null }, "geometry": { "type": "MultiPolygon", "coordinates": [ ] } },
{ "type": "Feature", "properties": { "NOME": "VALINHOS", "ÁREA m²": 1041.3053065182175 }, "geometry": { "type": "MultiPolygon", "coordinates": [ [ [ [ 358486.410811488458421, 6875795.36929552257061 ], [ 358516.882788493414409, 6875797.626479004509747 ], [ 358517.023862461035606, 6875761.088321391493082 ], [ 358488.526921002659947, 6875761.37046932708472 ], [ 358486.410811488458421, 6875795.36929552257061 ] ] ] ] } },
{ "type": "Feature", "properties": { "NOME": "NENÊ GRAEF", "ÁREA m²": 994.2628428414464 }, "geometry": { "type": "MultiPolygon", "coordinates": [ [ [ [ 358490.784104484249838, 6873940.105547410435975 ], [ 358498.825320638308767, 6873984.120625305920839 ], [ 358519.845341813052073, 6873980.311628180555999 ], [ 358513.497013270331081, 6873936.014402349479496 ], [ 358490.784104484249838, 6873940.105547410435975 ] ] ] ] } },
{ "type": "Feature", "properties": { "NOME": "DONA JÚLIA", "ÁREA m²": 564.85875865630805 }, "geometry": { "type": "MultiPolygon", "coordinates": [ [ [ [ 358646.247616796637885, 6873227.540936982259154 ], [ 358643.990433314815164, 6873209.906691029667854 ], [ 358609.568385216640308, 6873217.524685281328857 ], [ 358613.377382342237979, 6873232.337451880797744 ], [ 358646.247616796637885, 6873227.540936982259154 ] ] ] ] } },
{ "type": "Feature", "properties": { "NOME": "SEM IDENTI", "ÁREA m²": 4977.3369455039501 }, "geometry": { "type": "MultiPolygon", "coordinates": [ [ [ [ 359092.605650332232472, 6871832.601545198820531 ], [ 359146.778053896618076, 6871779.839881311170757 ], [ 359100.929014421533793, 6871737.235543090850115 ], [ 359040.690430249727797, 6871799.731310744769871 ], [ 359092.605650332232472, 6871832.601545198820531 ] ] ] ] } },
{ "type": "Feature", "properties": { "NOME": "ALVI VERDE", "ÁREA m²": 9447.6645041871816 }, "geometry": { "type": "MultiPolygon", "coordinates": [ [ [ [ 358876.621405912854243, 6872006.827895205467939 ], [ 359013.322080532321706, 6871945.883941195905209 ], [ 358991.737763487151824, 6871900.03490172047168 ], [ 358947.722685591084883, 6871917.5280737048015 ], [ 358937.424285955145024, 6871911.744041033089161 ], [ 358850.099500001117121, 6871938.689168847166002 ], [ 358846.995872713567223, 6871946.58931103348732 ], [ 358844.597615264123306, 6871948.564346579834819 ], [ 358876.621405912854243, 6872006.827895205467939 ] ] ] ] } },
{ "type": "Feature", "properties": { "NOME": "PRAÇA PAMP", "ÁREA m²": 792.74255660921335 }, "geometry": { "type": "MultiPolygon", "coordinates": [ [ [ [ 359920.216081348713487, 6871679.465753355063498 ], [ 359936.43958762451075, 6871699.49825675599277 ], [ 359960.563236086745746, 6871682.569380641914904 ], [ 359942.787916167173535, 6871660.702915661968291 ], [ 359920.216081348713487, 6871679.465753355063498 ] ] ] ] } },
{ "type": "Feature", "properties": { "NOME": "P ZAFFARI", "ÁREA m²": 530.95678465929814 }, "geometry": { "type": "MultiPolygon", "coordinates": [ [ [ [ 359002.635727485583629, 6872713.008908601477742 ], [ 359002.917875420826022, 6872701.581917225383222 ], [ 358954.670578496297821, 6872701.934602144174278 ], [ 358954.106282625813037, 6872712.444612731225789 ], [ 359002.635727485583629, 6872713.008908601477742 ] ] ] ] } },
{ "type": "Feature", "properties": { "NOME": "V BUENO", "ÁREA m²": 4246.5134855825454 }, "geometry": { "type": "MultiPolygon", "coordinates": [ [ [ [ 359116.341345383494627, 6872793.98536601383239 ], [ 359112.814496193081141, 6872792.574626337736845 ], [ 359063.297533560020383, 6872842.655884840525687 ], [ 359109.287647002725862, 6872884.131631320342422 ], [ 359150.199097611184698, 6872837.295074072666466 ], [ 359149.070505870273337, 6872822.623381440527737 ], [ 359116.341345383494627, 6872793.98536601383239 ] ] ] ] } },
{ "type": "Feature", "properties": { "NOME": "D ZUCCHI", "ÁREA m²": 2344.9978890810162 }, "geometry": { "type": "MultiPolygon", "coordinates": [ [ [ [ 359124.382561537728179, 6873100.115875734947622 ], [ 359126.075449149066117, 6873174.88507857080549 ], [ 359161.908236923452932, 6873175.308300473727286 ], [ 359150.481245546543505, 6873098.846210027113557 ], [ 359124.382561537728179, 6873100.115875734947622 ] ] ] ] } },
{ "type": "Feature", "properties": { "NOME": "Adilar", "ÁREA m²": 5734.2407444370911 }, "geometry": { "type": "MultiPolygon", "coordinates": [ [ [ [ 359319.628932717605494, 6873524.748518250882626 ], [ 359415.559230696118902, 6873459.572345213033259 ], [ 359416.687822437088471, 6873430.793255819007754 ], [ 359306.650127696979325, 6873446.875688127242029 ], [ 359319.628932717605494, 6873524.748518250882626 ] ] ] ] } },
{ "type": "Feature", "properties": { "NOME": "R MOGNON", "ÁREA m²": 2485.1326274760067 }, "geometry": { "type": "MultiPolygon", "coordinates": [ [ [ [ 364519.615379025752191, 6870794.967244884930551 ], [ 364628.524482024949975, 6870782.552735734730959 ], [ 364511.715236839256249, 6870750.24679715000093 ], [ 364519.615379025752191, 6870794.967244884930551 ] ] ] ] } },
{ "type": "Feature", "properties": { "NOME": "V PINO", "ÁREA m²": 1662.6903317496183 }, "geometry": { "type": "MultiPolygon", "coordinates": [ [ [ [ 365343.769497835543007, 6870421.685526572167873 ], [ 365395.261496015242301, 6870395.86899049859494 ], [ 365381.29517322126776, 6870370.475676327943802 ], [ 365329.521027106384281, 6870396.997582239098847 ], [ 365343.769497835543007, 6870421.685526572167873 ] ] ] ] } },
{ "type": "Feature", "properties": { "NOME": "VIA SUL", "ÁREA m²": 3306.853776678443 }, "geometry": { "type": "MultiPolygon", "coordinates": [ [ [ [ 366672.756809757614974, 6870358.413852101191878 ], [ 366633.115024857746903, 6870391.566234489902854 ], [ 366620.559441739984322, 6870457.306703398935497 ], [ 366700.266233442758676, 6870391.0019386196509 ], [ 366672.756809757614974, 6870358.413852101191878 ] ] ] ] } },
{ "type": "Feature", "properties": { "NOME": "P ROSSATO", "ÁREA m²": 3641.9448430538177 }, "geometry": { "type": "MultiPolygon", "coordinates": [ [ [ [ 364657.515182369796094, 6871470.499938813969493 ], [ 364709.853624355164357, 6871431.422449784353375 ], [ 364670.352913422801066, 6871384.726966504007578 ], [ 364625.068169818201568, 6871430.717079946771264 ], [ 364657.515182369796094, 6871470.499938813969493 ] ] ] ] } },
{ "type": "Feature", "properties": { "NOME": "S FRANCISC", "ÁREA m²": 1807.4906972795725 }, "geometry": { "type": "MultiPolygon", "coordinates": [ [ [ [ 364816.505543872597627, 6872809.150817515328526 ], [ 364764.731397757655941, 6872793.209459175355732 ], [ 364778.41557261638809, 6872844.560383386909962 ], [ 364803.808886787155643, 6872851.755155735649168 ], [ 364816.505543872597627, 6872809.150817515328526 ] ] ] ] } },
{ "type": "Feature", "properties": { "NOME": "SEM DENOM", "ÁREA m²": 2537.3117178715765 }, "geometry": { "type": "MultiPolygon", "coordinates": [ [ [ [ 365057.036658657249063, 6872953.751634320244193 ], [ 365051.816921855439432, 6872935.270944562740624 ], [ 365042.364966025226749, 6872917.495624643750489 ], [ 364986.07645294663962, 6872960.9464066689834 ], [ 365008.366139829857275, 6872991.277309706434608 ], [ 365057.036658657249063, 6872953.751634320244193 ] ] ] ] } },
{ "type": "Feature", "properties": { "NOME": null, "ÁREA m²": 264.05374935967848 }, "geometry": { "type": "MultiPolygon", "coordinates": [ [ [ [ 361012.022785217268392, 6874232.728224720805883 ], [ 361043.059058092709165, 6874237.383665652014315 ], [ 361069.580964004388079, 6874244.71951196808368 ], [ 361070.286333842494059, 6874240.628366907127202 ], [ 361038.826839064247906, 6874230.188893304206431 ], [ 361015.690708375244867, 6874231.317485044710338 ], [ 361012.022785217268392, 6874232.728224720805883 ] ] ] ] } },
{ "type": "Feature", "properties": { "NOME": "LARGO", "ÁREA m²": 1289.4951856462285 }, "geometry": { "type": "MultiPolygon", "coordinates": [ [ [ [ 364931.198679543973412, 6875832.64809144847095 ], [ 365024.307498170237523, 6875816.847807075828314 ], [ 365014.432320437103044, 6875801.893966508097947 ], [ 365013.021580760949291, 6875790.043753228150308 ], [ 364931.198679543973412, 6875832.64809144847095 ] ] ] ] } },
{ "type": "Feature", "properties": { "NOME": "MASSOT", "ÁREA m²": 1618.6175208389759 }, "geometry": { "type": "MultiPolygon", "coordinates": [ [ [ [ 366781.806986724375747, 6875707.93870407436043 ], [ 366809.175336441781837, 6875711.606627232395113 ], [ 366818.204070369189139, 6875702.436819337308407 ], [ 366822.01306749478681, 6875669.425510914996266 ], [ 366816.229034822550602, 6875662.230738567188382 ], [ 366790.694646684161853, 6875659.550333182327449 ], [ 366781.806986724375747, 6875707.93870407436043 ] ] ] ] } }
]
}
