{
"type": "FeatureCollection",
"name": "Áreas Verdes",
"crs": { "type": "name", "properties": { "name": "urn:ogc:def:crs:EPSG::31982" } },
"features": [
{ "type": "Feature", "properties": { "FID": 0, "NOME": null, "FID_2": null, "NOME_2": null, "FID_3": null, "distance": null, "angle": null, "FID_4": null, "distance_2": null, "angle_2": null, "FID_5": null, "distance_3": null, "angle_3": null }, "geometry": { "type": "MultiPoint", "coordinates": [ [ 362402.678863300883677, 6872404.157576957717538 ] ] } },
{ "type": "Feature", "properties": { "FID": 1, "NOME": "PARQUE BANHADO DA VERGUEIRO", "FID_2": null, "NOME_2": null, "FID_3": null, "distance": null, "angle": null, "FID_4": null, "distance_2": null, "angle_2": null, "FID_5": null, "distance_3": null, "angle_3": null }, "geometry": { "type": "MultiPoint", "coordinates": [ [ 361180.509662296448369, 6873810.123228886164725 ] ] } },
{ "type": "Feature", "properties": { "FID": null, "NOME": "PARQUE DA GARE", "FID_2": null, "NOME_2": null, "FID_3": null, "distance": null, "angle": null, "FID_4": null, "distance_2": null, "angle_2": null, "FID_5": null, "distance_3": null, "angle_3": null }, "geometry": { "type": "MultiPoint", "coordinates": [ [ 362402.678863300883677, 6872404.157576957717538 ] ] } },
{ "type": "Feature", "properties": { "FID": null, "NOME": null, "FID_2": null, "NOME_2": null, "FID_3": null, "distance": null, "angle": null, "FID_4": null, "distance_2": null, "angle_2": null, "FID_5": null, "distance_3": null, "angle_3": null }, "geometry": { "type": "MultiPoint", "coordinates": [ ] } },
{ "type": "Feature", "properties": { "FID": null, "NOME": null, "FID_2": null, "NOME_2": null, "FID_3": null, "distance": null, "angle": null, "FID_4": null, "distance_2": null, "angle_2": null, "FID_5": null, "distance_3": null, "angle_3": null }, "geometry": { "type": "MultiPoint", "coordinates": [ [ 363354.471841210790444, 6867350.406603155657649 ] ] } },
{ "type": "Feature", "properties": { "FID": null, "NOME": "PARQUE ARLINDO HAAS", "FID_2": null, "NOME_2": null, "FID_3": null, "distance": null, "angle": null, "FID_4": null, "distance_2": null, "angle_2": null, "FID_5": null, "distance_3": null, "angle_3": null }, "geometry": { "type": "MultiPoint", "coordinates": [ [ 363344.196073567843996, 6876023.154493639245629 ] ] } },
{ "type": "Feature", "properties": { "FID": null, "NOME": null, "FID_2": null, "NOME_2": null, "FID_3": null, "distance": null, "angle": null, "FID_4": null, "distance_2": null, "angle_2": null, "FID_5": null, "distance_3": null, "angle_3": null }, "geometry": { "type": "MultiPoint", "coordinates": [ ] } },
{ "type": "Feature", "properties": { "FID": null, "NOME": null, "FID_2": 0, "NOME_2": null, "FID_3": null, "distance": null, "angle": null, "FID_4": null, "distance_2": null, "angle_2": null, "FID_5": null, "distance_3": null, "angle_3": null }, "geometry": { "type": "MultiPoint", "coordinates": [ [ 358639.438234663277399, 6877144.778733178973198 ] ] } },
{ "type": "Feature", "properties": { "FID": null, "NOME": null, "FID_2": 1, "NOME_2": null, "FID_3": null, "distance": null, "angle": null, "FID_4": null, "distance_2": null, "angle_2": null, "FID_5": null, "distance_3": null, "angle_3": null }, "geometry": { "type": "MultiPoint", "coordinates": [ [ 363575.326583792222664, 6874878.431044040247798 ] ] } },
{ "type": "Feature", "properties": { "FID": null, "NOME": null, "FID_2": 2, "NOME_2": null, "FID_3": null, "distance": null, "angle": null, "FID_4": null, "distance_2": null, "angle_2": null, "FID_5": null, "distance_3": null, "angle_3": null }, "geometry": { "type": "MultiPoint", "coordinates": [ [ 363912.799100392614491, 6871883.513656579889357 ] ] } },
{ "type": "Feature", "properties": { "FID": null, "NOME": null, "FID_2": 3, "NOME_2": null, "FID_3": null, "distance": null, "angle": null, "FID_4": null, "distance_2": null, "angle_2": null, "FID_5": null, "distance_3": null, "angle_3": null }, "geometry": { "type": "MultiPoint", "coordinates": [ [ 358099.361250211775769, 6872897.94717123452574 ] ] } },
{ "type": "Feature", "properties": { "FID": null, "NOME": null, "FID_2": null, "NOME_2": "Praça Eloi Machado da Silva\n", "FID_3": null, "distance": null, "angle": null, "FID_4": null, "distance_2": null, "angle_2": null, "FID_5": null, "distance_3": null, "angle_3": null }, "geometry": { "type": "MultiPoint", "coordinates": [ [ 358965.753166610491462, 6877447.968099389225245 ] ] } },
{ "type": "Feature", "properties": { "FID": null, "NOME": null, "FID_2": null, "NOME_2": "José Alexandre Zachia\n", "FID_3": null, "distance": null, "angle": null, "FID_4": null, "distance_2": null, "angle_2": null, "FID_5": null, "distance_3": null, "angle_3": null }, "geometry": { "type": "MultiPoint", "coordinates": [ [ 358638.204959358263295, 6877109.001601931639016 ] ] } },
{ "type": "Feature", "properties": { "FID": null, "NOME": null, "FID_2": null, "NOME_2": "Praça Valinhos\n", "FID_3": null, "distance": null, "angle": null, "FID_4": null, "distance_2": null, "angle_2": null, "FID_5": null, "distance_3": null, "angle_3": null }, "geometry": { "type": "MultiPoint", "coordinates": [ [ 358493.125507342279889, 6875774.62886425293982 ] ] } },
{ "type": "Feature", "properties": { "FID": null, "NOME": null, "FID_2": null, "NOME_2": "Campo Oscar Ferreira da Silva\n", "FID_3": null, "distance": null, "angle": null, "FID_4": null, "distance_2": null, "angle_2": null, "FID_5": null, "distance_3": null, "angle_3": null }, "geometry": { "type": "MultiPoint", "coordinates": [ [ 358256.028069556923583, 6875514.023181926459074 ] ] } },
{ "type": "Feature", "properties": { "FID": null, "NOME": null, "FID_2": null, "NOME_2": "Praça da Rosa - Rosalina Dal Piasi de Azevedo\n", "FID_3": null, "distance": null, "angle": null, "FID_4": null, "distance_2": null, "angle_2": null, "FID_5": null, "distance_3": null, "angle_3": null }, "geometry": { "type": "MultiPoint", "coordinates": [ [ 358593.315406689711381, 6875007.36454008705914 ] ] } },
{ "type": "Feature", "properties": { "FID": null, "NOME": null, "FID_2": null, "NOME_2": "João Pedro Kunz\n", "FID_3": null, "distance": null, "angle": null, "FID_4": null, "distance_2": null, "angle_2": null, "FID_5": null, "distance_3": null, "angle_3": null }, "geometry": { "type": "MultiPoint", "coordinates": [ [ 359473.755136709718499, 6874778.662903921678662 ] ] } },
{ "type": "Feature", "properties": { "FID": null, "NOME": null, "FID_2": null, "NOME_2": "Praça Nenê Graeff\n", "FID_3": null, "distance": null, "angle": null, "FID_4": null, "distance_2": null, "angle_2": null, "FID_5": null, "distance_3": null, "angle_3": null }, "geometry": { "type": "MultiPoint", "coordinates": [ [ 358508.797670368512627, 6873955.20268090441823 ] ] } },
{ "type": "Feature", "properties": { "FID": null, "NOME": null, "FID_2": null, "NOME_2": "Praça Dona Júlia\n", "FID_3": null, "distance": null, "angle": null, "FID_4": null, "distance_2": null, "angle_2": null, "FID_5": null, "distance_3": null, "angle_3": null }, "geometry": { "type": "MultiPoint", "coordinates": [ [ 358629.921101758256555, 6873221.297675179317594 ] ] } },
{ "type": "Feature", "properties": { "FID": null, "NOME": null, "FID_2": null, "NOME_2": "Praça Xangrilá\n", "FID_3": null, "distance": null, "angle": null, "FID_4": null, "distance_2": null, "angle_2": null, "FID_5": null, "distance_3": null, "angle_3": null }, "geometry": { "type": "MultiPoint", "coordinates": [ [ 358078.484851271379739, 6872922.854913548566401 ] ] } },
{ "type": "Feature", "properties": { "FID": null, "NOME": null, "FID_2": null, "NOME_2": "Praça boqueirão / Jerônimo Coelho\n", "FID_3": null, "distance": null, "angle": null, "FID_4": null, "distance_2": null, "angle_2": null, "FID_5": null, "distance_3": null, "angle_3": null }, "geometry": { "type": "MultiPoint", "coordinates": [ [ 358332.93361240735976, 6872028.422180825844407 ] ] } },
{ "type": "Feature", "properties": { "FID": null, "NOME": null, "FID_2": null, "NOME_2": "Sem identificação\n", "FID_3": null, "distance": null, "angle": null, "FID_4": null, "distance_2": null, "angle_2": null, "FID_5": null, "distance_3": null, "angle_3": null }, "geometry": { "type": "MultiPoint", "coordinates": [ [ 359100.645712658704724, 6871781.585613156668842 ] ] } },
{ "type": "Feature", "properties": { "FID": null, "NOME": null, "FID_2": null, "NOME_2": "Praça Jerônimo Airton Bocalon dos Santos\n", "FID_3": null, "distance": null, "angle": null, "FID_4": null, "distance_2": null, "angle_2": null, "FID_5": null, "distance_3": null, "angle_3": null }, "geometry": { "type": "MultiPoint", "coordinates": [ [ 358907.654219390591606, 6871959.80049557145685 ] ] } },
{ "type": "Feature", "properties": { "FID": null, "NOME": null, "FID_2": null, "NOME_2": "Largo Valter Vieira Ribeiro\n", "FID_3": null, "distance": null, "angle": null, "FID_4": null, "distance_2": null, "angle_2": null, "FID_5": null, "distance_3": null, "angle_3": null }, "geometry": { "type": "MultiPoint", "coordinates": [ [ 358827.502299912564922, 6872189.509627929888666 ] ] } },
{ "type": "Feature", "properties": { "FID": null, "NOME": null, "FID_2": null, "NOME_2": "Praça Pampa\n", "FID_3": null, "distance": null, "angle": null, "FID_4": null, "distance_2": null, "angle_2": null, "FID_5": null, "distance_3": null, "angle_3": null }, "geometry": { "type": "MultiPoint", "coordinates": [ [ 359940.449762831733096, 6871681.059881744906306 ] ] } },
{ "type": "Feature", "properties": { "FID": null, "NOME": null, "FID_2": null, "NOME_2": "Paulo Zaffari\n", "FID_3": null, "distance": null, "angle": null, "FID_4": null, "distance_2": null, "angle_2": null, "FID_5": null, "distance_3": null, "angle_3": null }, "geometry": { "type": "MultiPoint", "coordinates": [ [ 358987.358362781989854, 6872704.676015415228903 ] ] } },
{ "type": "Feature", "properties": { "FID": null, "NOME": null, "FID_2": null, "NOME_2": "Praça Vilson Bueno de Quadros\n", "FID_3": null, "distance": null, "angle": null, "FID_4": null, "distance_2": null, "angle_2": null, "FID_5": null, "distance_3": null, "angle_3": null }, "geometry": { "type": "MultiPoint", "coordinates": [ [ 359110.944562647491693, 6872827.814439194276929 ] ] } },
{ "type": "Feature", "properties": { "FID": null, "NOME": null, "FID_2": null, "NOME_2": "Praça Germano Domingos Zucchi\n", "FID_3": null, "distance": null, "angle": null, "FID_4": null, "distance_2": null, "angle_2": null, "FID_5": null, "distance_3": null, "angle_3": null }, "geometry": { "type": "MultiPoint", "coordinates": [ [ 359145.871097392111551, 6873157.825414921157062 ] ] } },
{ "type": "Feature", "properties": { "FID": null, "NOME": null, "FID_2": null, "NOME_2": "Praça Adilar Luiz Bizarro\n", "FID_3": null, "distance": null, "angle": null, "FID_4": null, "distance_2": null, "angle_2": null, "FID_5": null, "distance_3": null, "angle_3": null }, "geometry": { "type": "MultiPoint", "coordinates": [ [ 359356.325858032621909, 6873486.493062390014529 ] ] } },
{ "type": "Feature", "properties": { "FID": null, "NOME": null, "FID_2": null, "NOME_2": "Praça Noelly Sagebin Albuquerque\n", "FID_3": null, "distance": null, "angle": null, "FID_4": null, "distance_2": null, "angle_2": null, "FID_5": null, "distance_3": null, "angle_3": null }, "geometry": { "type": "MultiPoint", "coordinates": [ [ 360796.821528203610796, 6875138.339045375585556 ] ] } },
{ "type": "Feature", "properties": { "FID": null, "NOME": null, "FID_2": null, "NOME_2": "Praça Antônio de Quadros Martins\n", "FID_3": null, "distance": null, "angle": null, "FID_4": null, "distance_2": null, "angle_2": null, "FID_5": null, "distance_3": null, "angle_3": null }, "geometry": { "type": "MultiPoint", "coordinates": [ [ 360215.160391880141106, 6874250.846841992810369 ] ] } },
{ "type": "Feature", "properties": { "FID": null, "NOME": null, "FID_2": null, "NOME_2": "Praça Adolpho João Floriani\n", "FID_3": null, "distance": null, "angle": null, "FID_4": null, "distance_2": null, "angle_2": null, "FID_5": null, "distance_3": null, "angle_3": null }, "geometry": { "type": "MultiPoint", "coordinates": [ [ 360556.813545856100973, 6874095.916316075250506 ] ] } },
{ "type": "Feature", "properties": { "FID": null, "NOME": null, "FID_2": null, "NOME_2": "Praça Pedro Mader\n", "FID_3": null, "distance": null, "angle": null, "FID_4": null, "distance_2": null, "angle_2": null, "FID_5": null, "distance_3": null, "angle_3": null }, "geometry": { "type": "MultiPoint", "coordinates": [ [ 360868.017925952270161, 6873955.87434503249824 ] ] } },
{ "type": "Feature", "properties": { "FID": null, "NOME": null, "FID_2": null, "NOME_2": "Praça Pércio Pacheco de Araújo\n", "FID_3": null, "distance": null, "angle": null, "FID_4": null, "distance_2": null, "angle_2": null, "FID_5": null, "distance_3": null, "angle_3": null }, "geometry": { "type": "MultiPoint", "coordinates": [ [ 361041.755047502403613, 6874235.286622985266149 ] ] } },
{ "type": "Feature", "properties": { "FID": null, "NOME": null, "FID_2": null, "NOME_2": "Largo Capitão Magela\n", "FID_3": null, "distance": null, "angle": null, "FID_4": null, "distance_2": null, "angle_2": null, "FID_5": null, "distance_3": null, "angle_3": null }, "geometry": { "type": "MultiPoint", "coordinates": [ [ 360956.453703030070756, 6873544.815897651948035 ] ] } },
{ "type": "Feature", "properties": { "FID": null, "NOME": null, "FID_2": null, "NOME_2": "Praça Itália Aldo Alessandri\n", "FID_3": null, "distance": null, "angle": null, "FID_4": null, "distance_2": null, "angle_2": null, "FID_5": null, "distance_3": null, "angle_3": null }, "geometry": { "type": "MultiPoint", "coordinates": [ [ 361145.63909956329735, 6873616.012295399792492 ] ] } },
{ "type": "Feature", "properties": { "FID": null, "NOME": null, "FID_2": null, "NOME_2": "Praça da Mãe\n", "FID_3": null, "distance": null, "angle": null, "FID_4": null, "distance_2": null, "angle_2": null, "FID_5": null, "distance_3": null, "angle_3": null }, "geometry": { "type": "MultiPoint", "coordinates": [ [ 361067.949948560853954, 6872895.988348358310759 ] ] } },
{ "type": "Feature", "properties": { "FID": null, "NOME": null, "FID_2": null, "NOME_2": "Praça Tamandaré\n", "FID_3": null, "distance": null, "angle": null, "FID_4": null, "distance_2": null, "angle_2": null, "FID_5": null, "distance_3": null, "angle_3": null }, "geometry": { "type": "MultiPoint", "coordinates": [ [ 361346.018898258218542, 6873002.111280851997435 ] ] } },
{ "type": "Feature", "properties": { "FID": null, "NOME": null, "FID_2": null, "NOME_2": "Praça Antonino Xavier\n", "FID_3": null, "distance": null, "angle": null, "FID_4": null, "distance_2": null, "angle_2": null, "FID_5": null, "distance_3": null, "angle_3": null }, "geometry": { "type": "MultiPoint", "coordinates": [ [ 362486.952366581652313, 6873722.583003981038928 ] ] } },
{ "type": "Feature", "properties": { "FID": null, "NOME": null, "FID_2": null, "NOME_2": "Praça Professor Enresto Tocchetto\n", "FID_3": null, "distance": null, "angle": null, "FID_4": null, "distance_2": null, "angle_2": null, "FID_5": null, "distance_3": null, "angle_3": null }, "geometry": { "type": "MultiPoint", "coordinates": [ [ 362262.168771174154244, 6873323.166734849102795 ] ] } },
{ "type": "Feature", "properties": { "FID": null, "NOME": null, "FID_2": null, "NOME_2": "Praça Coronel Octacílio Moura Escobar\n", "FID_3": null, "distance": null, "angle": null, "FID_4": null, "distance_2": null, "angle_2": null, "FID_5": null, "distance_3": null, "angle_3": null }, "geometry": { "type": "MultiPoint", "coordinates": [ [ 363347.130228688823991, 6874874.710874465294182 ] ] } },
{ "type": "Feature", "properties": { "FID": null, "NOME": null, "FID_2": null, "NOME_2": "Praça Petrópolis II\n", "FID_3": null, "distance": null, "angle": null, "FID_4": null, "distance_2": null, "angle_2": null, "FID_5": null, "distance_3": null, "angle_3": null }, "geometry": { "type": "MultiPoint", "coordinates": [ [ 363916.701410677575041, 6875268.753830558620393 ] ] } },
{ "type": "Feature", "properties": { "FID": null, "NOME": null, "FID_2": null, "NOME_2": "Praça Delvo Baseggio\n", "FID_3": null, "distance": null, "angle": null, "FID_4": null, "distance_2": null, "angle_2": null, "FID_5": null, "distance_3": null, "angle_3": null }, "geometry": { "type": "MultiPoint", "coordinates": [ [ 364599.336054499843158, 6875334.80080331210047 ] ] } },
{ "type": "Feature", "properties": { "FID": null, "NOME": null, "FID_2": null, "NOME_2": "Largo Cavaleiros Do Mercosul\n", "FID_3": null, "distance": null, "angle": null, "FID_4": null, "distance_2": null, "angle_2": null, "FID_5": null, "distance_3": null, "angle_3": null }, "geometry": { "type": "MultiPoint", "coordinates": [ [ 364992.931234506133478, 6875814.816768008284271 ] ] } },
{ "type": "Feature", "properties": { "FID": null, "NOME": null, "FID_2": null, "NOME_2": "Praça São José\n", "FID_3": null, "distance": null, "angle": null, "FID_4": null, "distance_2": null, "angle_2": null, "FID_5": null, "distance_3": null, "angle_3": null }, "geometry": { "type": "MultiPoint", "coordinates": [ [ 365849.750775964872446, 6876844.701766886748374 ] ] } },
{ "type": "Feature", "properties": { "FID": null, "NOME": null, "FID_2": null, "NOME_2": "Praça Coronel Massot\n", "FID_3": null, "distance": null, "angle": null, "FID_4": null, "distance_2": null, "angle_2": null, "FID_5": null, "distance_3": null, "angle_3": null }, "geometry": { "type": "MultiPoint", "coordinates": [ [ 366800.155519495718181, 6875692.965700477361679 ] ] } },
{ "type": "Feature", "properties": { "FID": null, "NOME": null, "FID_2": null, "NOME_2": "Praça Parque Farroupilha\n", "FID_3": null, "distance": null, "angle": null, "FID_4": null, "distance_2": null, "angle_2": null, "FID_5": null, "distance_3": null, "angle_3": null }, "geometry": { "type": "MultiPoint", "coordinates": [ [ 365427.274038381117862, 6875175.44848853815347 ] ] } },
{ "type": "Feature", "properties": { "FID": null, "NOME": null, "FID_2": null, "NOME_2": "Praça Marechal Floriano\n", "FID_3": null, "distance": null, "angle": null, "FID_4": null, "distance_2": null, "angle_2": null, "FID_5": null, "distance_3": null, "angle_3": null }, "geometry": { "type": "MultiPoint", "coordinates": [ [ 362040.407664350001141, 6872901.865409490652382 ] ] } },
{ "type": "Feature", "properties": { "FID": null, "NOME": null, "FID_2": null, "NOME_2": "Praça Capitão Jovino\n", "FID_3": null, "distance": null, "angle": null, "FID_4": null, "distance_2": null, "angle_2": null, "FID_5": null, "distance_3": null, "angle_3": null }, "geometry": { "type": "MultiPoint", "coordinates": [ [ 362880.65949060942512, 6872729.247728157788515 ] ] } },
{ "type": "Feature", "properties": { "FID": null, "NOME": null, "FID_2": null, "NOME_2": "Logradouro Cecy Leite Costa\n", "FID_3": null, "distance": null, "angle": null, "FID_4": null, "distance_2": null, "angle_2": null, "FID_5": null, "distance_3": null, "angle_3": null }, "geometry": { "type": "MultiPoint", "coordinates": [ [ 363733.001271203509532, 6872230.201279788278043 ] ] } },
{ "type": "Feature", "properties": { "FID": null, "NOME": null, "FID_2": null, "NOME_2": "Praça Clemente Bernardon\n", "FID_3": null, "distance": null, "angle": null, "FID_4": null, "distance_2": null, "angle_2": null, "FID_5": null, "distance_3": null, "angle_3": null }, "geometry": { "type": "MultiPoint", "coordinates": [ [ 363649.043254990538117, 6872264.456150403246284 ] ] } },
{ "type": "Feature", "properties": { "FID": null, "NOME": null, "FID_2": null, "NOME_2": "Praça Narciso Vieira D'Avila\n", "FID_3": null, "distance": null, "angle": null, "FID_4": null, "distance_2": null, "angle_2": null, "FID_5": null, "distance_3": null, "angle_3": null }, "geometry": { "type": "MultiPoint", "coordinates": [ [ 365293.277044505055528, 6873757.565510736778378 ] ] } },
{ "type": "Feature", "properties": { "FID": null, "NOME": null, "FID_2": null, "NOME_2": "Praça Vila Isabel\n", "FID_3": null, "distance": null, "angle": null, "FID_4": null, "distance_2": null, "angle_2": null, "FID_5": null, "distance_3": null, "angle_3": null }, "geometry": { "type": "MultiPoint", "coordinates": [ [ 365058.026683076401241, 6873499.142736833542585 ] ] } },
{ "type": "Feature", "properties": { "FID": null, "NOME": null, "FID_2": null, "NOME_2": "Praça Sem Denominação\n", "FID_3": null, "distance": null, "angle": null, "FID_4": null, "distance_2": null, "angle_2": null, "FID_5": null, "distance_3": null, "angle_3": null }, "geometry": { "type": "MultiPoint", "coordinates": [ [ 365039.891751574527007, 6872943.676501567475498 ] ] } },
{ "type": "Feature", "properties": { "FID": null, "NOME": null, "FID_2": null, "NOME_2": "Praça São Francisco de Assis\n", "FID_3": null, "distance": null, "angle": null, "FID_4": null, "distance_2": null, "angle_2": null, "FID_5": null, "distance_3": null, "angle_3": null }, "geometry": { "type": "MultiPoint", "coordinates": [ [ 364793.726848038088065, 6872819.082805507816374 ] ] } },
{ "type": "Feature", "properties": { "FID": null, "NOME": null, "FID_2": null, "NOME_2": "Praça Ernesto Antônio Dal Amaria\n", "FID_3": null, "distance": null, "angle": null, "FID_4": null, "distance_2": null, "angle_2": null, "FID_5": null, "distance_3": null, "angle_3": null }, "geometry": { "type": "MultiPoint", "coordinates": [ [ 364169.415039478393737, 6871320.264300073496997 ] ] } },
{ "type": "Feature", "properties": { "FID": null, "NOME": null, "FID_2": null, "NOME_2": "Praça Paulo Rossato\n", "FID_3": null, "distance": null, "angle": null, "FID_4": null, "distance_2": null, "angle_2": null, "FID_5": null, "distance_3": null, "angle_3": null }, "geometry": { "type": "MultiPoint", "coordinates": [ [ 364672.491472626454197, 6871430.417217344976962 ] ] } },
{ "type": "Feature", "properties": { "FID": null, "NOME": null, "FID_2": null, "NOME_2": "Largo Remigio Mognon\n", "FID_3": null, "distance": null, "angle": null, "FID_4": null, "distance_2": null, "angle_2": null, "FID_5": null, "distance_3": null, "angle_3": null }, "geometry": { "type": "MultiPoint", "coordinates": [ [ 364539.501974945189431, 6870776.552187078632414 ] ] } },
{ "type": "Feature", "properties": { "FID": null, "NOME": null, "FID_2": null, "NOME_2": "Praça Cristóvão II\n", "FID_3": null, "distance": null, "angle": null, "FID_4": null, "distance_2": null, "angle_2": null, "FID_5": null, "distance_3": null, "angle_3": null }, "geometry": { "type": "MultiPoint", "coordinates": [ [ 366022.872205395484343, 6871201.379749116487801 ] ] } },
{ "type": "Feature", "properties": { "FID": null, "NOME": null, "FID_2": null, "NOME_2": "Praça Cesar Santos\n", "FID_3": null, "distance": null, "angle": null, "FID_4": null, "distance_2": null, "angle_2": null, "FID_5": null, "distance_3": null, "angle_3": null }, "geometry": { "type": "MultiPoint", "coordinates": [ [ 366124.965153110446408, 6870592.516215542331338 ] ] } },
{ "type": "Feature", "properties": { "FID": null, "NOME": null, "FID_2": null, "NOME_2": "Praça Vera Lúcia Pino\n", "FID_3": null, "distance": null, "angle": null, "FID_4": null, "distance_2": null, "angle_2": null, "FID_5": null, "distance_3": null, "angle_3": null }, "geometry": { "type": "MultiPoint", "coordinates": [ [ 365357.588884924014565, 6870394.375297280028462 ] ] } },
{ "type": "Feature", "properties": { "FID": null, "NOME": null, "FID_2": null, "NOME_2": "Praça Via Sul\n", "FID_3": null, "distance": null, "angle": null, "FID_4": null, "distance_2": null, "angle_2": null, "FID_5": null, "distance_3": null, "angle_3": null }, "geometry": { "type": "MultiPoint", "coordinates": [ [ 366664.983113392430823, 6870379.59868642501533 ] ] } },
{ "type": "Feature", "properties": { "FID": null, "NOME": null, "FID_2": null, "NOME_2": "Praça Valentina Olanda Spesotto\n", "FID_3": null, "distance": null, "angle": null, "FID_4": null, "distance_2": null, "angle_2": null, "FID_5": null, "distance_3": null, "angle_3": null }, "geometry": { "type": "MultiPoint", "coordinates": [ [ 365711.220049213327002, 6872954.758959711529315 ] ] } },
{ "type": "Feature", "properties": { "FID": null, "NOME": null, "FID_2": null, "NOME_2": null, "FID_3": 0, "distance": 0.0, "angle": 36.540635192124618, "FID_4": null, "distance_2": null, "angle_2": null, "FID_5": null, "distance_3": null, "angle_3": null }, "geometry": { "type": "MultiPoint", "coordinates": [ [ 363337.593928329879418, 6874855.04585178475827 ] ] } },
{ "type": "Feature", "properties": { "FID": null, "NOME": null, "FID_2": null, "NOME_2": null, "FID_3": 0, "distance": 400.0, "angle": 42.887349768732307, "FID_4": null, "distance_2": null, "angle_2": null, "FID_5": null, "distance_3": null, "angle_3": null }, "geometry": { "type": "MultiPoint", "coordinates": [ [ 363592.605047064949758, 6875162.420340179465711 ] ] } },
{ "type": "Feature", "properties": { "FID": null, "NOME": null, "FID_2": null, "NOME_2": null, "FID_3": 0, "distance": 800.0, "angle": 77.644640134902431, "FID_4": null, "distance_2": null, "angle_2": null, "FID_5": null, "distance_3": null, "angle_3": null }, "geometry": { "type": "MultiPoint", "coordinates": [ [ 363970.169614341459237, 6875275.602311631664634 ] ] } },
{ "type": "Feature", "properties": { "FID": null, "NOME": null, "FID_2": null, "NOME_2": null, "FID_3": 0, "distance": 1200.0, "angle": 90.724080537316283, "FID_4": null, "distance_2": null, "angle_2": null, "FID_5": null, "distance_3": null, "angle_3": null }, "geometry": { "type": "MultiPoint", "coordinates": [ [ 364363.349665713380091, 6875337.193148909136653 ] ] } },
{ "type": "Feature", "properties": { "FID": null, "NOME": null, "FID_2": null, "NOME_2": null, "FID_3": null, "distance": null, "angle": null, "FID_4": null, "distance_2": null, "angle_2": null, "FID_5": null, "distance_3": null, "angle_3": null }, "geometry": { "type": "MultiPoint", "coordinates": [ ] } },
{ "type": "Feature", "properties": { "FID": null, "NOME": null, "FID_2": null, "NOME_2": null, "FID_3": null, "distance": null, "angle": null, "FID_4": 0, "distance_2": 0.0, "angle_2": 289.24187827817792, "FID_5": null, "distance_3": null, "angle_3": null }, "geometry": { "type": "MultiPoint", "coordinates": [ [ 366389.008730859903153, 6870057.654288091696799 ] ] } },
{ "type": "Feature", "properties": { "FID": null, "NOME": null, "FID_2": null, "NOME_2": null, "FID_3": null, "distance": null, "angle": null, "FID_4": 0, "distance_2": 400.0, "angle_2": 304.71495850109829, "FID_5": null, "distance_3": null, "angle_3": null }, "geometry": { "type": "MultiPoint", "coordinates": [ [ 366013.685810359020252, 6870189.481089097447693 ] ] } },
{ "type": "Feature", "properties": { "FID": null, "NOME": null, "FID_2": null, "NOME_2": null, "FID_3": null, "distance": null, "angle": null, "FID_4": 0, "distance_2": 800.0, "angle_2": 305.55865245142832, "FID_5": null, "distance_3": null, "angle_3": null }, "geometry": { "type": "MultiPoint", "coordinates": [ [ 365686.175536420603748, 6870419.11117968801409 ] ] } },
{ "type": "Feature", "properties": { "FID": null, "NOME": null, "FID_2": null, "NOME_2": null, "FID_3": null, "distance": null, "angle": null, "FID_4": 0, "distance_2": 1200.0, "angle_2": 305.02007885391492, "FID_5": null, "distance_3": null, "angle_3": null }, "geometry": { "type": "MultiPoint", "coordinates": [ [ 365362.501831870584283, 6870654.089013394899666 ] ] } },
{ "type": "Feature", "properties": { "FID": null, "NOME": null, "FID_2": null, "NOME_2": null, "FID_3": null, "distance": null, "angle": null, "FID_4": 0, "distance_2": 1600.0, "angle_2": 305.23332060440185, "FID_5": null, "distance_3": null, "angle_3": null }, "geometry": { "type": "MultiPoint", "coordinates": [ [ 365035.974422935687471, 6870885.122242183424532 ] ] } },
{ "type": "Feature", "properties": { "FID": null, "NOME": null, "FID_2": null, "NOME_2": null, "FID_3": null, "distance": null, "angle": null, "FID_4": 0, "distance_2": 2000.0, "angle_2": 318.20791169562722, "FID_5": null, "distance_3": null, "angle_3": null }, "geometry": { "type": "MultiPoint", "coordinates": [ [ 364713.599148160836194, 6871121.512688867747784 ] ] } },
{ "type": "Feature", "properties": { "FID": null, "NOME": null, "FID_2": null, "NOME_2": null, "FID_3": null, "distance": null, "angle": null, "FID_4": 0, "distance_2": 2400.0, "angle_2": 317.25875546156402, "FID_5": null, "distance_3": null, "angle_3": null }, "geometry": { "type": "MultiPoint", "coordinates": [ [ 364516.334463734587189, 6871463.91877705976367 ] ] } },
{ "type": "Feature", "properties": { "FID": null, "NOME": null, "FID_2": null, "NOME_2": null, "FID_3": null, "distance": null, "angle": null, "FID_4": 0, "distance_2": 2800.0, "angle_2": 294.67166533107888, "FID_5": null, "distance_3": null, "angle_3": null }, "geometry": { "type": "MultiPoint", "coordinates": [ [ 364232.437289309280459, 6871740.971500001847744 ] ] } },
{ "type": "Feature", "properties": { "FID": null, "NOME": null, "FID_2": null, "NOME_2": null, "FID_3": null, "distance": null, "angle": null, "FID_4": 0, "distance_2": 3200.0, "angle_2": 318.73463532976183, "FID_5": null, "distance_3": null, "angle_3": null }, "geometry": { "type": "MultiPoint", "coordinates": [ [ 363946.0781863424927, 6872010.637863293290138 ] ] } },
{ "type": "Feature", "properties": { "FID": null, "NOME": null, "FID_2": null, "NOME_2": null, "FID_3": null, "distance": null, "angle": null, "FID_4": 0, "distance_2": 3600.0, "angle_2": 285.99830057640389, "FID_5": null, "distance_3": null, "angle_3": null }, "geometry": { "type": "MultiPoint", "coordinates": [ [ 363647.904885653581005, 6872266.062406537123024 ] ] } },
{ "type": "Feature", "properties": { "FID": null, "NOME": null, "FID_2": null, "NOME_2": null, "FID_3": null, "distance": null, "angle": null, "FID_4": null, "distance_2": null, "angle_2": null, "FID_5": 0, "distance_3": 0.0, "angle_3": 228.59475251941336 }, "geometry": { "type": "MultiPoint", "coordinates": [ [ 365107.624063671391923, 6875714.617820548824966 ] ] } },
{ "type": "Feature", "properties": { "FID": null, "NOME": null, "FID_2": null, "NOME_2": null, "FID_3": null, "distance": null, "angle": null, "FID_4": null, "distance_2": null, "angle_2": null, "FID_5": 0, "distance_3": 400.0, "angle_3": 228.59475251941336 }, "geometry": { "type": "MultiPoint", "coordinates": [ [ 364807.603863791679032, 6875450.065595715306699 ] ] } },
{ "type": "Feature", "properties": { "FID": null, "NOME": null, "FID_2": null, "NOME_2": null, "FID_3": null, "distance": null, "angle": null, "FID_4": null, "distance_2": null, "angle_2": null, "FID_5": 0, "distance_3": 800.0, "angle_3": 228.59475251941336 }, "geometry": { "type": "MultiPoint", "coordinates": [ [ 364507.583663911966141, 6875185.513370882719755 ] ] } },
{ "type": "Feature", "properties": { "FID": null, "NOME": null, "FID_2": null, "NOME_2": null, "FID_3": null, "distance": null, "angle": null, "FID_4": null, "distance_2": null, "angle_2": null, "FID_5": 0, "distance_3": 1200.0, "angle_3": 228.59475251941336 }, "geometry": { "type": "MultiPoint", "coordinates": [ [ 364207.563464032195043, 6874920.961146049201488 ] ] } },
{ "type": "Feature", "properties": { "FID": null, "NOME": null, "FID_2": null, "NOME_2": null, "FID_3": null, "distance": null, "angle": null, "FID_4": null, "distance_2": null, "angle_2": null, "FID_5": 0, "distance_3": 1600.0, "angle_3": 228.59475251941336 }, "geometry": { "type": "MultiPoint", "coordinates": [ [ 363907.543264152482152, 6874656.408921216614544 ] ] } },
{ "type": "Feature", "properties": { "FID": null, "NOME": null, "FID_2": null, "NOME_2": null, "FID_3": null, "distance": null, "angle": null, "FID_4": null, "distance_2": null, "angle_2": null, "FID_5": 0, "distance_3": 2000.0, "angle_3": 228.59475251941336 }, "geometry": { "type": "MultiPoint", "coordinates": [ [ 363607.523064272769261, 6874391.856696383096278 ] ] } },
{ "type": "Feature", "properties": { "FID": null, "NOME": null, "FID_2": null, "NOME_2": null, "FID_3": null, "distance": null, "angle": null, "FID_4": null, "distance_2": null, "angle_2": null, "FID_5": 0, "distance_3": 2400.0, "angle_3": 228.59475251941336 }, "geometry": { "type": "MultiPoint", "coordinates": [ [ 363307.50286439305637, 6874127.304471550509334 ] ] } },
{ "type": "Feature", "properties": { "FID": null, "NOME": null, "FID_2": null, "NOME_2": null, "FID_3": null, "distance": null, "angle": null, "FID_4": null, "distance_2": null, "angle_2": null, "FID_5": 0, "distance_3": 2800.0, "angle_3": 230.38931175989723 }, "geometry": { "type": "MultiPoint", "coordinates": [ [ 363005.341730074957013, 6873865.258253105916083 ] ] } },
{ "type": "Feature", "properties": { "FID": null, "NOME": null, "FID_2": null, "NOME_2": null, "FID_3": null, "distance": null, "angle": null, "FID_4": null, "distance_2": null, "angle_2": null, "FID_5": 0, "distance_3": 3200.0, "angle_3": 230.38931175989723 }, "geometry": { "type": "MultiPoint", "coordinates": [ [ 362697.184001625399105, 6873610.231167491525412 ] ] } },
{ "type": "Feature", "properties": { "FID": null, "NOME": null, "FID_2": null, "NOME_2": null, "FID_3": null, "distance": null, "angle": null, "FID_4": null, "distance_2": null, "angle_2": null, "FID_5": 0, "distance_3": 3600.0, "angle_3": 230.38931175989723 }, "geometry": { "type": "MultiPoint", "coordinates": [ [ 362389.026273175899405, 6873355.204081878066063 ] ] } },
{ "type": "Feature", "properties": { "FID": null, "NOME": null, "FID_2": null, "NOME_2": null, "FID_3": null, "distance": null, "angle": null, "FID_4": null, "distance_2": null, "angle_2": null, "FID_5": 0, "distance_3": 4000.0, "angle_3": 241.83268747664621 }, "geometry": { "type": "MultiPoint", "coordinates": [ [ 362045.343866081733722, 6873153.065225220285356 ] ] } },
{ "type": "Feature", "properties": { "FID": null, "NOME": null, "FID_2": null, "NOME_2": null, "FID_3": null, "distance": null, "angle": null, "FID_4": null, "distance_2": null, "angle_2": null, "FID_5": 0, "distance_3": 4400.0, "angle_3": 241.83268747664621 }, "geometry": { "type": "MultiPoint", "coordinates": [ [ 361692.714705772057641, 6872964.2460649125278 ] ] } },
{ "type": "Feature", "properties": { "FID": null, "NOME": null, "FID_2": null, "NOME_2": null, "FID_3": null, "distance": null, "angle": null, "FID_4": null, "distance_2": null, "angle_2": null, "FID_5": 0, "distance_3": 4800.0, "angle_3": 241.83268747664621 }, "geometry": { "type": "MultiPoint", "coordinates": [ [ 361340.085545462439768, 6872775.426904604770243 ] ] } },
{ "type": "Feature", "properties": { "FID": null, "NOME": null, "FID_2": null, "NOME_2": null, "FID_3": null, "distance": null, "angle": null, "FID_4": null, "distance_2": null, "angle_2": null, "FID_5": 0, "distance_3": 5200.0, "angle_3": 241.83268747664621 }, "geometry": { "type": "MultiPoint", "coordinates": [ [ 360987.456385152763687, 6872586.607744297012687 ] ] } },
{ "type": "Feature", "properties": { "FID": null, "NOME": null, "FID_2": null, "NOME_2": null, "FID_3": null, "distance": null, "angle": null, "FID_4": null, "distance_2": null, "angle_2": null, "FID_5": 0, "distance_3": 5600.0, "angle_3": 241.83268747664621 }, "geometry": { "type": "MultiPoint", "coordinates": [ [ 360634.827224843087606, 6872397.78858398925513 ] ] } },
{ "type": "Feature", "properties": { "FID": null, "NOME": null, "FID_2": null, "NOME_2": null, "FID_3": null, "distance": null, "angle": null, "FID_4": null, "distance_2": null, "angle_2": null, "FID_5": 0, "distance_3": 6000.0, "angle_3": 242.98733465195977 }, "geometry": { "type": "MultiPoint", "coordinates": [ [ 360280.093975383846555, 6872212.995888380333781 ] ] } },
{ "type": "Feature", "properties": { "FID": null, "NOME": null, "FID_2": null, "NOME_2": null, "FID_3": null, "distance": null, "angle": null, "FID_4": null, "distance_2": null, "angle_2": null, "FID_5": 0, "distance_3": 6400.0, "angle_3": 273.28386228786621 }, "geometry": { "type": "MultiPoint", "coordinates": [ [ 359898.244164521514904, 6872138.30292687844485 ] ] } },
{ "type": "Feature", "properties": { "FID": null, "NOME": null, "FID_2": null, "NOME_2": null, "FID_3": null, "distance": null, "angle": null, "FID_4": null, "distance_2": null, "angle_2": null, "FID_5": 0, "distance_3": 6800.0, "angle_3": 294.89376520164188 }, "geometry": { "type": "MultiPoint", "coordinates": [ [ 359532.272184486442711, 6872294.182307227514684 ] ] } },
{ "type": "Feature", "properties": { "FID": null, "NOME": null, "FID_2": null, "NOME_2": null, "FID_3": null, "distance": null, "angle": null, "FID_4": null, "distance_2": null, "angle_2": null, "FID_5": 0, "distance_3": 7200.0, "angle_3": 265.41390110388471 }, "geometry": { "type": "MultiPoint", "coordinates": [ [ 359150.279684860550333, 6872355.594974430277944 ] ] } },
{ "type": "Feature", "properties": { "FID": null, "NOME": null, "FID_2": null, "NOME_2": null, "FID_3": null, "distance": null, "angle": null, "FID_4": null, "distance_2": null, "angle_2": null, "FID_5": 0, "distance_3": 7600.0, "angle_3": 220.11159905182527 }, "geometry": { "type": "MultiPoint", "coordinates": [ [ 358825.264479243429378, 6872166.167179867625237 ] ] } },
{ "type": "Feature", "properties": { "FID": null, "NOME": null, "FID_2": null, "NOME_2": null, "FID_3": null, "distance": null, "angle": null, "FID_4": null, "distance_2": null, "angle_2": null, "FID_5": null, "distance_3": 0.0, "angle_3": 228.59475251941336 }, "geometry": { "type": "MultiPoint", "coordinates": [ [ 365107.624063671391923, 6875714.617820548824966 ] ] } },
{ "type": "Feature", "properties": { "FID": null, "NOME": null, "FID_2": null, "NOME_2": null, "FID_3": null, "distance": null, "angle": null, "FID_4": null, "distance_2": null, "angle_2": null, "FID_5": null, "distance_3": 400.0, "angle_3": 228.59475251941336 }, "geometry": { "type": "MultiPoint", "coordinates": [ [ 364807.603863791679032, 6875450.065595715306699 ] ] } },
{ "type": "Feature", "properties": { "FID": null, "NOME": null, "FID_2": null, "NOME_2": null, "FID_3": null, "distance": null, "angle": null, "FID_4": null, "distance_2": null, "angle_2": null, "FID_5": null, "distance_3": 800.0, "angle_3": 228.59475251941336 }, "geometry": { "type": "MultiPoint", "coordinates": [ [ 364507.583663911966141, 6875185.513370882719755 ] ] } },
{ "type": "Feature", "properties": { "FID": null, "NOME": null, "FID_2": null, "NOME_2": null, "FID_3": null, "distance": null, "angle": null, "FID_4": null, "distance_2": null, "angle_2": null, "FID_5": null, "distance_3": 1200.0, "angle_3": 228.59475251941336 }, "geometry": { "type": "MultiPoint", "coordinates": [ [ 364207.563464032195043, 6874920.961146049201488 ] ] } },
{ "type": "Feature", "properties": { "FID": null, "NOME": null, "FID_2": null, "NOME_2": null, "FID_3": null, "distance": null, "angle": null, "FID_4": null, "distance_2": null, "angle_2": null, "FID_5": null, "distance_3": 1600.0, "angle_3": 228.59475251941336 }, "geometry": { "type": "MultiPoint", "coordinates": [ [ 363907.543264152482152, 6874656.408921216614544 ] ] } },
{ "type": "Feature", "properties": { "FID": null, "NOME": null, "FID_2": null, "NOME_2": null, "FID_3": null, "distance": null, "angle": null, "FID_4": null, "distance_2": null, "angle_2": null, "FID_5": null, "distance_3": 2000.0, "angle_3": 228.59475251941336 }, "geometry": { "type": "MultiPoint", "coordinates": [ [ 363607.523064272769261, 6874391.856696383096278 ] ] } },
{ "type": "Feature", "properties": { "FID": null, "NOME": null, "FID_2": null, "NOME_2": null, "FID_3": null, "distance": null, "angle": null, "FID_4": null, "distance_2": null, "angle_2": null, "FID_5": null, "distance_3": 2400.0, "angle_3": 228.59475251941336 }, "geometry": { "type": "MultiPoint", "coordinates": [ [ 363307.50286439305637, 6874127.304471550509334 ] ] } },
{ "type": "Feature", "properties": { "FID": null, "NOME": null, "FID_2": null, "NOME_2": null, "FID_3": null, "distance": null, "angle": null, "FID_4": null, "distance_2": null, "angle_2": null, "FID_5": null, "distance_3": 2800.0, "angle_3": 230.38931175989723 }, "geometry": { "type": "MultiPoint", "coordinates": [ [ 363005.341730074957013, 6873865.258253105916083 ] ] } },
{ "type": "Feature", "properties": { "FID": null, "NOME": null, "FID_2": null, "NOME_2": null, "FID_3": null, "distance": null, "angle": null, "FID_4": null, "distance_2": null, "angle_2": null, "FID_5": null, "distance_3": 3200.0, "angle_3": 230.38931175989723 }, "geometry": { "type": "MultiPoint", "coordinates": [ [ 362697.184001625399105, 6873610.231167491525412 ] ] } },
{ "type": "Feature", "properties": { "FID": null, "NOME": null, "FID_2": null, "NOME_2": null, "FID_3": null, "distance": null, "angle": null, "FID_4": null, "distance_2": null, "angle_2": null, "FID_5": null, "distance_3": 3600.0, "angle_3": 230.38931175989723 }, "geometry": { "type": "MultiPoint", "coordinates": [ [ 362389.026273175899405, 6873355.204081878066063 ] ] } },
{ "type": "Feature", "properties": { "FID": null, "NOME": null, "FID_2": null, "NOME_2": null, "FID_3": null, "distance": null, "angle": null, "FID_4": null, "distance_2": null, "angle_2": null, "FID_5": null, "distance_3": 4000.0, "angle_3": 241.83268747664621 }, "geometry": { "type": "MultiPoint", "coordinates": [ [ 362045.343866081733722, 6873153.065225220285356 ] ] } },
{ "type": "Feature", "properties": { "FID": null, "NOME": null, "FID_2": null, "NOME_2": null, "FID_3": null, "distance": null, "angle": null, "FID_4": null, "distance_2": null, "angle_2": null, "FID_5": null, "distance_3": 4400.0, "angle_3": 241.83268747664621 }, "geometry": { "type": "MultiPoint", "coordinates": [ [ 361692.714705772057641, 6872964.2460649125278 ] ] } },
{ "type": "Feature", "properties": { "FID": null, "NOME": null, "FID_2": null, "NOME_2": null, "FID_3": null, "distance": null, "angle": null, "FID_4": null, "distance_2": null, "angle_2": null, "FID_5": null, "distance_3": 4800.0, "angle_3": 241.83268747664621 }, "geometry": { "type": "MultiPoint", "coordinates": [ [ 361340.085545462439768, 6872775.426904604770243 ] ] } },
{ "type": "Feature", "properties": { "FID": null, "NOME": null, "FID_2": null, "NOME_2": null, "FID_3": null, "distance": null, "angle": null, "FID_4": null, "distance_2": null, "angle_2": null, "FID_5": null, "distance_3": 5200.0, "angle_3": 241.83268747664621 }, "geometry": { "type": "MultiPoint", "coordinates": [ [ 360987.456385152763687, 6872586.607744297012687 ] ] } },
{ "type": "Feature", "properties": { "FID": null, "NOME": null, "FID_2": null, "NOME_2": null, "FID_3": null, "distance": null, "angle": null, "FID_4": null, "distance_2": null, "angle_2": null, "FID_5": null, "distance_3": 5600.0, "angle_3": 241.83268747664621 }, "geometry": { "type": "MultiPoint", "coordinates": [ [ 360634.827224843087606, 6872397.78858398925513 ] ] } },
{ "type": "Feature", "properties": { "FID": null, "NOME": null, "FID_2": null, "NOME_2": null, "FID_3": null, "distance": null, "angle": null, "FID_4": null, "distance_2": null, "angle_2": null, "FID_5": null, "distance_3": 6000.0, "angle_3": 242.98733465195977 }, "geometry": { "type": "MultiPoint", "coordinates": [ [ 360280.093975383846555, 6872212.995888380333781 ] ] } },
{ "type": "Feature", "properties": { "FID": null, "NOME": null, "FID_2": null, "NOME_2": null, "FID_3": null, "distance": null, "angle": null, "FID_4": null, "distance_2": null, "angle_2": null, "FID_5": null, "distance_3": 6400.0, "angle_3": 273.28386228786621 }, "geometry": { "type": "MultiPoint", "coordinates": [ [ 359898.244164521514904, 6872138.30292687844485 ] ] } },
{ "type": "Feature", "properties": { "FID": null, "NOME": null, "FID_2": null, "NOME_2": null, "FID_3": null, "distance": null, "angle": null, "FID_4": null, "distance_2": null, "angle_2": null, "FID_5": null, "distance_3": 6800.0, "angle_3": 294.89376520164188 }, "geometry": { "type": "MultiPoint", "coordinates": [ [ 359532.272184486442711, 6872294.182307227514684 ] ] } },
{ "type": "Feature", "properties": { "FID": null, "NOME": null, "FID_2": null, "NOME_2": null, "FID_3": null, "distance": null, "angle": null, "FID_4": null, "distance_2": null, "angle_2": null, "FID_5": null, "distance_3": 7200.0, "angle_3": 265.41390110388471 }, "geometry": { "type": "MultiPoint", "coordinates": [ [ 359150.279684860550333, 6872355.594974430277944 ] ] } },
{ "type": "Feature", "properties": { "FID": null, "NOME": null, "FID_2": null, "NOME_2": null, "FID_3": null, "distance": null, "angle": null, "FID_4": null, "distance_2": null, "angle_2": null, "FID_5": null, "distance_3": 7600.0, "angle_3": 220.11159905182527 }, "geometry": { "type": "MultiPoint", "coordinates": [ [ 358825.264479243429378, 6872166.167179867625237 ] ] } }
]
}
