{
"type": "FeatureCollection",
"name": "Equipamentos esportivos",
"crs": { "type": "name", "properties": { "name": "urn:ogc:def:crs:EPSG::31982" } },
"features": [
{ "type": "Feature", "properties": { "Nome": "Centro de Esporte e Lazer Fredolino Chimango" }, "geometry": { "type": "Point", "coordinates": [ 361216.082245485682506, 6873465.758941870182753 ] } },
{ "type": "Feature", "properties": { "Nome": "Complexo Esportivo Delmar Sitoni" }, "geometry": { "type": "Point", "coordinates": [ 360304.493273699423298, 6873378.957027920521796 ] } }
]
}
